{"type": "FeatureCollection", "features": [{"type": "Feature", "properties": {"name": "Antarctica", "iso3": "ATA", "label": [-8.1624, -74.7352]}, "geometry": {"type": "MultiPolygon", "coordinates": [[[[-45.7178, -60.5209], [-45.4997, -60.5465], [-45.3574, -60.6238], [-45.2281, -60.6397], [-45.1737, -60.733], [-45.398, -60.6497], [-45.7092, -60.6454], [-45.78, -60.586], [-45.9373, -60.6199], [-45.9348, -60.5266], [-45.8342, -60.5435], [-45.7178, -60.5209]]], [[[-90.5362, -68.7978], [-90.6471, -68.7797], [-90.6167, -68.7121], [-90.5251, -68.7385], [-90.533, -68.7973], [-90.5362, -68.7978]]], [[[-57.0207, -63.3729], [-56.7818, -63.5717], [-56.8348, -63.6313], [-57.1192, -63.6378], [-57.1522, -63.4791], [-57.4606, -63.5136], [-58.263, -63.7634], [-58.839, -64.1868], [-59.0053, -64.1949], [-59.0473, -64.2345], [-58.7993, -64.2927], [-58.9051, -64.3521], [-58.7861, -64.5242], [-58.8919, -64.5374], [-59.0507, -64.4514], [-59.2294, -64.4436], [-59.4607, -64.3456], [-59.5468, -64.3588], [-59.646, -64.5837], [-59.765, -64.4514], [-59.9631, -64.4313], [-60.3405, -64.5506], [-61.0599, -64.9813], [-61.3318, -65.0238], [-61.7031, -64.9872], [-61.5774, -65.1856], [-61.6634, -65.2386], [-61.8556, -65.2354], [-61.9479, -65.1923], [-62.1453, -65.3317], [-62.0537, -65.4568], [-61.756, -65.5692], [-61.9914, -65.5892], [-62.305, -65.8404], [-62.2933, -65.9164], [-62.005, -66.1129], [-61.8391, -66.1195], [-61.3591, -66.0588], [-61.2661, -65.98], [-61.0393, -65.992], [-60.9128, -65.9209], [-60.6183, -65.9331], [-60.5654, -65.9794], [-60.744, -66.1051], [-60.8564, -66.0653], [-61.0093, -66.1105], [-60.9027, -66.191], [-61.0284, -66.3365], [-61.1498, -66.2117], [-61.4319, -66.1447], [-61.5261, -66.2257], [-61.6756, -66.2495], [-61.756, -66.4292], [-61.8754, -66.2961], [-62.1165, -66.209], [-62.682, -66.2373], [-62.7548, -66.3102], [-62.5432, -66.621], [-62.5365, -66.707], [-62.6289, -66.7062], [-63.2575, -66.2638], [-63.5866, -66.2417], [-63.7525, -66.2777], [-63.6544, -66.3829], [-64.0777, -66.6541], [-63.8088, -66.7609], [-63.7547, -66.8729], [-64.0426, -66.9272], [-64.6863, -66.8063], [-64.8781, -67.0245], [-64.7855, -67.1237], [-65.0269, -67.2141], [-64.8583, -67.2428], [-64.8193, -67.3073], [-65.2485, -67.342], [-65.3501, -67.3109], [-65.5031, -67.3772], [-65.4181, -67.6596], [-65.6, -67.8757], [-65.4694, -68.0095], [-65.6395, -68.1306], [-65.218, -68.14], [-64.8847, -68.0563], [-64.8295, -68.1274], [-65.452, -68.3367], [-64.9965, -68.4078], [-65.2416, -68.5832], [-65.1583, -68.618], [-64.4289, -68.7461], [-64.0785, -68.7712], [-64.1692, -68.5825], [-63.9245, -68.4977], [-63.2166, -68.4188], [-62.9333, -68.4426], [-62.9797, -68.4863], [-63.1147, -68.4706], [-63.3475, -68.4994], [-63.7073, -68.5922], [-63.747, -68.7046], [-63.3435, -68.8104], [-63.456, -69.0419], [-62.9941, -69.3289], [-62.5868, -69.4772], [-62.4505, -69.5844], [-62.4071, -69.8272], [-62.2024, -70.0279], [-61.9611, -70.1201], [-62.014, -70.2789], [-62.2179, -70.2332], [-62.3778, -70.3648], [-62.0008, -70.4972], [-61.5047, -70.4905], [-61.4914, -70.5699], [-61.6965, -70.6758], [-61.9941, -70.7286], [-61.9611, -70.9006], [-61.7021, -70.8567], [-61.3128, -70.8676], [-60.9623, -71.2446], [-61.0031, -71.3193], [-61.9588, -71.6578], [-61.5628, -71.6753], [-61.2136, -71.5641], [-60.9953, -71.6613], [-61.0351, -71.82], [-61.9389, -71.9036], [-62.2566, -72.0176], [-61.894, -72.071], [-61.628, -72.0527], [-61.3103, -72.1127], [-60.9518, -72.0502], [-60.7194, -72.0727], [-60.7303, -72.426], [-61.2798, -72.4683], [-61.2861, -72.6008], [-60.9392, -72.6997], [-60.7241, -72.6469], [-60.5323, -72.6733], [-60.3847, -73.0073], [-60.2545, -73.0173], [-60.1487, -72.9379], [-60.0098, -72.9379], [-59.9568, -73.0306], [-60.1222, -73.2753], [-60.5607, -73.2114], [-60.8959, -73.3204], [-61.0813, -73.3282], [-61.4284, -73.1914], [-62.0083, -73.1477], [-61.7876, -73.2549], [-61.637, -73.5002], [-61.4055, -73.4671], [-61.0798, -73.5387], [-60.7903, -73.7118], [-60.9027, -73.8706], [-61.0883, -73.9295], [-61.2034, -73.9566], [-61.4041, -73.896], [-61.5454, -73.896], [-61.8382, -74.032], [-61.3194, -74.0359], [-61.0417, -74.122], [-61.2269, -74.2079], [-61.5708, -74.1947], [-61.8428, -74.2896], [-61.3318, -74.3286], [-60.7837, -74.241], [-60.7043, -74.3071], [-61.0108, -74.4783], [-61.64, -74.5136], [-62.2353, -74.4413], [-61.8552, -74.7768], [-61.928, -74.8628], [-62.3725, -74.9521], [-62.5668, -74.8958], [-62.7085, -74.7371], [-62.8871, -74.6908], [-63.1781, -74.6842], [-63.198, -74.9091], [-63.357, -74.8783], [-63.9247, -75.0045], [-63.3369, -75.0348], [-63.1732, -75.1147], [-63.2311, -75.1538], [-63.8575, -75.2062], [-64.2795, -75.2929], [-63.3038, -75.3522], [-63.3634, -75.4515], [-66.3704, -76.0134], [-67.5182, -76.1098], [-69.3044, -76.3508], [-69.9153, -76.522], [-70.2102, -76.6741], [-70.895, -76.7394], [-71.7987, -76.7527], [-72.7223, -76.6891], [-73.8798, -76.6968], [-75.2684, -76.5814], [-75.6593, -76.6082], [-76.2442, -76.5854], [-77.19, -76.6298], [-77.2871, -76.7017], [-77.168, -76.8339], [-76.2486, -77.2749], [-75.7481, -77.3984], [-75.3869, -77.4742], [-74.5806, -77.478], [-72.852, -77.5902], [-72.8751, -77.6938], [-73.485, -77.9708], [-74.0421, -78.1094], [-74.8121, -78.1778], [-75.3984, -78.1578], [-77.7421, -77.9403], [-79.679, -77.8426], [-80.6016, -77.752], [-81.1031, -77.8418], [-81.581, -77.8461], [-79.5097, -78.1543], [-77.8581, -78.351], [-77.4326, -78.4347], [-77.545, -78.6596], [-77.8691, -78.7455], [-78.7116, -78.7521], [-79.7666, -78.8207], [-80.2923, -78.8228], [-81.9293, -78.5591], [-82.6084, -78.4124], [-83.779, -77.9836], [-83.6877, -78.148], [-83.227, -78.4016], [-83.355, -78.4076], [-83.5444, -78.3553], [-83.7059, -78.4041], [-83.7627, -78.4611], [-83.5952, -78.611], [-83.26, -78.7742], [-81.6609, -79.0998], [-80.892, -79.5019], [-80.5348, -79.5128], [-80.4885, -79.321], [-80.1512, -79.2681], [-79.4557, -79.3044], [-76.4991, -79.3257], [-76.2177, -79.3872], [-76.0316, -79.6271], [-76.5579, -79.9035], [-77.2223, -79.9941], [-77.7019, -80.0096], [-79.6604, -79.9969], [-78.1761, -80.1668], [-77.1604, -80.1529], [-76.4073, -80.0949], [-75.709, -80.3827], [-75.4945, -80.6175], [-75.0756, -80.8601], [-74.8066, -80.8865], [-74.5111, -80.838], [-73.9378, -80.8159], [-73.0295, -80.9173], [-72.1736, -80.7639], [-71.0177, -80.619], [-70.6879, -80.6263], [-70.5601, -80.6466], [-70.2391, -80.8566], [-69.7723, -80.9615], [-69.1816, -81.0049], [-68.5898, -80.968], [-68.3266, -81.0041], [-68.1437, -81.1304], [-65.5737, -81.4605], [-64.7501, -81.5217], [-62.3537, -81.5767], [-62.1654, -81.6361], [-62.5418, -81.6783], [-64.6961, -81.6523], [-65.6197, -81.7293], [-65.4866, -81.775], [-65.2638, -81.7856], [-64.1902, -81.7948], [-64.1371, -81.8693], [-65.9162, -81.9022], [-66.1338, -81.9534], [-65.8438, -81.9933], [-65.9132, -82.1832], [-65.714, -82.2792], [-65.4244, -82.2804], [-64.9196, -82.3705], [-64.3966, -82.3744], [-63.7729, -82.3043], [-62.6453, -82.2631], [-61.9017, -82.2711], [-60.8591, -82.1867], [-60.5277, -82.1999], [-60.8172, -82.2758], [-62.0945, -82.4666], [-62.7356, -82.5273], [-61.917, -82.9767], [-61.7089, -83.01], [-61.3128, -82.9392], [-61.2184, -82.9918], [-61.2004, -83.0979], [-61.5898, -83.3412], [-61.4253, -83.3956], [-59.516, -83.4584], [-57.5571, -82.8902], [-56.3179, -82.6334], [-55.8007, -82.4784], [-55.2947, -82.4648], [-53.9861, -82.2006], [-53.3391, -82.1445], [-52.4149, -82.1349], [-50.653, -81.9755], [-48.3608, -81.8923], [-47.3603, -82.004], [-46.2581, -81.947], [-46.0464, -82.1587], [-46.1985, -82.2711], [-46.4483, -82.3398], [-46.5167, -82.4546], [-46.1753, -82.5116], [-45.0438, -82.438], [-44.2918, -82.3178], [-44.0642, -82.3314], [-43.6693, -82.2701], [-42.5646, -81.7616], [-42.0463, -81.5979], [-41.7116, -81.4077], [-41.1259, -81.2148], [-40.9146, -81.1724], [-40.4408, -81.1651], [-38.7717, -80.8823], [-37.2093, -81.0639], [-36.8124, -80.9747], [-35.9658, -80.8909], [-35.327, -80.6507], [-33.1913, -80.5187], [-32.7062, -80.5139], [-32.2557, -80.4607], [-31.3121, -80.4501], [-31.0154, -80.3081], [-30.4253, -80.2797], [-29.5315, -80.1818], [-24.2403, -80.0619], [-23.5745, -79.9648], [-23.4068, -79.859], [-24.0883, -79.8148], [-24.2999, -79.7708], [-25.2586, -79.7625], [-29.9493, -79.599], [-30.2112, -79.4853], [-30.1779, -79.3043], [-30.3159, -79.1631], [-30.6453, -79.1241], [-32.9942, -79.2288], [-34.1974, -79.1103], [-34.9949, -78.9775], [-35.516, -78.933], [-36.2392, -78.7742], [-36.1809, -78.4684], [-35.5093, -78.0412], [-35.0876, -77.8371], [-34.8083, -77.8206], [-34.5515, -77.7285], [-34.0758, -77.4254], [-32.6141, -77.1408], [-32.0634, -77.1599], [-31.6758, -77.0331], [-30.4892, -76.7623], [-30.222, -76.6604], [-28.9336, -76.3703], [-27.1345, -76.1573], [-26.0593, -75.9572], [-24.2696, -75.767], [-22.4655, -75.661], [-21.9481, -75.6941], [-21.4338, -75.6831], [-20.7833, -75.5939], [-20.4875, -75.492], [-19.493, -75.5399], [-18.3046, -75.4313], [-18.5169, -75.3899], [-18.7492, -75.2421], [-18.5169, -75.052], [-18.2212, -74.9745], [-17.4358, -74.3791], [-17.299, -74.3339], [-16.4295, -74.3239], [-15.6725, -74.4073], [-14.5738, -73.9375], [-14.6114, -73.8518], [-15.7488, -73.9456], [-16.2201, -73.9157], [-16.2819, -73.867], [-16.0031, -73.8159], [-15.9356, -73.7576], [-16.5188, -73.644], [-16.4352, -73.4257], [-15.596, -73.0968], [-15.007, -73.0475], [-14.321, -73.123], [-14.1647, -73.1024], [-14.0001, -73.0006], [-14.2978, -72.733], [-13.6028, -72.7921], [-13.2086, -72.7851], [-12.7469, -72.6289], [-11.497, -72.4129], [-10.9581, -71.902], [-11.0092, -71.7579], [-11.3331, -71.7855], [-12.1482, -71.6137], [-12.3513, -71.3897], [-11.9261, -71.2887], [-11.663, -71.3312], [-10.9698, -71.5601], [-10.8254, -71.5533], [-10.5201, -71.2955], [-10.0335, -71.1307], [-10.1223, -71.0609], [-10.331, -71.024], [-10.2706, -70.9357], [-10.0987, -70.9264], [-9.888, -71.0273], [-9.2307, -71.174], [-8.6465, -71.6728], [-7.9158, -71.6354], [-7.7137, -71.5465], [-7.5901, -71.2237], [-7.8735, -70.9403], [-7.7527, -70.8428], [-7.3881, -70.7869], [-6.8382, -70.8445], [-5.9363, -70.7127], [-5.6947, -70.7453], [-5.5879, -70.8567], [-6.0803, -71.1541], [-6.1175, -71.326], [-4.4501, -71.3277], [-3.7132, -71.3746], [-2.6103, -71.3208], [-2.2613, -71.3571], [-2.0146, -71.4334], [-1.3542, -71.3868], [-1.2164, -71.2842], [-1.0678, -71.2656], [-0.8959, -71.3492], [-0.7599, -71.6303], [-0.5432, -71.7127], [0.5385, -71.2742], [1.9087, -71.0036], [2.6095, -70.9001], [3.5069, -70.8444], [5.1131, -70.6557], [6.508, -70.5864], [7.4012, -70.4944], [7.6768, -70.3563], [8.523, -70.4738], [8.8175, -70.3908], [9.1416, -70.1837], [9.6135, -70.269], [10.2177, -70.5079], [10.9688, -70.6877], [11.7013, -70.7666], [12.4616, -70.3701], [12.9294, -70.2134], [12.8646, -70.1623], [12.5951, -70.1174], [12.6263, -70.0656], [13.0656, -70.0536], [13.2979, -70.2296], [13.8227, -70.3432], [14.4918, -70.2996], [15.8069, -70.324], [16.0252, -70.1935], [16.3811, -70.1451], [16.5849, -70.2038], [16.7092, -70.3973], [18.1246, -70.5403], [18.232, -70.5183], [18.4326, -70.2899], [18.8772, -70.2014], [19.0094, -70.2121], [19.1964, -70.2932], [19.0266, -70.674], [19.2651, -70.9023], [19.4093, -70.917], [20.1281, -70.9176], [21.0708, -70.8435], [21.3373, -70.4951], [21.705, -70.2585], [21.9623, -70.3004], [22.366, -70.4751], [22.2778, -70.6956], [22.979, -70.8104], [23.4068, -70.7232], [23.8036, -70.4046], [24.0241, -70.4134], [24.2357, -70.4486], [24.3857, -70.5369], [24.3857, -70.7044], [24.7567, -70.8921], [25.1874, -70.971], [25.9741, -71.0374], [26.4988, -71.0195], [27.2068, -70.9109], [27.6978, -70.7725], [28.9115, -70.5831], [29.4639, -70.4062], [30.0033, -70.3], [31.3788, -70.2258], [32.6213, -70.0006], [32.8098, -69.9094], [32.9894, -69.6242], [32.9031, -69.3787], [32.5676, -69.0742], [32.6416, -68.8689], [32.7762, -68.7831], [33.1215, -68.6892], [33.4656, -68.6707], [34.1929, -68.7024], [34.2193, -68.7906], [33.7721, -69.02], [33.8137, -69.0993], [34.5959, -69.0945], [35.357, -69.6813], [36.5859, -69.6379], [37.1148, -69.8104], [37.5598, -69.7184], [37.7871, -69.7257], [38.1443, -69.8242], [38.4994, -70.0562], [38.8855, -70.1719], [38.8593, -70.0061], [39.7051, -69.4256], [39.8639, -68.967], [40.2156, -68.8049], [40.4839, -68.7389], [40.8171, -68.7236], [41.3563, -68.5149], [42.4088, -68.3519], [42.9609, -68.0953], [44.3729, -67.9613], [44.6998, -67.9043], [44.9896, -67.7692], [45.197, -67.7312], [45.5693, -67.7364], [45.8877, -67.6598], [46.399, -67.6176], [46.3173, -67.402], [46.5597, -67.2682], [46.8839, -67.2748], [47.1544, -67.3572], [47.3516, -67.3619], [47.4029, -67.4092], [47.1172, -67.5727], [47.4898, -67.7279], [47.9586, -67.6601], [48.21, -67.6993], [48.3745, -67.9881], [48.551, -67.9264], [48.648, -67.794], [48.6304, -67.5206], [49.2193, -67.2269], [48.923, -67.1997], [48.7137, -67.2169], [48.4652, -67.0435], [48.8303, -66.9383], [49.2471, -66.9416], [50.0062, -67.1752], [50.553, -67.1943], [50.5209, -66.82], [50.3061, -66.7533], [50.2443, -66.6034], [50.3324, -66.4446], [50.5883, -66.3564], [50.9369, -66.3154], [51.8846, -66.02], [52.9553, -65.9455], [53.6718, -65.8587], [55.2904, -65.9542], [55.7104, -66.08], [56.3615, -66.3728], [56.8594, -66.4234], [57.0003, -66.4748], [57.1854, -66.6133], [56.9865, -66.7044], [56.8236, -66.7127], [56.2945, -66.6034], [56.1459, -66.6261], [56.4532, -66.7798], [56.4797, -66.8592], [56.3914, -66.9738], [55.8027, -67.1993], [56.1549, -67.2646], [56.7601, -67.0733], [57.6274, -67.0141], [58.7374, -67.2296], [59.2508, -67.485], [59.6502, -67.4586], [59.8676, -67.4031], [60.482, -67.3852], [61.3091, -67.5402], [62.1739, -67.5755], [62.6879, -67.6476], [63.2376, -67.5269], [63.699, -67.5083], [65.7075, -67.7164], [66.4884, -67.7655], [67.1748, -67.768], [68.3279, -67.8896], [68.8995, -67.8621], [69.4164, -67.743], [69.5592, -67.7632], [69.656, -67.8646], [69.603, -68.041], [69.9822, -68.4643], [69.5342, -68.7369], [69.6295, -69.2316], [69.3719, -69.3314], [69.0649, -69.3374], [68.9062, -69.3728], [68.8798, -69.4697], [69.1885, -69.6549], [69.0826, -69.8666], [68.7438, -69.9214], [68.4152, -69.9021], [68.1781, -69.8373], [67.268, -70.2731], [67.659, -70.326], [67.9408, -70.4229], [68.5594, -70.4125], [69.0209, -70.3252], [69.162, -70.334], [69.2502, -70.4311], [69.1884, -70.7046], [68.8728, -71.0352], [68.6237, -71.1814], [68.0374, -71.391], [67.4322, -72.0029], [66.8921, -72.9486], [66.4977, -73.1255], [66.5691, -73.2092], [67.0031, -73.2364], [67.3221, -73.3003], [67.9714, -73.0856], [67.9714, -72.7506], [68.4198, -72.515], [69.5547, -72.3745], [69.9621, -72.1329], [70.2943, -72.0554], [70.5729, -71.931], [70.6162, -71.8421], [71.0788, -71.7367], [71.2768, -71.6239], [71.4648, -71.1546], [71.7714, -70.8013], [71.9049, -70.7066], [72.418, -70.5986], [72.7604, -70.3957], [72.8221, -70.0959], [73.3248, -69.8489], [73.6761, -69.8258], [73.9422, -69.7432], [74.5711, -69.8796], [75.1479, -69.8555], [75.4238, -69.8931], [75.6355, -69.8489], [75.8912, -69.5756], [76.1117, -69.4874], [76.3598, -69.4902], [77.192, -69.206], [77.5409, -69.1744], [77.8175, -69.0689], [78.489, -68.6258], [78.5635, -68.3937], [78.7263, -68.2778], [79.0352, -68.1754], [82.017, -67.69], [82.2732, -67.6917], [82.607, -67.6131], [83.3043, -67.603], [83.4937, -67.4412], [84.4852, -67.1145], [84.7483, -67.1022], [85.7107, -67.1613], [86.1184, -67.055], [86.7502, -67.0371], [87.0849, -66.9401], [87.9803, -66.7885], [88.3142, -66.8175], [88.7895, -66.792], [89.6984, -66.823], [90.5473, -66.7343], [91.0217, -66.6028], [92.0734, -66.5079], [92.592, -66.6145], [92.7306, -66.6244], [93.0749, -66.5711], [94.0888, -66.6889], [94.8398, -66.5014], [95.541, -66.631], [96.4237, -66.5996], [97.1006, -66.4994], [97.3885, -66.5786], [97.7198, -66.6073], [98.2576, -66.4675], [98.7201, -66.5531], [98.8589, -66.6708], [99.3701, -66.6482], [100.8891, -66.358], [101.3271, -66.1005], [101.3813, -65.973], [102.1741, -65.9542], [102.6742, -65.8651], [103.6388, -65.9989], [103.9512, -65.9881], [104.667, -66.1368], [105.0004, -66.1641], [106.3869, -66.4106], [107.1709, -66.4704], [107.6673, -66.5804], [107.7851, -66.6641], [107.9917, -66.6721], [108.1579, -66.6391], [108.3762, -66.7658], [108.9101, -66.8619], [109.4628, -66.9087], [109.8237, -66.8337], [110.6223, -66.524], [110.587, -66.3123], [110.9067, -66.0767], [111.4531, -65.9609], [113.0994, -65.7999], [113.7098, -65.9296], [114.3369, -66.3602], [114.6186, -66.468], [115.0824, -66.493], [115.3104, -66.5608], [115.6354, -66.7712], [115.2737, -67.0279], [113.9912, -67.2119], [113.9125, -67.3677], [114.0266, -67.4412], [114.9258, -67.3565], [115.3842, -67.2381], [115.8853, -67.202], [116.7135, -67.0472], [116.9236, -67.0555], [117.1319, -67.1144], [117.7447, -67.1285], [118.1387, -67.0824], [118.7139, -67.1717], [119.768, -66.9915], [120.3748, -66.9838], [119.2807, -67.1992], [118.9217, -67.3197], [119.133, -67.3707], [121.4876, -67.0907], [122.1828, -66.8595], [123.2217, -66.7451], [123.9693, -66.6081], [124.1962, -66.6008], [124.5979, -66.7082], [124.8216, -66.6945], [125.0951, -66.6411], [125.3979, -66.4244], [125.8656, -66.3645], [126.6647, -66.4976], [126.8736, -66.7594], [127.5412, -67.0511], [127.9681, -67.0279], [128.4306, -67.1191], [128.8164, -67.0804], [128.9824, -67.0982], [129.2369, -67.0416], [129.7412, -66.4686], [130.1205, -66.2915], [130.5785, -66.2086], [130.9518, -66.1914], [131.8309, -66.2358], [132.3203, -66.1654], [132.8743, -66.178], [133.1482, -66.0948], [133.4445, -66.0814], [133.8428, -66.1536], [134.1789, -66.2771], [134.2895, -66.4768], [134.3981, -66.4799], [134.7697, -66.3533], [134.9715, -66.3302], [135.352, -66.1271], [136.1939, -66.2922], [136.5533, -66.439], [136.8892, -66.3396], [137.3362, -66.3465], [137.7538, -66.4064], [138.271, -66.5645], [138.3765, -66.5404], [139.2416, -66.574], [139.9001, -66.7151], [140.9016, -66.752], [141.2859, -66.8318], [141.5172, -66.794], [141.9729, -66.8067], [142.3267, -66.9483], [142.6875, -67.0128], [143.4482, -66.8768], [143.7304, -66.8768], [143.8627, -66.9386], [143.9111, -67.0907], [144.1177, -67.0877], [144.3479, -67.018], [144.5506, -67.0355], [144.6212, -67.1414], [143.942, -67.794], [143.9773, -67.8646], [144.1891, -67.8998], [144.4043, -67.7942], [144.8791, -67.7209], [145.1279, -67.626], [145.5564, -67.5909], [145.9752, -67.6242], [146.8278, -67.9646], [146.8966, -68.1203], [146.7977, -68.2736], [147.0937, -68.3687], [147.5686, -68.3751], [148.4563, -68.467], [148.8806, -68.4312], [150.3422, -68.4357], [150.9359, -68.3585], [151.0683, -68.385], [151.1389, -68.7642], [151.2888, -68.8171], [151.5621, -68.6937], [152.5455, -68.7296], [153.0818, -68.8568], [153.7053, -68.7289], [153.7847, -68.3496], [153.908, -68.3231], [154.1997, -68.4179], [154.9875, -68.8413], [155.5203, -69.0244], [156.0109, -69.0778], [156.4887, -69.183], [157.0464, -69.1763], [157.4813, -69.3087], [157.9325, -69.1808], [158.4326, -69.2994], [159.784, -69.5219], [160.1258, -69.7343], [160.2097, -69.9749], [160.6519, -70.0806], [161.037, -70.3172], [161.4245, -70.8268], [161.6251, -70.9161], [161.9161, -70.9073], [162.1895, -71.0396], [162.2865, -70.969], [162.022, -70.4398], [162.216, -70.334], [162.6748, -70.3046], [163.3487, -70.6209], [163.9984, -70.6365], [164.4032, -70.5104], [165.8539, -70.6453], [166.627, -70.6643], [167.5694, -70.8103], [168.1727, -71.1832], [168.7979, -71.2748], [170.1623, -71.6305], [170.2769, -71.4439], [170.4357, -71.4188], [170.8591, -71.8686], [170.6754, -71.9686], [170.224, -71.9479], [170.0301, -72.1155], [169.9535, -72.4028], [170.2594, -72.3713], [170.2064, -72.5653], [170.0478, -72.6006], [169.4403, -72.4868], [169.0724, -72.4688], [168.7188, -72.3845], [168.4284, -72.3834], [168.82, -72.5524], [169.8286, -72.7288], [169.545, -73.0504], [169.0334, -73.2004], [168.7359, -73.0912], [168.3813, -73.0659], [168.2045, -73.1298], [167.1557, -73.1473], [166.8828, -73.0112], [166.4528, -72.936], [166.834, -73.2243], [167.6158, -73.3368], [167.7091, -73.3942], [167.5342, -73.4473], [167.2965, -73.44], [166.9961, -73.5443], [166.1594, -73.5338], [165.8602, -73.5927], [166.1061, -73.7352], [165.7337, -73.8667], [165.5489, -73.8461], [165.347, -73.8794], [165.1295, -73.3826], [164.813, -73.3968], [164.7496, -73.5588], [164.9799, -73.9259], [164.7757, -74.0285], [165.3998, -74.4792], [165.4086, -74.5586], [165.3028, -74.5938], [164.174, -74.5232], [163.9358, -74.5674], [163.7353, -74.5638], [163.5565, -74.4174], [163.3979, -74.3821], [163.2655, -74.4263], [163.1674, -74.602], [162.6041, -74.8231], [162.5336, -75.1671], [162.4101, -75.2376], [162.0878, -75.2616], [161.6796, -75.2178], [160.9107, -75.3347], [161.0329, -75.3959], [161.9035, -75.4042], [162.1896, -75.4669], [162.2391, -75.6217], [162.8157, -75.8462], [162.6482, -76.049], [162.4365, -76.1549], [162.4982, -76.2077], [162.7275, -76.2254], [162.8246, -76.4636], [162.6746, -76.5693], [162.7628, -76.7457], [162.4895, -76.8692], [162.4503, -76.9557], [162.6791, -77.0067], [163.0869, -77.0323], [163.6076, -77.3878], [163.6191, -77.5823], [163.7662, -77.6999], [164.0452, -77.7746], [164.0364, -77.853], [164.4209, -77.8835], [164.4297, -78.0422], [163.9776, -78.2238], [164.2974, -78.2362], [164.6281, -78.3156], [165.0506, -78.2261], [165.4176, -78.0422], [165.524, -78.0636], [165.663, -78.3057], [166.2086, -78.4517], [166.8012, -78.5216], [167.058, -78.5185], [167.1303, -78.6062], [167.049, -78.686], [166.5246, -78.6949], [166.1168, -78.5711], [164.6348, -78.6032], [162.6395, -78.8978], [161.9745, -78.6942], [161.6692, -78.5361], [161.5104, -78.5714], [161.5018, -78.6772], [161.9515, -79.03], [161.7373, -79.06], [161.1905, -78.9787], [160.8735, -79.0497], [160.4827, -79.2015], [160.6461, -79.4269], [159.9759, -79.5856], [160.0836, -79.6325], [160.3228, -79.6355], [160.3463, -79.6915], [160.2648, -79.7366], [159.8719, -79.7898], [159.8965, -79.859], [160.1114, -79.8925], [160.3873, -79.8795], [160.558, -79.9296], [160.5588, -80.0105], [158.7675, -80.2934], [158.5604, -80.3489], [158.5736, -80.4234], [160.5422, -80.425], [160.6373, -80.4499], [160.5213, -80.5834], [160.8232, -80.674], [160.8303, -80.7299], [160.2602, -80.7867], [160.2758, -80.8468], [160.7168, -80.9074], [160.7167, -81.1996], [160.4786, -81.2701], [160.4698, -81.3406], [160.9078, -81.3902], [161.5821, -81.6098], [161.9961, -81.653], [163.6023, -82.1206], [163.6801, -82.1873], [161.1665, -82.4078], [161.2832, -82.4899], [162.6438, -82.4815], [163.0118, -82.535], [163.1747, -82.5189], [163.2686, -82.4633], [164.7472, -82.3544], [166.4459, -82.7222], [167.1163, -82.8013], [167.2975, -82.9858], [167.602, -83.0475], [168.0918, -82.9747], [168.6073, -83.0653], [168.2402, -83.2299], [167.6744, -83.2314], [167.6576, -83.2722], [168.1101, -83.362], [169.8379, -83.399], [170.332, -83.4788], [170.8175, -83.4357], [171.0357, -83.4484], [171.2207, -83.475], [171.2893, -83.5555], [171.9172, -83.644], [172.8739, -83.6731], [173.3973, -83.7588], [173.6618, -83.7609], [173.8224, -83.8102], [175.011, -83.8391], [175.3229, -83.94], [175.6058, -83.9676], [179.403, -84.2062], [180.0, -84.3516], [180.0, -89.9989], [-180.0, -89.9989], [-180.0, -84.3516], [-178.3895, -84.3375], [-177.7304, -84.3952], [-176.289, -84.4184], [-175.8746, -84.5104], [-174.6632, -84.4627], [-171.7037, -84.5424], [-168.6678, -84.6836], [-168.0486, -84.7286], [-167.4922, -84.8337], [-166.9111, -84.8192], [-162.9334, -84.9012], [-157.1275, -85.1856], [-156.4591, -85.186], [-156.6428, -85.0794], [-156.9883, -84.9822], [-157.4539, -84.9124], [-156.4896, -84.8893], [-156.621, -84.8396], [-163.5685, -84.5287], [-164.1142, -84.4454], [-165.1354, -84.4099], [-165.1848, -84.3695], [-163.8992, -84.3526], [-163.7652, -84.3242], [-164.6851, -84.1546], [-164.5025, -84.0716], [-164.1239, -84.0535], [-164.0113, -84.0156], [-164.0829, -83.9461], [-164.9509, -83.8059], [-165.5363, -83.7566], [-165.9218, -83.7902], [-167.5529, -83.8108], [-167.8012, -83.7908], [-169.1677, -83.4498], [-171.1878, -83.2564], [-174.066, -82.9001], [-174.2359, -82.7935], [-173.0711, -82.9158], [-171.8213, -82.8475], [-168.4177, -83.2288], [-165.6192, -83.2155], [-164.9156, -83.29], [-164.4456, -83.4677], [-163.1111, -83.3291], [-162.5742, -83.4106], [-162.1973, -83.5189], [-159.9235, -83.4947], [-159.4444, -83.5432], [-157.4285, -83.3464], [-157.0278, -83.2344], [-157.5892, -83.1874], [-157.6795, -83.1295], [-155.4594, -82.9808], [-155.1502, -82.8584], [-153.8223, -82.6693], [-153.3986, -82.5862], [-153.0099, -82.4496], [-154.7174, -81.9407], [-154.1885, -81.8105], [-153.9566, -81.7002], [-154.4852, -81.5662], [-154.9078, -81.5104], [-157.0325, -81.3191], [-156.5282, -81.1623], [-148.1228, -80.9008], [-148.0234, -80.8357], [-148.543, -80.7601], [-149.1472, -80.7187], [-149.2141, -80.6042], [-150.1328, -80.5104], [-150.5161, -80.4095], [-150.5754, -80.3537], [-150.4354, -80.211], [-150.2207, -80.15], [-148.3171, -80.071], [-148.4335, -79.9295], [-148.1293, -79.9077], [-148.1765, -79.7759], [-149.0514, -79.6569], [-150.4906, -79.5456], [-151.0484, -79.4597], [-152.0914, -79.2416], [-152.1377, -79.1159], [-153.5176, -79.1173], [-154.5177, -79.0466], [-155.2099, -78.9648], [-156.1146, -78.7446], [-156.4693, -78.6354], [-156.2079, -78.5587], [-154.7164, -78.3981], [-154.293, -78.2591], [-155.3415, -78.192], [-157.2668, -78.1998], [-158.2859, -77.9508], [-158.5004, -77.7783], [-158.23, -77.4977], [-158.2136, -77.1571], [-158.0031, -77.0912], [-157.842, -77.0792], [-157.4654, -77.2313], [-157.1393, -77.2421], [-156.6677, -77.213], [-156.2112, -77.1057], [-154.8149, -77.127], [-153.91, -77.227], [-153.6061, -77.3102], [-153.4606, -77.416], [-153.077, -77.4425], [-151.719, -77.4259], [-150.3056, -77.7314], [-149.7177, -77.7975], [-149.126, -77.6427], [-148.3399, -77.5512], [-148.1557, -77.4623], [-148.2598, -77.4126], [-148.7444, -77.3433], [-148.8436, -77.2837], [-148.7775, -77.125], [-148.5724, -77.1051], [-147.5664, -77.3253], [-146.9276, -77.2599], [-146.3906, -77.4725], [-146.0736, -77.4867], [-145.6771, -77.4881], [-145.6006, -77.4553], [-145.808, -77.2732], [-145.5157, -77.1992], [-145.967, -77.0687], [-145.6292, -76.9537], [-145.7505, -76.749], [-146.7767, -76.507], [-147.3404, -76.4384], [-148.6011, -76.4933], [-149.6542, -76.3653], [-148.8948, -76.2718], [-148.3203, -76.1045], [-147.8602, -76.1309], [-146.8173, -76.3181], [-145.8857, -76.4243], [-145.4421, -76.4092], [-146.383, -76.0997], [-146.3235, -76.0203], [-145.9877, -75.8888], [-145.1055, -75.8789], [-144.7213, -75.8321], [-143.5743, -75.5636], [-142.3298, -75.4909], [-141.5057, -75.6904], [-141.1346, -75.746], [-140.8743, -75.7459], [-141.2233, -75.5459], [-140.471, -75.4473], [-139.6912, -75.2128], [-137.6182, -75.0756], [-137.0901, -75.1526], [-136.6499, -75.1617], [-136.2278, -74.836], [-136.0301, -74.7653], [-135.3621, -74.6904], [-134.8404, -74.6941], [-134.1171, -74.8297], [-133.7963, -74.8546], [-132.0494, -74.7657], [-131.7065, -74.8109], [-130.8575, -74.826], [-130.1956, -74.8906], [-129.7908, -74.8914], [-127.8634, -74.7192], [-127.0202, -74.6979], [-126.384, -74.7426], [-125.3534, -74.7146], [-124.3125, -74.7357], [-123.8895, -74.773], [-121.5439, -74.75], [-119.677, -74.6546], [-119.0224, -74.5179], [-118.8029, -74.4223], [-118.342, -74.3815], [-117.0683, -74.4732], [-116.433, -74.4471], [-115.2226, -74.4874], [-115.1052, -74.4551], [-114.791, -73.9886], [-114.6237, -73.9029], [-114.3459, -73.925], [-113.5085, -74.0889], [-113.4894, -74.1584], [-113.7136, -74.2277], [-113.7533, -74.3667], [-113.6408, -74.4063], [-113.4542, -74.3942], [-113.333, -74.4542], [-113.9035, -74.6444], [-114.1104, -74.9818], [-111.6962, -74.7922], [-111.5844, -74.7509], [-111.7887, -74.5717], [-111.6959, -74.5041], [-111.8063, -74.2697], [-111.63, -74.1814], [-111.1802, -74.1881], [-110.5339, -74.2889], [-110.3071, -74.3667], [-110.2298, -74.5363], [-110.3004, -74.7106], [-110.5319, -74.8363], [-111.4631, -75.1334], [-111.3588, -75.2199], [-111.1042, -75.1908], [-109.2722, -75.1851], [-108.2545, -75.2525], [-107.8047, -75.3216], [-107.2668, -75.3345], [-106.9321, -75.3094], [-106.6188, -75.3439], [-104.9019, -75.1151], [-104.6178, -75.1562], [-104.1597, -75.1207], [-103.9013, -75.1525], [-103.121, -75.0952], [-101.7081, -75.1273], [-101.3037, -75.3658], [-101.0394, -75.4219], [-100.4634, -75.3534], [-100.0828, -75.3704], [-99.5313, -75.309], [-98.7523, -75.3171], [-98.5579, -75.1897], [-98.7272, -75.1408], [-99.2082, -75.0785], [-99.6519, -74.9488], [-99.8486, -74.9217], [-100.1641, -74.9379], [-100.4733, -74.8724], [-100.2649, -74.8229], [-100.0127, -74.6621], [-100.1186, -74.515], [-100.2381, -74.4842], [-100.5309, -74.4889], [-100.8818, -74.5411], [-101.2517, -74.4857], [-101.7154, -74.0237], [-102.7665, -73.8838], [-102.8627, -73.7836], [-102.7995, -73.6457], [-102.4106, -73.6164], [-101.5874, -73.6668], [-100.9854, -73.7572], [-100.7178, -73.7578], [-99.7811, -73.7201], [-99.541, -73.6451], [-98.8961, -73.6111], [-100.4364, -73.3531], [-101.1895, -73.3179], [-102.675, -73.3209], [-102.9088, -73.2852], [-103.375, -72.8188], [-103.1101, -72.7212], [-102.3629, -72.7602], [-102.272, -72.835], [-102.482, -72.9512], [-102.4093, -72.9874], [-101.6812, -73.0299], [-100.8205, -72.9812], [-100.2588, -73.0413], [-99.8107, -72.9999], [-98.2086, -73.0223], [-98.0124, -73.0332], [-97.651, -73.1444], [-97.4765, -73.1263], [-96.3942, -73.3012], [-95.8806, -73.2938], [-95.2366, -73.2201], [-94.5865, -73.2495], [-94.2462, -73.313], [-93.706, -73.215], [-92.8284, -73.1646], [-92.241, -73.1784], [-90.9209, -73.3191], [-90.4309, -73.2433], [-90.2738, -73.1187], [-90.2954, -72.9779], [-90.1524, -72.9445], [-90.0352, -72.9602], [-89.8177, -72.8626], [-89.3413, -72.8896], [-89.1271, -72.6932], [-88.78, -72.683], [-88.5269, -72.7023], [-88.1941, -72.7875], [-88.5607, -73.1207], [-88.4194, -73.229], [-87.9363, -73.2409], [-87.401, -73.192], [-87.0379, -73.3539], [-86.791, -73.3637], [-85.8014, -73.1921], [-84.9812, -73.5021], [-84.2142, -73.5728], [-83.5648, -73.706], [-82.8152, -73.7323], [-82.1835, -73.8568], [-81.3087, -73.7383], [-81.1632, -73.6324], [-81.2624, -73.3149], [-81.1764, -73.2488], [-81.0243, -73.2355], [-80.3364, -73.4142], [-80.6142, -73.0834], [-80.5877, -72.9776], [-80.4422, -72.9445], [-79.5217, -73.0896], [-78.9637, -73.3124], [-78.7862, -73.5067], [-78.4079, -73.5558], [-76.8505, -73.4604], [-76.7645, -73.5663], [-77.1349, -73.8177], [-77.0489, -73.8441], [-76.755, -73.7895], [-76.2912, -73.8054], [-75.2931, -73.6388], [-74.8555, -73.658], [-74.594, -73.7152], [-74.3453, -73.6839], [-73.996, -73.6998], [-72.9292, -73.4479], [-72.3808, -73.4384], [-71.9942, -73.3792], [-71.4527, -73.3545], [-71.0172, -73.2628], [-70.3227, -73.274], [-69.2822, -73.1696], [-68.0003, -72.9355], [-67.6671, -72.8346], [-67.3067, -72.6111], [-66.8277, -72.0904], [-66.9517, -71.8973], [-67.4604, -71.5268], [-67.5046, -71.0578], [-67.6922, -70.6861], [-67.8885, -70.4217], [-68.4033, -70.0197], [-68.4698, -69.6438], [-68.708, -69.4322], [-68.1409, -69.3476], [-67.3718, -69.4123], [-66.9749, -69.161], [-67.0212, -69.0287], [-67.3905, -68.8612], [-67.299, -68.7707], [-67.1337, -68.7707], [-67.041, -68.4531], [-66.7934, -68.2404], [-67.1499, -68.0246], [-66.9154, -67.6926], [-66.6772, -67.5603], [-66.705, -67.5271], [-67.1243, -67.4851], [-67.5445, -67.5347], [-67.4934, -67.1128], [-67.299, -67.0708], [-67.1602, -66.9518], [-67.0345, -66.9451], [-66.9021, -67.256], [-66.836, -67.2824], [-66.61, -67.2086], [-66.4987, -67.2891], [-66.5036, -66.6898], [-66.3065, -66.592], [-65.9538, -66.6456], [-65.7664, -66.6249], [-65.6785, -66.4027], [-65.7745, -66.288], [-65.6173, -66.1353], [-65.172, -66.1168], [-65.2675, -65.9942], [-64.9987, -65.9463], [-64.6135, -66.019], [-64.5143, -65.9596], [-64.6532, -65.8669], [-64.6466, -65.7479], [-64.4746, -65.781], [-64.4389, -65.6406], [-64.2135, -65.6329], [-64.1322, -65.5705], [-63.8181, -65.5315], [-63.7979, -65.4804], [-64.0513, -65.4172], [-64.0711, -65.2782], [-64.038, -65.179], [-63.7603, -65.0335], [-63.4821, -65.085], [-63.2642, -65.0731], [-63.0591, -65.1394], [-63.1199, -64.9425], [-62.7747, -64.8417], [-62.5275, -64.8334], [-62.5035, -64.6564], [-62.4042, -64.6433], [-62.2433, -64.7469], [-61.8825, -64.6254], [-61.6318, -64.6047], [-61.3959, -64.4271], [-61.0821, -64.3147], [-60.8642, -64.0734], [-60.2772, -63.9239], [-59.9898, -63.9096], [-59.5102, -63.8207], [-59.0364, -63.6703], [-58.8721, -63.5519], [-58.2156, -63.4513], [-57.8681, -63.3188], [-57.3896, -63.2263], [-57.0767, -63.2625], [-57.0207, -63.3729]]], [[[-45.2227, -78.8107], [-43.7221, -78.8185], [-43.5443, -78.902], [-42.9447, -79.5791], [-43.0659, -79.8914], [-43.2673, -79.9786], [-43.6003, -79.9739], [-43.7422, -80.0029], [-43.49, -80.0955], [-43.5279, -80.1914], [-49.1875, -80.6428], [-49.6297, -80.7123], [-49.773, -80.7842], [-54.2021, -80.8639], [-54.3472, -80.5694], [-54.0449, -80.4875], [-53.3939, -80.1088], [-53.0535, -80.175], [-52.461, -80.0666], [-52.2972, -80.1412], [-51.1838, -79.8197], [-50.3393, -79.4795], [-50.3787, -79.3382], [-50.7331, -79.2827], [-50.5025, -78.9499], [-50.2419, -78.8333], [-50.3774, -78.7805], [-50.1416, -78.5567], [-49.0812, -78.0475], [-47.6921, -77.8401], [-46.8257, -77.7853], [-45.9932, -77.8269], [-44.5945, -78.0352], [-43.8545, -78.2585], [-43.7883, -78.4326], [-43.9472, -78.5976], [-45.0678, -78.6614], [-45.3523, -78.7912], [-45.2227, -78.8107]]], [[[-59.7339, -80.3441], [-59.8255, -80.7333], [-60.5828, -80.9481], [-62.6705, -80.8343], [-62.9404, -80.7658], [-63.144, -80.5948], [-64.065, -80.6504], [-64.2683, -80.7485], [-66.1837, -80.442], [-66.7711, -80.2938], [-66.377, -80.2223], [-65.9801, -80.3845], [-62.5188, -80.3733], [-61.6333, -80.3441], [-61.194, -80.2566], [-61.4848, -80.2438], [-61.5975, -80.2059], [-61.6842, -80.0197], [-61.3023, -79.9958], [-61.3431, -79.8868], [-60.5788, -79.741], [-59.8733, -79.777], [-59.7063, -79.8753], [-59.7878, -80.101], [-59.4981, -80.115], [-59.3217, -80.1962], [-59.5301, -80.208], [-59.6833, -80.3153], [-59.7339, -80.3441]]], [[[-70.0511, -69.1891], [-70.0793, -69.3109], [-69.9133, -69.2673], [-69.7076, -69.3209], [-69.4169, -69.5832], [-69.0913, -70.0903], [-68.4595, -70.6829], [-68.4508, -70.8179], [-68.336, -70.8561], [-68.241, -71.8222], [-68.5426, -72.1576], [-69.1493, -72.4266], [-69.2093, -72.5342], [-70.5435, -72.6645], [-70.9229, -72.6131], [-72.3675, -72.6697], [-72.5308, -72.5896], [-72.6702, -72.5959], [-72.8876, -72.5467], [-73.0574, -72.4476], [-73.0864, -72.4078], [-72.8548, -72.3042], [-72.6182, -72.2751], [-72.135, -72.3313], [-70.8726, -72.3664], [-70.4277, -72.3226], [-70.206, -72.2277], [-70.5332, -72.1634], [-71.4125, -72.2845], [-71.6615, -72.2498], [-71.8922, -72.1528], [-71.8976, -72.1208], [-71.0344, -72.0346], [-70.821, -71.9065], [-71.355, -71.8364], [-71.5744, -71.8506], [-71.8162, -71.8219], [-72.3366, -71.6322], [-72.9276, -71.9217], [-73.41, -71.8531], [-73.776, -71.8489], [-73.8299, -71.8702], [-73.5371, -72.0224], [-73.9956, -72.1698], [-74.153, -72.1588], [-74.4293, -72.0556], [-74.7858, -72.0636], [-75.3531, -71.8784], [-75.3354, -71.6452], [-75.0997, -71.5554], [-74.8631, -71.5434], [-74.6364, -71.6175], [-74.3918, -71.6382], [-74.4254, -71.4569], [-74.1872, -71.383], [-73.479, -71.5787], [-73.3802, -71.5279], [-73.6171, -71.3966], [-73.6045, -71.3508], [-73.474, -71.3249], [-72.6216, -71.3884], [-72.2117, -71.3351], [-72.9945, -71.1865], [-73.0604, -71.127], [-72.7104, -71.0729], [-72.3563, -71.0748], [-71.7185, -71.1451], [-71.5045, -71.1115], [-71.194, -70.9848], [-70.7411, -70.9926], [-70.3807, -70.9464], [-69.8698, -71.1257], [-69.8758, -70.876], [-69.993, -70.8971], [-70.2987, -70.8361], [-70.9169, -70.7858], [-71.1727, -70.713], [-71.19, -70.6596], [-71.0611, -70.5371], [-70.3281, -70.3612], [-70.0904, -70.3507], [-69.7021, -70.4147], [-69.6184, -70.398], [-70.3276, -70.1597], [-70.7195, -70.1395], [-70.9262, -70.1924], [-71.1205, -70.1965], [-71.7285, -70.0537], [-71.8792, -69.909], [-71.7429, -69.4228], [-72.0807, -69.2672], [-72.1379, -69.1146], [-72.0579, -69.001], [-71.869, -68.941], [-70.417, -68.789], [-70.1055, -68.9594], [-70.0527, -69.1396], [-70.0511, -69.1891]]], [[[-98.0911, -71.9125], [-98.168, -72.123], [-97.9231, -72.1166], [-97.816, -71.9188], [-97.5848, -71.8826], [-97.4735, -72.0003], [-97.582, -72.0951], [-97.4603, -72.1883], [-97.3452, -72.1891], [-97.0887, -71.944], [-96.8694, -71.851], [-96.3833, -71.8363], [-96.125, -71.8955], [-96.2982, -72.0451], [-96.9789, -72.2219], [-96.7176, -72.2555], [-95.6854, -72.0566], [-95.5311, -72.2487], [-95.5754, -72.41], [-96.0782, -72.4538], [-96.0518, -72.5772], [-96.6927, -72.5477], [-97.0276, -72.5738], [-97.2503, -72.5209], [-97.8283, -72.557], [-98.4078, -72.5477], [-98.6407, -72.4897], [-99.1488, -72.472], [-100.1952, -72.2727], [-101.602, -72.1757], [-102.0221, -72.185], [-102.2648, -72.1353], [-102.3136, -72.0811], [-102.1281, -71.9854], [-100.2187, -71.8329], [-100.0846, -71.8369], [-99.784, -72.0443], [-99.5631, -71.9449], [-99.2541, -71.9722], [-99.0821, -71.9325], [-98.9646, -71.8543], [-98.6154, -71.7638], [-98.1892, -71.82], [-98.0911, -71.9125]]], [[[-120.5563, -73.7561], [-120.2725, -73.9892], [-120.9895, -74.157], [-121.0024, -74.3264], [-122.2866, -74.4031], [-122.8591, -74.3427], [-122.9561, -74.2403], [-122.7647, -74.2187], [-122.8808, -74.099], [-122.6247, -73.9655], [-122.9916, -73.8441], [-123.3462, -73.8431], [-123.1122, -73.6822], [-122.4357, -73.6816], [-120.7222, -73.752], [-120.5563, -73.7561]]], [[[-126.3299, -73.2862], [-125.7358, -73.4057], [-125.264, -73.6664], [-125.2761, -73.6905], [-125.8284, -73.7184], [-125.7986, -73.802], [-125.6744, -73.8222], [-125.3269, -73.7955], [-124.9934, -73.8298], [-124.6175, -73.7353], [-124.1285, -73.834], [-124.042, -73.8804], [-124.1293, -73.9711], [-123.8004, -74.0763], [-123.8367, -74.2257], [-123.9374, -74.2562], [-125.0896, -74.1824], [-125.4208, -74.0699], [-126.2441, -73.8909], [-126.4717, -73.8121], [-126.5827, -73.6699], [-126.8382, -73.6573], [-127.0064, -73.7258], [-127.2116, -73.7244], [-127.2329, -73.5855], [-127.4144, -73.5163], [-127.3943, -73.3822], [-127.2676, -73.304], [-126.5969, -73.2789], [-126.3299, -73.2862]]], [[[-159.0529, -79.8074], [-160.3021, -79.8445], [-160.8067, -79.812], [-161.8655, -79.7035], [-163.9709, -79.3888], [-164.2816, -79.2455], [-164.1995, -79.0508], [-163.2561, -78.7221], [-162.39, -78.7602], [-161.643, -78.901], [-159.6841, -79.4024], [-159.0514, -79.6945], [-159.0096, -79.7805], [-159.0529, -79.8074]]], [[[167.0841, -77.3217], [167.4609, -77.3943], [168.4508, -77.3861], [169.2756, -77.4547], [169.3527, -77.5247], [168.5188, -77.6813], [167.3923, -77.6486], [166.729, -77.851], [166.2168, -77.5246], [166.6264, -77.3768], [166.4131, -77.252], [166.5063, -77.1894], [166.7164, -77.1617], [166.9873, -77.1865], [167.085, -77.3074], [167.0841, -77.3217]]], [[[-31.1188, -79.7984], [-30.9851, -79.8185], [-30.8408, -79.7713], [-30.7799, -79.6474], [-30.6602, -79.7331], [-29.8709, -79.8232], [-29.6145, -79.9096], [-30.029, -79.9361], [-30.4221, -80.0108], [-30.8444, -79.9385], [-31.5942, -79.8877], [-31.8241, -79.8495], [-32.0003, -79.7324], [-31.6049, -79.6447], [-31.1188, -79.7984]]], [[[-33.9342, -79.3204], [-34.05, -79.3571], [-36.4813, -79.294], [-36.6008, -79.2827], [-36.566, -79.2088], [-36.048, -79.1812], [-35.5347, -79.09], [-33.9472, -79.3054], [-33.9342, -79.3204]]], [[[-70.3341, -79.6799], [-71.414, -79.6402], [-71.6867, -79.5681], [-71.7835, -79.4443], [-71.454, -79.1289], [-70.544, -78.8837], [-67.0381, -78.3157], [-66.7281, -78.3837], [-66.787, -78.4217], [-67.481, -78.6824], [-69.2509, -79.2104], [-69.6865, -79.4434], [-69.7317, -79.6184], [-70.1163, -79.666], [-70.3341, -79.6799]]], [[[-57.846, -64.0539], [-57.7737, -64.0615], [-57.5929, -63.9671], [-57.4797, -63.9616], [-57.5171, -64.0106], [-57.2495, -64.0971], [-57.2223, -64.2214], [-57.414, -64.2959], [-57.2947, -64.367], [-57.6832, -64.3572], [-57.7033, -64.2933], [-57.8229, -64.3021], [-57.9098, -64.4101], [-57.9207, -64.3312], [-58.0216, -64.3216], [-58.2141, -64.3697], [-58.3044, -64.3146], [-58.02, -64.242], [-58.1377, -64.2062], [-58.1471, -64.0974], [-58.3976, -64.1348], [-58.4381, -64.1135], [-58.2748, -63.9162], [-57.8313, -63.8038], [-57.7795, -63.8683], [-57.827, -63.9492], [-57.846, -64.0539]]], [[[-55.528, -63.1735], [-55.4663, -63.1996], [-55.1562, -63.2048], [-55.0752, -63.3243], [-55.1568, -63.3531], [-55.8305, -63.2984], [-56.083, -63.3826], [-56.3785, -63.4373], [-56.4628, -63.4181], [-56.5053, -63.3343], [-56.3851, -63.2341], [-56.0422, -63.1571], [-55.5896, -63.1283], [-55.5287, -63.1568], [-55.528, -63.1735]]], [[[-57.9784, -61.9119], [-57.8493, -61.9399], [-57.738, -61.9212], [-57.6396, -62.0204], [-57.8067, -62.0119], [-57.9627, -62.0775], [-58.1476, -62.0635], [-58.183, -62.17], [-58.3415, -62.1194], [-58.4667, -62.1372], [-58.562, -62.2439], [-58.7457, -62.2179], [-58.819, -62.1713], [-59.0037, -62.2098], [-58.6836, -62.0082], [-58.3995, -61.9383], [-58.2652, -61.9533], [-57.9784, -61.9119]]], [[[-63.1806, -64.4695], [-63.277, -64.5733], [-63.1305, -64.5724], [-62.9282, -64.5193], [-62.8365, -64.5719], [-63.2754, -64.7174], [-63.5584, -64.7342], [-63.7395, -64.8343], [-63.8044, -64.7915], [-64.2721, -64.6976], [-64.1711, -64.5819], [-63.8671, -64.5098], [-63.9162, -64.4572], [-63.6744, -64.4214], [-63.6831, -64.3428], [-63.5342, -64.2729], [-63.3336, -64.2662], [-63.2296, -64.3236], [-63.2707, -64.3807], [-63.1806, -64.4695]]], [[[-62.3258, -64.4244], [-62.3959, -64.4646], [-62.5081, -64.4541], [-62.5797, -64.5143], [-62.7818, -64.479], [-62.504, -64.2534], [-62.4797, -64.2106], [-62.6107, -64.1163], [-62.4514, -64.0124], [-62.3288, -64.0135], [-62.2687, -64.09], [-62.0585, -64.1381], [-62.1857, -64.3688], [-62.3037, -64.4014], [-62.3258, -64.4244]]], [[[-67.9885, -67.4744], [-68.1751, -67.5582], [-68.3251, -67.5324], [-68.3813, -67.5554], [-68.5804, -67.7328], [-68.9014, -67.7442], [-69.1204, -67.5779], [-69.1327, -67.4526], [-68.4168, -66.8533], [-67.8305, -66.6243], [-67.7111, -66.633], [-67.6812, -66.709], [-67.9324, -66.8445], [-67.9684, -67.0322], [-67.6878, -67.1474], [-68.2351, -67.372], [-67.9695, -67.4503], [-67.9885, -67.4744]]], [[[-73.7066, -70.6352], [-73.5503, -70.7234], [-74.205, -70.9241], [-74.8058, -71.0123], [-76.1763, -71.1324], [-76.4215, -71.0904], [-76.5115, -70.9908], [-76.3776, -70.8941], [-76.0346, -70.8359], [-75.21, -70.7726], [-74.9536, -70.5902], [-74.7905, -70.631], [-74.5897, -70.792], [-74.4687, -70.7267], [-74.4562, -70.5867], [-74.1146, -70.6554], [-74.1126, -70.5768], [-74.0383, -70.5529], [-73.8795, -70.5781], [-73.7066, -70.6352]]], [[[-74.9871, -69.7278], [-74.8102, -69.7524], [-74.438, -69.9496], [-74.5784, -69.998], [-74.6718, -70.1317], [-74.8488, -70.1793], [-75.7268, -70.0961], [-75.8042, -70.0382], [-75.7595, -69.9161], [-75.3399, -69.8402], [-75.2646, -69.7493], [-75.1364, -69.7406], [-74.9871, -69.7278]]], [[[-74.3544, -73.0984], [-74.5225, -73.2439], [-74.6677, -73.2753], [-74.3661, -73.4643], [-74.5747, -73.6113], [-75.9008, -73.3326], [-76.0964, -73.1505], [-75.8977, -73.0563], [-75.5059, -73.1089], [-75.4172, -73.0516], [-75.2762, -73.0504], [-75.2438, -73.0094], [-75.6003, -72.9526], [-75.7311, -72.8793], [-75.3769, -72.8204], [-74.4739, -72.8937], [-74.2239, -72.9971], [-74.3544, -73.0984]]], [[[-91.1607, -73.1822], [-91.5108, -73.1955], [-91.3569, -72.9095], [-91.67, -72.6237], [-91.3035, -72.5474], [-90.9474, -72.5563], [-90.7633, -72.6811], [-90.8954, -72.8236], [-90.7762, -72.854], [-90.7756, -72.993], [-90.9984, -73.1365], [-91.1607, -73.1822]]], [[[167.6428, -78.1414], [167.377, -78.249], [166.9362, -78.2225], [166.2849, -78.3064], [166.1219, -78.2746], [166.0125, -78.1312], [166.1111, -78.0896], [166.8637, -78.1964], [167.4979, -77.9924], [167.6398, -78.1117], [167.6428, -78.1414]]], [[[100.9814, -65.6775], [100.5469, -65.7013], [100.3506, -65.6729], [100.2703, -65.6033], [100.4094, -65.4656], [100.6069, -65.3964], [100.8834, -65.3781], [101.0787, -65.4025], [101.2206, -65.4723], [101.2384, -65.5646], [100.9814, -65.6775]]], [[[26.8572, -70.3812], [26.793, -70.4193], [26.6088, -70.4124], [26.4702, -70.4479], [26.0054, -70.3729], [25.9825, -70.1999], [26.3011, -70.0725], [26.6048, -70.0782], [26.8748, -70.33], [26.8572, -70.3812]]], [[[-5.8941, -70.5522], [-6.1561, -70.6115], [-6.438, -70.4526], [-6.0683, -70.4047], [-5.9495, -70.4322], [-5.8941, -70.5522]]], [[[-3.2802, -70.5338], [-3.4419, -70.5354], [-3.4968, -70.4884], [-3.2875, -70.344], [-2.9499, -70.2797], [-2.7135, -70.3202], [-2.738, -70.507], [-3.2802, -70.5338]]], [[[-66.1736, -80.0778], [-66.3669, -80.0543], [-66.4104, -79.9733], [-66.9042, -79.9089], [-67.0772, -79.7618], [-67.7191, -79.6202], [-67.8087, -79.5459], [-67.6879, -79.5284], [-66.9789, -79.5687], [-66.7852, -79.608], [-66.0142, -79.6244], [-65.8703, -79.7377], [-65.5792, -79.7708], [-65.5044, -79.9543], [-65.9894, -80.054], [-66.1736, -80.0778]]], [[[-67.2619, -79.4526], [-67.4343, -79.5012], [-68.5489, -79.4374], [-68.3244, -79.2982], [-68.0326, -79.2271], [-67.7142, -79.2141], [-67.0687, -79.2685], [-67.3049, -79.394], [-67.2619, -79.4526]]], [[[-55.1654, -61.2204], [-55.297, -61.2485], [-55.4402, -61.1062], [-55.387, -61.0727], [-54.671, -61.117], [-55.0576, -61.1687], [-55.1654, -61.2204]]], [[[-55.8726, -63.5356], [-55.9567, -63.58], [-56.1784, -63.5133], [-56.2099, -63.4369], [-55.8579, -63.4073], [-55.7618, -63.4221], [-55.7192, -63.4921], [-55.8726, -63.5356]]], [[[-57.2405, -64.5668], [-57.4334, -64.5402], [-57.4459, -64.4599], [-56.8947, -64.333], [-56.991, -64.468], [-57.2405, -64.5668]]], [[[-56.06, -63.0785], [-56.259, -63.1731], [-56.3541, -63.1688], [-56.6142, -63.0451], [-56.4886, -62.9822], [-56.0618, -63.0127], [-56.051, -63.0547], [-56.06, -63.0785]]], [[[-57.3742, -63.8072], [-57.104, -63.8412], [-57.3438, -63.8785], [-57.6164, -63.8536], [-57.6833, -63.8127], [-57.4394, -63.7914], [-57.3742, -63.8072]]], [[[-61.9976, -69.7219], [-62.0852, -69.7295], [-62.216, -69.4949], [-62.4962, -69.2882], [-62.5677, -69.1805], [-62.4421, -69.146], [-62.1179, -69.2147], [-61.816, -69.3762], [-61.8072, -69.5146], [-61.9113, -69.5334], [-61.9701, -69.6914], [-61.9976, -69.7219]]], [[[-60.625, -62.5601], [-60.1399, -62.5487], [-60.0027, -62.6185], [-59.8496, -62.6149], [-60.2209, -62.7454], [-60.3216, -62.7075], [-60.378, -62.6165], [-60.6969, -62.6207], [-60.7959, -62.6623], [-61.0633, -62.6789], [-61.1524, -62.5891], [-60.9747, -62.5917], [-60.7993, -62.4752], [-60.7318, -62.491], [-60.625, -62.5601]]], [[[-71.9854, -69.6984], [-72.2021, -69.7401], [-72.7768, -69.645], [-72.9573, -69.5291], [-72.9368, -69.4688], [-72.7262, -69.4131], [-72.3312, -69.4918], [-71.9854, -69.6984]]], [[[-95.0271, -72.665], [-95.2194, -72.6698], [-95.2156, -72.5994], [-94.5661, -72.4681], [-94.426, -72.6126], [-95.0271, -72.665]]], [[[-104.5379, -73.1663], [-104.6596, -73.2121], [-104.881, -73.2006], [-105.0529, -73.126], [-105.1318, -72.9915], [-104.9724, -72.941], [-104.5379, -73.1663]]], [[[-119.5489, -74.1103], [-119.821, -74.1196], [-119.9051, -74.0815], [-119.6616, -73.9894], [-119.8026, -73.8146], [-119.5164, -73.7749], [-119.2162, -73.7776], [-118.9593, -73.8095], [-118.8773, -73.878], [-119.0586, -73.9977], [-119.4485, -74.0762], [-119.5489, -74.1103]]], [[[-127.3658, -74.6227], [-127.5177, -74.6405], [-127.9152, -74.5426], [-128.0962, -74.4662], [-128.1334, -74.3274], [-127.853, -74.3318], [-127.2297, -74.4252], [-127.1452, -74.4802], [-127.2319, -74.5784], [-127.3658, -74.6227]]], [[[-161.9938, -83.1188], [-162.3049, -83.1418], [-163.0465, -83.0968], [-163.5521, -82.9877], [-163.7959, -82.8427], [-162.4106, -82.8992], [-161.6352, -83.027], [-161.8282, -83.0426], [-161.9938, -83.1188]]], [[[-160.4671, -81.5895], [-163.2531, -81.4824], [-163.8901, -81.4236], [-163.93, -81.3521], [-163.2006, -81.2814], [-162.4565, -81.3133], [-160.9379, -81.4635], [-160.4854, -81.567], [-160.4671, -81.5895]]], [[[163.976, -74.8327], [163.7634, -74.8028], [163.7417, -74.7115], [164.2085, -74.6077], [164.0592, -74.7527], [163.976, -74.8327]]], [[[162.9681, -75.5671], [162.7883, -75.6962], [162.6619, -75.6919], [162.5912, -75.6686], [162.72, -75.5967], [162.917, -75.5573], [162.9681, -75.5671]]], [[[169.8437, -73.605], [169.7092, -73.6253], [169.4795, -73.5395], [169.74, -73.3204], [169.9604, -73.5144], [169.8588, -73.5681], [169.8437, -73.605]]], [[[164.8336, -67.5404], [164.6921, -67.5601], [164.639, -67.5001], [164.684, -67.2594], [164.9072, -67.4186], [164.8604, -67.5039], [164.8336, -67.5404]]], [[[163.302, -66.8212], [163.2836, -66.8819], [163.0896, -66.7006], [163.2379, -66.7088], [163.2991, -66.7984], [163.302, -66.8212]]], [[[162.6114, -66.4773], [162.5113, -66.5201], [162.3027, -66.3997], [162.3105, -66.2513], [162.5633, -66.4326], [162.6114, -66.4773]]], [[[96.6127, -66.0358], [96.9316, -66.0584], [97.0188, -66.1395], [96.934, -66.2008], [96.3945, -66.225], [96.307, -66.1858], [96.4998, -66.0459], [96.6127, -66.0358]]], [[[100.2647, -66.2166], [100.1332, -66.2295], [100.0763, -66.1881], [100.2905, -66.1124], [100.2815, -66.18], [100.2647, -66.2166]]], [[[98.8461, -66.4698], [98.6551, -66.4533], [98.5965, -66.3826], [98.7486, -66.3692], [98.9498, -66.4205], [98.8461, -66.4698]]], [[[103.3973, -65.4453], [103.3372, -65.4686], [103.176, -65.4547], [103.1128, -65.312], [102.7888, -65.2359], [102.7961, -65.1363], [102.8929, -65.1297], [103.1368, -65.1906], [103.1861, -65.3306], [103.3789, -65.4265], [103.3973, -65.4453]]], [[[92.6014, -65.8083], [92.333, -65.8072], [92.2481, -65.7399], [92.3015, -65.7067], [92.4964, -65.7021], [92.6338, -65.7307], [92.6696, -65.7748], [92.6014, -65.8083]]], [[[85.8224, -66.9533], [85.6501, -66.9797], [85.3588, -66.8543], [85.3403, -66.7233], [85.8062, -66.7746], [85.9377, -66.8941], [85.8224, -66.9533]]], [[[86.5418, -66.7675], [86.337, -66.7876], [86.2322, -66.7329], [86.3833, -66.6748], [86.652, -66.7182], [86.5418, -66.7675]]], [[[85.3285, -66.6119], [85.1361, -66.6371], [85.0687, -66.5838], [85.1211, -66.5186], [85.1939, -66.5561], [85.3285, -66.6119]]], [[[69.9184, -71.9178], [69.7436, -72.0441], [69.7371, -71.922], [69.7961, -71.8939], [69.8952, -71.9078], [69.9184, -71.9178]]], [[[68.4617, -72.3001], [68.4361, -72.2604], [68.7293, -72.0892], [68.8404, -72.1654], [68.8172, -72.2287], [68.6695, -72.276], [68.4617, -72.3001]]], [[[72.0022, -70.6326], [71.8412, -70.622], [71.6594, -70.4975], [71.6466, -70.3363], [71.7966, -70.2643], [71.88, -70.4056], [72.0557, -70.501], [72.0781, -70.6091], [72.0022, -70.6326]]], [[[48.546, -66.7842], [48.3045, -66.7979], [48.3008, -66.7242], [48.6378, -66.701], [48.7824, -66.7312], [48.7747, -66.7783], [48.546, -66.7842]]], [[[16.2227, -70.0076], [16.1593, -70.072], [15.6139, -69.9391], [15.5626, -69.8628], [15.699, -69.7732], [15.9096, -69.7284], [16.2469, -69.705], [16.5734, -69.7232], [16.6255, -69.7503], [16.3154, -69.8444], [16.2227, -70.0076]]], [[[3.0369, -70.5974], [2.6978, -70.6235], [2.5847, -70.5346], [3.0722, -70.3816], [3.2306, -70.4026], [3.2599, -70.4488], [3.1711, -70.5539], [3.0369, -70.5974]]], [[[-2.955, -71.2138], [-3.0606, -71.2366], [-3.3094, -71.2009], [-3.399, -71.0621], [-3.263, -71.0518], [-3.1914, -71.0948], [-2.955, -71.2138]]], [[[1.2993, -70.2552], [1.1563, -70.3781], [0.9496, -70.094], [1.0268, -70.0498], [1.3148, -70.0228], [1.4122, -70.0407], [1.4609, -70.1356], [1.2993, -70.2552]]], [[[-2.5328, -70.7678], [-2.0923, -70.8209], [-2.3689, -71.0444], [-2.7835, -71.1675], [-2.8005, -70.9822], [-2.9631, -70.9403], [-3.007, -70.8515], [-3.5747, -70.7031], [-3.04, -70.6744], [-2.7498, -70.6941], [-2.5328, -70.7678]]], [[[4.5259, -70.4787], [4.3652, -70.5026], [4.1797, -70.4513], [4.1117, -70.2668], [4.2561, -70.2408], [4.495, -70.2514], [4.5862, -70.2942], [4.5899, -70.4325], [4.5259, -70.4787]]], [[[-20.6074, -73.8866], [-20.6413, -74.1506], [-20.4233, -74.3174], [-20.489, -74.4927], [-20.8177, -74.4548], [-20.9768, -74.2251], [-21.1666, -74.1326], [-21.6099, -74.0918], [-22.0354, -74.1065], [-21.9304, -74.0566], [-21.2883, -73.9894], [-21.1264, -73.9398], [-20.867, -73.6767], [-20.5802, -73.6192], [-20.5207, -73.7979], [-20.6074, -73.8866]]], [[[-16.1045, -72.6791], [-16.3176, -72.7021], [-16.453, -72.6523], [-16.4554, -72.4735], [-16.3029, -72.478], [-16.1725, -72.6], [-16.1045, -72.6791]]], [[[-12.5089, -72.1733], [-12.7202, -72.1877], [-12.8884, -72.1371], [-12.9633, -72.0645], [-12.8755, -72.0007], [-12.5348, -72.14], [-12.5089, -72.1733]]], [[[-32.3425, -79.6736], [-32.5833, -79.6583], [-32.3766, -79.5347], [-32.15, -79.5299], [-31.9334, -79.5679], [-32.0012, -79.607], [-32.3425, -79.6736]]], [[[-54.0707, -61.2991], [-54.1154, -61.3085], [-54.1922, -61.2466], [-54.0243, -61.1353], [-54.0413, -61.2554], [-54.0707, -61.2991]]], [[[-58.8379, -62.3025], [-59.0594, -62.3478], [-59.2024, -62.2831], [-59.0638, -62.2391], [-58.8787, -62.2679], [-58.8379, -62.3025]]], [[[-61.1584, -69.9758], [-61.3086, -69.9779], [-61.4043, -69.9325], [-61.3271, -69.8563], [-61.1519, -69.8831], [-61.1079, -69.9553], [-61.1584, -69.9758]]], [[[-60.6559, -68.7676], [-60.6934, -68.795], [-60.8201, -68.7784], [-61.0149, -68.7098], [-60.9472, -68.6807], [-60.7048, -68.7221], [-60.6559, -68.7676]]], [[[-60.7406, -70.7105], [-60.8965, -70.6896], [-60.958, -70.629], [-60.8839, -70.5176], [-60.5537, -70.5088], [-60.4525, -70.5442], [-60.4877, -70.6467], [-60.7406, -70.7105]]], [[[-60.5522, -71.0529], [-60.9063, -71.0074], [-60.8891, -70.9344], [-60.6131, -70.9201], [-60.5359, -71.0409], [-60.5522, -71.0529]]], [[[-59.389, -62.4443], [-59.5252, -62.4515], [-59.6607, -62.3543], [-59.3959, -62.3673], [-59.3534, -62.4129], [-59.389, -62.4443]]], [[[-60.5049, -62.9674], [-60.6197, -62.969], [-60.5637, -63.009], [-60.6217, -63.018], [-60.6929, -62.9957], [-60.7404, -62.9486], [-60.6374, -62.8952], [-60.5049, -62.9674]]], [[[-60.6531, -63.8666], [-60.7777, -63.9021], [-60.9722, -63.849], [-60.8101, -63.8366], [-60.7967, -63.7167], [-60.7148, -63.6688], [-60.5624, -63.6959], [-60.6889, -63.8079], [-60.655, -63.8501], [-60.6531, -63.8666]]], [[[-61.9524, -64.0771], [-62.0439, -64.0804], [-62.0208, -64.0273], [-61.7982, -63.9666], [-61.9111, -64.0545], [-61.9524, -64.0771]]], [[[-63.3162, -64.8611], [-63.5583, -64.906], [-63.4593, -64.7963], [-63.2194, -64.7298], [-63.2569, -64.7908], [-63.3162, -64.8611]]], [[[-62.6151, -63.0693], [-62.6389, -63.0319], [-62.5271, -62.9238], [-62.3174, -62.8741], [-62.4115, -62.9716], [-62.6151, -63.0693]]], [[[-65.8453, -65.8425], [-66.0639, -65.8809], [-66.1753, -65.8665], [-66.1814, -65.8264], [-66.0496, -65.7447], [-66.0669, -65.6661], [-65.9683, -65.571], [-65.8336, -65.5272], [-65.6369, -65.5478], [-65.6697, -65.6529], [-65.8139, -65.6866], [-65.8357, -65.8138], [-65.8453, -65.8425]]], [[[-66.5953, -66.2007], [-66.85, -66.3055], [-66.779, -66.1108], [-66.6313, -66.0668], [-66.5752, -66.0824], [-66.5926, -66.1786], [-66.5953, -66.2007]]], [[[-67.3624, -66.8945], [-67.5933, -66.8756], [-67.5108, -66.7562], [-67.3317, -66.7535], [-67.257, -66.8409], [-67.3624, -66.8945]]], [[[-67.3489, -67.7662], [-67.5445, -67.7853], [-67.6934, -67.7635], [-67.7433, -67.6612], [-67.5567, -67.6045], [-67.2467, -67.5987], [-67.1494, -67.6502], [-67.2997, -67.7372], [-67.3489, -67.7662]]], [[[-71.695, -70.2651], [-71.6478, -70.2954], [-71.4316, -70.2673], [-71.3549, -70.2979], [-71.5512, -70.4389], [-71.6847, -70.4423], [-71.7953, -70.2884], [-71.695, -70.2651]]], [[[-73.8784, -73.3568], [-74.0383, -73.3655], [-74.1344, -73.2767], [-73.8321, -73.1133], [-73.6742, -73.1004], [-73.5424, -73.1238], [-73.7214, -73.2963], [-73.8784, -73.3568]]], [[[-93.7956, -72.9197], [-93.9655, -72.9202], [-94.0781, -72.8839], [-94.047, -72.823], [-93.7558, -72.9076], [-93.7956, -72.9197]]], [[[-116.7386, -74.165], [-117.2303, -74.1928], [-117.363, -74.1609], [-117.3765, -74.0828], [-116.3813, -73.8655], [-116.155, -73.9104], [-116.5846, -74.0556], [-116.5709, -74.1257], [-116.7386, -74.165]]], [[[-132.3913, -74.4419], [-132.5463, -74.4984], [-132.8572, -74.4617], [-132.8317, -74.4216], [-132.5525, -74.3866], [-132.3623, -74.41], [-132.3913, -74.4419]]], [[[-131.0667, -74.5838], [-131.1789, -74.6048], [-131.8409, -74.5426], [-132.1626, -74.4258], [-131.9378, -74.3491], [-131.5941, -74.3297], [-131.5596, -74.3673], [-131.2339, -74.4136], [-130.9811, -74.4141], [-130.9673, -74.515], [-131.0667, -74.5838]]], [[[-147.5883, -76.6498], [-147.7296, -76.6534], [-148.0011, -76.5771], [-147.8997, -76.558], [-147.6491, -76.6108], [-147.5883, -76.6498]]], [[[-145.2381, -75.7112], [-146.0428, -75.6119], [-146.1508, -75.5735], [-146.0757, -75.5334], [-145.7608, -75.5139], [-145.4174, -75.588], [-145.2522, -75.6828], [-145.2381, -75.7112]]], [[[-146.6067, -76.9613], [-147.0789, -76.9928], [-147.0867, -76.8373], [-146.2444, -76.8831], [-146.164, -76.9485], [-146.6067, -76.9613]]], [[[-148.5959, -77.0068], [-149.0146, -77.0191], [-149.2448, -76.9931], [-149.3025, -76.9158], [-148.5089, -76.9546], [-148.4743, -76.9978], [-148.5959, -77.0068]]], [[[-149.3333, -76.7174], [-148.6626, -76.7205], [-148.3208, -76.7717], [-148.9839, -76.8453], [-149.4689, -76.7571], [-149.3333, -76.7174]]], [[[-149.2181, -77.3363], [-148.9289, -77.3868], [-149.4387, -77.3706], [-149.6624, -77.301], [-149.5187, -77.2747], [-149.2491, -77.315], [-149.2181, -77.3363]]], [[[-150.2325, -76.7765], [-150.6552, -76.789], [-150.8735, -76.7367], [-150.1774, -76.6913], [-150.0848, -76.7352], [-150.2325, -76.7765]]], [[[-146.6901, -76.2464], [-146.8945, -76.2609], [-147.3454, -76.1467], [-147.4181, -76.0734], [-146.949, -76.0981], [-146.6901, -76.2464]]], [[[-146.79, -76.6331], [-146.9078, -76.7141], [-147.3553, -76.6188], [-147.1353, -76.5315], [-146.8779, -76.5633], [-146.79, -76.6331]]], [[[-150.3971, -77.3691], [-151.5116, -77.2733], [-151.0215, -77.22], [-150.3562, -77.349], [-150.3971, -77.3691]]], [[[-153.9305, -80.0333], [-154.9417, -79.9663], [-155.0448, -79.8998], [-155.7512, -79.8296], [-155.6743, -79.7655], [-154.0254, -79.9877], [-153.9305, -80.0333]]], [[[-149.2307, -77.1205], [-149.7286, -77.1285], [-150.4618, -77.0757], [-150.7885, -76.9816], [-150.3933, -76.8987], [-149.8706, -76.875], [-149.2883, -77.0932], [-149.2307, -77.1205]]], [[[-157.9875, -82.105], [-158.9887, -81.7793], [-157.8346, -82.0308], [-157.9875, -82.105]]]]}}]}