{"type": "FeatureCollection", "features": [{"type": "Feature", "properties": {"name": "American Samoa", "iso3": "ASM", "label": [-170.7076, -14.3071]}, "geometry": {"type": "MultiPolygon", "coordinates": [[[[-170.7263, -14.3512], [-170.7692, -14.3598], [-170.8205, -14.3121], [-170.6892, -14.2574], [-170.5681, -14.2668], [-170.6405, -14.2822], [-170.7263, -14.3512]]]]}}, {"type": "Feature", "properties": {"name": "Ashmore and Cartier Is.", "iso3": "ATC", "label": [123.586, -12.4291]}, "geometry": {"type": "MultiPolygon", "coordinates": [[[[123.5945, -12.4257], [123.5952, -12.4359], [123.5731, -12.4342], [123.5725, -12.4239], [123.5945, -12.4257]]]]}}, {"type": "Feature", "properties": {"name": "Australia", "iso3": "AUS", "label": [134.1611, -23.2307]}, "geometry": {"type": "MultiPolygon", "coordinates": [[[[143.1789, -11.9545], [143.1047, -12.1696], [143.1103, -12.3035], [143.2541, -12.3977], [143.2896, -12.4988], [143.4016, -12.6399], [143.3976, -12.7361], [143.4577, -12.8558], [143.5295, -13.3038], [143.5866, -13.4437], [143.5484, -13.741], [143.7563, -14.3488], [143.9618, -14.4629], [144.1059, -14.3945], [144.2099, -14.302], [144.473, -14.2318], [144.5864, -14.3547], [144.648, -14.4925], [145.2877, -14.9432], [145.2517, -15.0975], [145.2931, -15.3272], [145.2716, -15.4767], [145.3754, -15.8811], [145.458, -16.0564], [145.4261, -16.4062], [145.5499, -16.6251], [145.7548, -16.8795], [145.9121, -16.9125], [145.902, -17.0702], [146.0498, -17.3811], [146.1259, -17.6353], [146.0229, -18.1758], [146.0322, -18.2729], [146.223, -18.5099], [146.3332, -18.5537], [146.2969, -18.8412], [146.3834, -18.9771], [146.4812, -19.0787], [146.692, -19.1874], [147.0026, -19.2561], [147.1388, -19.3932], [147.2781, -19.4142], [147.4186, -19.3781], [147.586, -19.6228], [147.7424, -19.7701], [147.8532, -19.7947], [147.9156, -19.8692], [148.0811, -19.8986], [148.3669, -20.0875], [148.6005, -20.1452], [148.7594, -20.2896], [148.8848, -20.4809], [148.73, -20.4678], [148.6837, -20.5802], [148.7895, -20.7356], [149.0605, -20.9611], [149.2049, -21.1251], [149.3293, -21.4761], [149.4541, -21.5787], [149.4601, -21.7654], [149.524, -22.0236], [149.5957, -22.2576], [149.7039, -22.4405], [149.8225, -22.3898], [149.9744, -22.5507], [150.0056, -22.5216], [149.9419, -22.3081], [149.9812, -22.1843], [150.0206, -22.1684], [150.0762, -22.1645], [150.2349, -22.3729], [150.5413, -22.5591], [150.5796, -22.5558], [150.5686, -22.384], [150.6229, -22.3673], [150.7639, -22.5762], [150.783, -23.1766], [150.8432, -23.458], [151.1538, -23.7841], [151.5008, -24.0124], [151.6909, -24.0384], [151.8316, -24.1229], [152.1299, -24.5976], [152.4563, -24.8024], [152.5021, -24.964], [152.6543, -25.202], [152.7892, -25.2741], [152.9135, -25.4321], [152.9205, -25.6886], [153.0282, -25.8703], [153.1649, -25.9642], [153.0842, -26.3038], [153.1621, -26.9827], [153.1168, -27.1944], [153.3857, -27.7686], [153.4549, -28.0483], [153.5757, -28.2405], [153.5691, -28.5334], [153.6169, -28.673], [153.6046, -28.8545], [153.4622, -29.0502], [153.348, -29.2904], [153.347, -29.4966], [153.2724, -29.8925], [153.0306, -30.5634], [153.0479, -30.9071], [152.9439, -31.4349], [152.7858, -31.7863], [152.5593, -32.0457], [152.5453, -32.2431], [152.4704, -32.4391], [152.2475, -32.6087], [152.2157, -32.6781], [152.1365, -32.6781], [152.1881, -32.7217], [152.1643, -32.7574], [151.9543, -32.8203], [151.8129, -32.9011], [151.4838, -33.3475], [151.432, -33.5216], [151.2921, -33.581], [151.3228, -33.6993], [151.2803, -33.9267], [151.2446, -33.9851], [151.2017, -33.9641], [151.1248, -34.0053], [151.2315, -34.0297], [150.9604, -34.2971], [150.8713, -34.4991], [150.7811, -34.8922], [150.8046, -35.0129], [150.6974, -35.0419], [150.681, -35.0767], [150.7222, -35.1346], [150.6903, -35.1777], [150.5675, -35.2143], [150.3741, -35.5842], [150.1953, -35.8336], [150.0628, -36.5504], [149.9603, -36.8455], [149.9506, -37.0803], [149.9863, -37.2584], [149.9327, -37.5285], [149.8094, -37.5479], [149.4809, -37.7712], [149.2984, -37.8021], [148.9439, -37.7885], [148.2625, -37.8307], [147.8768, -37.9342], [147.6314, -38.0557], [147.3956, -38.2191], [146.8568, -38.6635], [146.4357, -38.7118], [146.2926, -38.6998], [146.2175, -38.7274], [146.2162, -38.7827], [146.3366, -38.8942], [146.427, -38.8196], [146.4666, -38.8403], [146.4838, -39.065], [146.4, -39.1455], [146.34, -39.1238], [146.2543, -38.9645], [146.1584, -38.8657], [146.0699, -38.8341], [145.9354, -38.9018], [145.7908, -38.667], [145.6063, -38.6568], [145.3973, -38.5354], [145.4628, -38.4163], [145.5422, -38.3938], [145.4758, -38.2437], [145.2928, -38.2376], [145.1912, -38.3836], [144.9596, -38.5008], [144.7178, -38.3403], [144.9114, -38.344], [145.067, -38.2049], [145.1199, -38.0913], [144.8913, -37.8998], [144.3955, -38.1369], [144.5895, -38.1576], [144.6652, -38.21], [144.1016, -38.4623], [143.8117, -38.6988], [143.539, -38.8209], [143.2265, -38.7432], [143.0826, -38.6459], [142.8402, -38.5809], [142.4559, -38.3863], [142.1877, -38.3994], [141.9247, -38.2838], [141.725, -38.2714], [141.5939, -38.3878], [141.4242, -38.3635], [141.2139, -38.172], [141.0109, -38.077], [140.6272, -38.0284], [140.3904, -37.8967], [140.2121, -37.6422], [139.7843, -37.2458], [139.7385, -37.0596], [139.8573, -36.6621], [139.729, -36.3714], [139.4659, -36.0104], [139.0377, -35.6893], [138.9689, -35.5808], [139.0669, -35.5984], [139.1125, -35.5423], [139.178, -35.523], [139.2306, -35.5977], [139.2895, -35.6113], [139.3251, -35.4267], [139.2825, -35.3754], [139.1928, -35.3473], [138.9152, -35.4889], [138.8753, -35.5368], [138.771, -35.5384], [138.5219, -35.6424], [138.1844, -35.6127], [138.2521, -35.4865], [138.3998, -35.3258], [138.5111, -35.0244], [138.4899, -34.7636], [138.0893, -34.1698], [137.9192, -34.4561], [137.8741, -34.7274], [137.6917, -35.143], [137.4596, -35.1313], [137.1444, -35.2364], [136.8836, -35.2397], [137.0143, -34.9158], [137.391, -34.9133], [137.493, -34.5978], [137.459, -34.3789], [137.4938, -34.1611], [137.6504, -33.8591], [137.9318, -33.5791], [137.8523, -33.2008], [137.9926, -33.0942], [137.9132, -32.7707], [137.7832, -32.5781], [137.7909, -32.8232], [137.6802, -32.978], [137.4423, -33.1936], [137.2373, -33.6295], [137.1303, -33.703], [136.9365, -33.7502], [136.6355, -33.8966], [136.4307, -34.03], [136.1211, -34.4287], [135.891, -34.6609], [135.9985, -34.9438], [135.9697, -34.9818], [135.7924, -34.8633], [135.6476, -34.9396], [135.4809, -34.7582], [135.3242, -34.6427], [135.2307, -34.5798], [135.123, -34.5857], [135.1296, -34.5365], [135.2168, -34.4873], [135.3787, -34.5977], [135.45, -34.5811], [135.2189, -33.9598], [134.8888, -33.6264], [134.8467, -33.4446], [134.719, -33.2552], [134.6077, -33.1901], [134.3013, -33.165], [134.1735, -32.9791], [134.1004, -32.7486], [134.2271, -32.7306], [134.2342, -32.5485], [133.9302, -32.4117], [133.7867, -32.2688], [133.6653, -32.2072], [133.2121, -32.1838], [132.7574, -31.9563], [132.6486, -31.9493], [132.3236, -32.02], [132.2146, -32.0071], [131.7212, -31.6963], [131.3932, -31.5485], [131.1437, -31.4957], [130.783, -31.604], [130.1298, -31.5791], [128.9462, -31.7026], [128.0677, -32.0665], [127.3198, -32.2641], [126.7793, -32.3109], [126.1365, -32.2568], [125.9172, -32.297], [125.5675, -32.5059], [125.2666, -32.6145], [124.7588, -32.8827], [124.3732, -32.9584], [124.2438, -33.0152], [124.1261, -33.1294], [123.8684, -33.5964], [123.6504, -33.8363], [123.5068, -33.9162], [123.3654, -33.9054], [123.2076, -33.9883], [123.0676, -33.9006], [122.7775, -33.8908], [122.151, -33.9918], [122.0611, -33.8744], [121.4051, -33.8268], [120.8146, -33.8713], [120.4184, -33.9631], [120.2094, -33.9354], [119.8541, -33.9747], [119.6352, -34.1012], [119.4506, -34.3683], [119.2477, -34.4564], [118.8953, -34.4799], [118.1355, -34.9866], [117.8631, -35.055], [117.5819, -35.0978], [116.5172, -34.9879], [115.9867, -34.795], [115.7263, -34.5261], [115.565, -34.4258], [115.2776, -34.3039], [115.1279, -34.3418], [115.0088, -34.2559], [114.9734, -34.0512], [114.9938, -33.5153], [115.1816, -33.6435], [115.3588, -33.6399], [115.5153, -33.5313], [115.683, -33.1929], [115.6186, -32.667], [115.7079, -32.568], [115.7254, -32.4011], [115.7381, -31.8879], [115.6984, -31.6945], [115.4546, -31.3025], [115.2943, -30.9618], [115.1769, -30.808], [115.0779, -30.5604], [114.9688, -30.0423], [114.959, -29.4336], [114.8568, -29.143], [114.6284, -28.8718], [114.5374, -28.5429], [114.1651, -28.0807], [114.0984, -27.5442], [114.0281, -27.3473], [113.7094, -26.8478], [113.333, -26.4174], [113.1848, -26.1822], [113.3232, -26.2438], [113.3561, -26.0805], [113.5816, -26.5581], [113.7337, -26.5951], [113.8364, -26.5006], [113.8528, -26.3321], [113.5891, -26.0986], [113.5134, -25.8983], [113.3953, -25.7133], [113.3974, -25.6472], [113.4514, -25.5991], [113.5395, -25.6252], [113.7131, -25.8308], [113.6836, -26.0517], [113.7237, -26.1298], [113.7658, -26.1598], [113.8539, -26.0145], [113.992, -26.3215], [114.0903, -26.3937], [114.2157, -26.2895], [114.2143, -25.8516], [113.9928, -25.5448], [113.6708, -24.9771], [113.5692, -24.693], [113.4177, -24.4356], [113.4213, -24.1323], [113.4898, -23.8696], [113.757, -23.4182], [113.7951, -22.9146], [113.6828, -22.6378], [113.9584, -21.9392], [114.0229, -21.8814], [114.1239, -21.8286], [114.1426, -21.9098], [114.0928, -22.1813], [114.1639, -22.3233], [114.1416, -22.4831], [114.3035, -22.4254], [114.3777, -22.3415], [114.6028, -21.9422], [114.7093, -21.8234], [115.4562, -21.4917], [116.0109, -21.0304], [116.7067, -20.6538], [117.1391, -20.6409], [117.2928, -20.7131], [117.4062, -20.7212], [117.6839, -20.6428], [118.1992, -20.3752], [118.7515, -20.2619], [119.1045, -19.9953], [119.5859, -20.0383], [119.7678, -19.9584], [120.1963, -19.9095], [120.4337, -19.842], [120.9979, -19.6044], [121.3377, -19.3199], [121.4936, -19.1064], [121.8338, -18.4771], [122.0062, -18.3937], [122.3454, -18.1119], [122.3609, -18.0369], [122.2374, -17.9686], [122.1475, -17.549], [122.1603, -17.3137], [122.2609, -17.1357], [122.432, -16.9704], [122.5226, -16.9429], [122.7204, -16.7877], [122.9168, -16.4326], [122.9707, -16.4368], [123.1421, -16.8631], [123.2659, -17.0368], [123.3832, -17.2928], [123.5631, -17.5209], [123.6079, -17.2199], [123.5936, -17.0304], [123.6641, -17.0232], [123.799, -17.1271], [123.8311, -17.1208], [123.8295, -16.9969], [123.8744, -16.9187], [123.8563, -16.8647], [123.7781, -16.8678], [123.4904, -16.4907], [123.5813, -16.4709], [123.626, -16.4163], [123.6465, -16.3431], [123.607, -16.224], [123.6475, -16.1799], [123.7289, -16.1925], [123.8592, -16.3823], [123.9152, -16.3636], [123.9613, -16.2869], [124.0444, -16.2649], [124.1298, -16.2788], [124.3004, -16.3883], [124.772, -16.4026], [124.6692, -16.3388], [124.4545, -16.3353], [124.4049, -16.2989], [124.3883, -16.203], [124.4164, -16.1335], [124.4346, -16.1038], [124.5769, -16.1137], [124.6485, -15.8702], [124.6483, -15.8055], [124.5043, -15.9725], [124.3816, -15.7582], [124.4396, -15.4936], [124.5616, -15.4963], [124.6909, -15.3597], [124.6926, -15.2736], [124.9721, -15.4043], [125.0164, -15.4665], [125.063, -15.4423], [125.0729, -15.3067], [124.9092, -15.3101], [124.8391, -15.1607], [125.0233, -15.0719], [125.0382, -15.0041], [125.3557, -15.1198], [125.3838, -15.0156], [125.2433, -14.9445], [125.1787, -14.7147], [125.2665, -14.6484], [125.2846, -14.5841], [125.4359, -14.5568], [125.5798, -14.4832], [125.5971, -14.2781], [125.6277, -14.2566], [125.7046, -14.2914], [125.6616, -14.5295], [125.7385, -14.4443], [125.8195, -14.4691], [125.8501, -14.5973], [125.8906, -14.618], [125.9461, -14.5204], [126.0207, -14.4945], [126.0166, -14.3713], [126.1113, -14.1141], [126.0539, -13.9772], [126.119, -13.9577], [126.1843, -14.0021], [126.2585, -14.1636], [126.323, -14.0621], [126.4031, -14.0189], [126.5697, -14.1609], [126.6791, -14.0894], [126.7807, -13.9552], [126.7756, -13.7885], [126.9032, -13.7441], [127.4576, -14.0314], [127.6729, -14.1951], [127.8876, -14.4852], [128.1994, -14.7518], [128.0805, -15.088], [128.0694, -15.3293], [128.1117, -15.312], [128.1555, -15.2256], [128.2547, -15.2985], [128.175, -15.0432], [128.4032, -14.8691], [128.4099, -14.8289], [128.5758, -14.7745], [129.0582, -14.8844], [129.1651, -14.9876], [129.1752, -15.115], [129.2158, -15.1603], [129.2336, -14.9061], [129.2676, -14.8715], [129.459, -14.9332], [129.6348, -15.1397], [129.6127, -14.9259], [129.6371, -14.851], [129.8487, -14.8289], [129.7535, -14.7896], [129.6047, -14.6471], [129.6979, -14.5574], [129.6079, -14.5597], [129.3787, -14.3925], [129.4592, -14.2135], [129.7099, -13.98], [129.8389, -13.5729], [129.9379, -13.5017], [130.1359, -13.4483], [130.2598, -13.3022], [130.135, -13.1455], [130.1682, -12.9574], [130.318, -12.8829], [130.3999, -12.6879], [130.6175, -12.6469], [130.6227, -12.4311], [130.6724, -12.4069], [130.7361, -12.4277], [130.8674, -12.5578], [130.8982, -12.5236], [130.8738, -12.3672], [131.0234, -12.3429], [131.0195, -12.2139], [131.2199, -12.1779], [131.2916, -12.0679], [131.3421, -12.2101], [131.4383, -12.277], [131.7263, -12.2781], [131.888, -12.2319], [132.0641, -12.2808], [132.2532, -12.186], [132.3721, -12.2392], [132.411, -12.2951], [132.4416, -12.1764], [132.5105, -12.1349], [132.5838, -12.1103], [132.7128, -12.1234], [132.6305, -12.0352], [132.6299, -11.8358], [132.6742, -11.649], [132.4752, -11.4915], [132.2779, -11.4677], [132.1336, -11.5007], [132.0729, -11.4747], [131.9446, -11.3485], [131.8225, -11.3024], [131.8118, -11.2714], [131.9615, -11.1809], [132.1555, -11.3111], [132.1978, -11.305], [132.2627, -11.204], [132.334, -11.2235], [132.5573, -11.3669], [132.6828, -11.5056], [132.8571, -11.3911], [132.961, -11.4073], [133.0249, -11.4528], [133.1853, -11.7057], [133.3562, -11.7282], [133.5332, -11.8162], [133.9042, -11.832], [134.2371, -12.0077], [134.4174, -12.0527], [134.5381, -12.0608], [134.7303, -11.9844], [134.8547, -12.1025], [135.0297, -12.1937], [135.218, -12.2217], [135.3523, -12.1292], [135.5487, -12.0606], [135.8853, -11.8217], [135.9225, -11.8258], [135.834, -11.9507], [135.8958, -11.9695], [135.8895, -11.9928], [135.7025, -12.1516], [135.7044, -12.2099], [135.7439, -12.2417], [135.9378, -12.1521], [136.0085, -12.1914], [136.0818, -12.4225], [136.2606, -12.4338], [136.3285, -12.3056], [136.2919, -12.1964], [136.2499, -12.173], [136.2701, -12.1316], [136.4434, -11.9515], [136.5402, -11.9576], [136.6098, -12.1336], [136.7194, -12.2265], [136.8975, -12.2436], [136.9475, -12.3499], [136.537, -12.7843], [136.5178, -12.8328], [136.5943, -13.0038], [136.461, -13.2252], [136.4119, -13.2361], [136.2941, -13.138], [135.9273, -13.3043], [135.9292, -13.6216], [135.9896, -13.8102], [135.9545, -13.9349], [135.8834, -14.1531], [135.7445, -14.2866], [135.4052, -14.7582], [135.4533, -14.9231], [135.5308, -15.0004], [136.2054, -15.4034], [136.2914, -15.5701], [136.5836, -15.7065], [136.7049, -15.6853], [136.6981, -15.835], [136.7847, -15.8942], [137.0021, -15.8783], [137.2993, -16.0663], [137.7037, -16.233], [137.9129, -16.4766], [138.245, -16.7184], [138.5057, -16.7896], [138.6257, -16.7778], [138.8203, -16.8606], [139.0099, -16.8993], [139.1104, -17.0141], [139.1541, -17.1678], [139.2484, -17.3286], [139.4405, -17.3806], [139.6896, -17.5407], [139.8945, -17.6113], [140.0358, -17.7026], [140.2097, -17.7044], [140.5111, -17.6245], [140.8305, -17.4145], [140.966, -17.0146], [141.2191, -16.6462], [141.4119, -16.0695], [141.3932, -15.9047], [141.4516, -15.6053], [141.6255, -15.0566], [141.5229, -14.4701], [141.5943, -14.1528], [141.4807, -13.9268], [141.4726, -13.7976], [141.6454, -13.2591], [141.6136, -12.9435], [141.7822, -12.7787], [141.9203, -12.8029], [141.9298, -12.7398], [141.8521, -12.5787], [141.6777, -12.4914], [141.6886, -12.3511], [141.8705, -11.9756], [141.9611, -12.0543], [141.9516, -11.8962], [142.139, -11.2732], [142.1684, -10.9466], [142.3265, -10.8842], [142.4564, -10.7073], [142.5448, -10.7073], [142.6051, -10.7482], [142.5527, -10.8744], [142.723, -11.0104], [142.7797, -11.1153], [142.8368, -11.3069], [142.8726, -11.8214], [142.9885, -11.919], [143.0664, -11.9241], [143.1789, -11.9545]]], [[[153.0774, -25.7508], [153.052, -25.7783], [153.0069, -25.7289], [152.9767, -25.5514], [153.0607, -25.3022], [153.0381, -25.1932], [153.2275, -25.0058], [153.242, -24.9226], [153.1438, -24.8148], [153.2569, -24.7289], [153.2821, -24.7383], [153.2979, -24.9152], [153.3593, -24.9777], [153.3502, -25.0631], [153.0838, -25.6825], [153.0774, -25.7508]]], [[[139.5078, -16.573], [139.4306, -16.661], [139.3915, -16.6486], [139.3543, -16.6966], [139.1596, -16.7417], [139.1627, -16.6259], [139.293, -16.4673], [139.5879, -16.3952], [139.6978, -16.5149], [139.5597, -16.5295], [139.5078, -16.573]]], [[[136.7146, -13.8039], [136.758, -13.8454], [136.8045, -13.8425], [136.8453, -13.751], [136.8908, -13.7866], [136.9056, -13.827], [136.7882, -13.9458], [136.7453, -14.0727], [136.787, -14.1578], [136.8854, -14.1973], [136.9508, -14.1843], [136.8943, -14.2931], [136.6497, -14.2805], [136.3354, -14.2118], [136.4277, -14.1265], [136.4247, -13.8648], [136.6557, -13.6759], [136.702, -13.6816], [136.696, -13.7262], [136.7146, -13.8039]]], [[[130.4593, -11.6793], [130.5799, -11.7371], [130.6062, -11.8166], [130.5025, -11.8356], [130.3175, -11.7718], [130.0766, -11.8255], [130.0433, -11.7873], [130.0721, -11.6808], [130.1391, -11.6971], [130.1976, -11.6582], [130.1528, -11.4775], [130.2949, -11.3368], [130.3393, -11.337], [130.4328, -11.5922], [130.4593, -11.6793]]], [[[130.6188, -11.3761], [130.7522, -11.3844], [130.9128, -11.3093], [131.023, -11.3344], [131.2683, -11.1898], [131.4369, -11.3132], [131.5386, -11.4369], [131.4679, -11.5096], [131.4586, -11.5879], [131.3828, -11.5825], [131.2921, -11.7109], [130.951, -11.9265], [130.6449, -11.7424], [130.5119, -11.6179], [130.4228, -11.4458], [130.3686, -11.2149], [130.4267, -11.1831], [130.5598, -11.306], [130.6188, -11.3761]]], [[[113.183, -26.0531], [113.1564, -26.0945], [112.9643, -25.7831], [112.9082, -25.5698], [112.9471, -25.5315], [112.9824, -25.5202], [113.1483, -25.9738], [113.183, -26.0531]]], [[[137.5965, -35.7387], [137.8359, -35.7621], [137.9289, -35.7261], [138.0466, -35.7552], [138.1234, -35.8523], [138.0119, -35.9076], [137.8355, -35.8678], [137.6709, -35.8979], [137.5902, -36.0271], [137.4484, -36.0748], [137.3822, -36.0209], [137.2096, -35.9824], [137.1478, -36.0391], [136.7551, -36.0331], [136.5406, -35.8901], [136.6387, -35.7488], [137.3341, -35.5925], [137.585, -35.6202], [137.6354, -35.6564], [137.5981, -35.7223], [137.5965, -35.7387]]], [[[145.4865, -38.3549], [145.3358, -38.421], [145.2803, -38.3906], [145.2953, -38.3189], [145.4266, -38.3142], [145.4865, -38.3549]]], [[[145.3145, -38.4908], [145.3551, -38.557], [145.2709, -38.5197], [145.1284, -38.5276], [145.2178, -38.4586], [145.2879, -38.4722], [145.3145, -38.4908]]], [[[149.0437, -20.2915], [148.9389, -20.2837], [148.9811, -20.1535], [149.0453, -20.2775], [149.0437, -20.2915]]], [[[148.9355, -20.1499], [148.8869, -20.1436], [148.9679, -20.0443], [148.9563, -20.1347], [148.9355, -20.1499]]], [[[151.1466, -23.4908], [151.2401, -23.5297], [151.2288, -23.5949], [151.2958, -23.7203], [151.2383, -23.7758], [151.0333, -23.5302], [151.06, -23.4605], [151.1466, -23.4908]]], [[[150.5167, -22.3226], [150.4624, -22.3077], [150.4885, -22.2107], [150.5488, -22.3069], [150.5167, -22.3226]]], [[[149.9283, -22.1931], [149.8937, -22.2232], [149.8695, -22.1504], [149.8754, -22.074], [149.9123, -22.0487], [149.9279, -22.1493], [149.9283, -22.1931]]], [[[153.5388, -27.4364], [153.4527, -27.7117], [153.4266, -27.7064], [153.3958, -27.665], [153.4009, -27.5057], [153.4354, -27.4054], [153.5219, -27.4225], [153.5388, -27.4364]]], [[[153.4425, -27.316], [153.4209, -27.331], [153.3766, -27.2354], [153.365, -27.1389], [153.3799, -27.0494], [153.4323, -27.0299], [153.4668, -27.0381], [153.4264, -27.2015], [153.4425, -27.316]]], [[[142.2748, -10.7048], [142.1914, -10.762], [142.1372, -10.7319], [142.1311, -10.6406], [142.1979, -10.592], [142.2748, -10.7048]]], [[[142.339, -10.1922], [142.2794, -10.2542], [142.2162, -10.2356], [142.1951, -10.1993], [142.2188, -10.1494], [142.2987, -10.1404], [142.339, -10.1922]]], [[[142.1676, -10.1541], [142.142, -10.1813], [142.0977, -10.1218], [142.1488, -10.0518], [142.192, -10.0853], [142.1676, -10.1541]]], [[[146.2783, -18.2312], [146.342, -18.4001], [146.2988, -18.4848], [146.2356, -18.4508], [146.0988, -18.2518], [146.2491, -18.2259], [146.2783, -18.2312]]], [[[136.5985, -11.3789], [136.5266, -11.4389], [136.5217, -11.3938], [136.7105, -11.1584], [136.7317, -11.0246], [136.7803, -11.0125], [136.7414, -11.1946], [136.5985, -11.3789]]], [[[136.3387, -11.6023], [136.1803, -11.6768], [136.2674, -11.5765], [136.4793, -11.4659], [136.4705, -11.5093], [136.3794, -11.5832], [136.3387, -11.6023]]], [[[137.0937, -15.7781], [137.0509, -15.8244], [136.9851, -15.726], [136.9427, -15.7117], [137.0096, -15.5948], [137.0646, -15.6629], [137.0711, -15.7381], [137.0937, -15.7781]]], [[[136.8627, -15.6199], [136.8456, -15.544], [136.8769, -15.5025], [136.8902, -15.5889], [136.8627, -15.6199]]], [[[136.591, -15.6282], [136.5143, -15.6273], [136.5027, -15.5831], [136.5226, -15.5432], [136.6123, -15.5441], [136.591, -15.6282]]], [[[139.4592, -17.1146], [139.4217, -17.1316], [139.4082, -17.0906], [139.4928, -16.9904], [139.5601, -17.042], [139.5709, -17.0944], [139.4592, -17.1146]]], [[[136.2374, -13.8245], [136.1227, -13.8166], [136.1344, -13.7531], [136.2154, -13.6647], [136.2754, -13.7911], [136.2374, -13.8245]]], [[[132.5934, -11.3028], [132.5736, -11.3184], [132.4938, -11.1637], [132.5163, -11.116], [132.4838, -11.0373], [132.5378, -11.0284], [132.5788, -10.9688], [132.6291, -11.1691], [132.5934, -11.3028]]], [[[125.1988, -14.5795], [125.1348, -14.6417], [125.0912, -14.5917], [125.1174, -14.492], [125.16, -14.4561], [125.1981, -14.4748], [125.1936, -14.5526], [125.1988, -14.5795]]], [[[124.5973, -15.402], [124.5242, -15.4215], [124.4828, -15.3403], [124.5193, -15.2675], [124.5509, -15.2703], [124.6051, -15.3565], [124.5973, -15.402]]], [[[115.4462, -20.7878], [115.3881, -20.866], [115.3181, -20.8506], [115.3086, -20.8111], [115.4346, -20.668], [115.4576, -20.7163], [115.4462, -20.7878]]], [[[145.043, -40.7867], [145.283, -40.7699], [145.3494, -40.8264], [145.5335, -40.864], [145.8215, -41.0246], [146.3175, -41.1635], [146.5744, -41.1424], [146.7234, -41.078], [146.8481, -41.1681], [146.8566, -41.0583], [146.9898, -40.9924], [147.3205, -40.9564], [147.4548, -41.0017], [147.6217, -40.8447], [147.8729, -40.8726], [147.9688, -40.7796], [148.2152, -40.8549], [148.2929, -40.9471], [148.2876, -41.8157], [148.3426, -42.2153], [148.3313, -42.2616], [148.2903, -42.255], [148.2771, -42.1364], [148.1831, -42.0647], [148.2416, -42.0219], [148.2137, -41.97], [148.0228, -42.2595], [148.0094, -42.4359], [147.9244, -42.5725], [147.915, -42.8164], [147.9809, -43.157], [147.9454, -43.1818], [147.7858, -43.22], [147.6989, -43.1226], [147.6479, -43.0206], [147.6873, -42.9799], [147.7739, -43.0034], [147.8, -42.9281], [147.5738, -42.8457], [147.5358, -42.878], [147.5367, -42.9965], [147.4523, -43.0334], [147.408, -42.8938], [147.2979, -42.7909], [147.3477, -42.9266], [147.325, -43.0135], [147.2598, -43.0711], [147.245, -43.2159], [147.1729, -43.2559], [146.997, -43.1563], [146.9875, -43.2188], [147.0773, -43.2759], [146.8739, -43.6125], [146.6992, -43.602], [146.5485, -43.5089], [146.1867, -43.5128], [146.0432, -43.5472], [145.9944, -43.3761], [146.2264, -43.3553], [146.208, -43.3162], [145.9753, -43.2771], [145.8732, -43.2924], [145.61, -42.9982], [145.4876, -42.9267], [145.2682, -42.5443], [145.1988, -42.2309], [145.3729, -42.3385], [145.4683, -42.4929], [145.5166, -42.3545], [145.3604, -42.2275], [145.3311, -42.1471], [145.2944, -42.191], [145.2349, -42.197], [145.2382, -42.0196], [145.0554, -41.8268], [144.7779, -41.4188], [144.6461, -40.9809], [144.7186, -40.6723], [144.8186, -40.7217], [145.043, -40.7867]]], [[[143.9279, -40.1161], [143.8987, -40.1202], [143.8876, -39.9836], [143.8386, -39.9041], [143.8618, -39.738], [143.9394, -39.6581], [143.9488, -39.5837], [144.0008, -39.5802], [144.0913, -39.6381], [144.1209, -39.7853], [144.141, -39.9538], [144.0351, -40.0782], [143.9279, -40.1161]]], [[[148.0004, -39.7576], [148.1779, -39.9385], [148.2974, -39.9857], [148.2508, -40.0995], [148.3232, -40.1444], [148.3136, -40.1735], [148.1057, -40.2621], [147.8905, -40.0146], [147.8763, -39.9055], [147.8123, -39.9104], [147.7672, -39.8703], [147.933, -39.726], [148.0004, -39.7576]]], [[[147.3561, -43.397], [147.3089, -43.5008], [147.1538, -43.5002], [147.105, -43.4312], [147.1631, -43.4303], [147.2839, -43.2789], [147.3425, -43.3463], [147.3561, -43.397]]], [[[148.1043, -42.7104], [148.0297, -42.7148], [148.0228, -42.6404], [148.0726, -42.5932], [148.1695, -42.6518], [148.1006, -42.6806], [148.1043, -42.7104]]], [[[147.4346, -43.2407], [147.3488, -43.2324], [147.2961, -43.1617], [147.3525, -43.0803], [147.3973, -43.1183], [147.4346, -43.2407]]], [[[144.7844, -40.5067], [144.748, -40.5895], [144.7102, -40.4853], [144.7908, -40.4403], [144.7844, -40.5067]]], [[[148.3263, -40.3069], [148.4742, -40.4324], [148.404, -40.4865], [148.3527, -40.4973], [148.3194, -40.4346], [148.1025, -40.4517], [148.0104, -40.3806], [148.1981, -40.3579], [148.3263, -40.3069]]], [[[148.2369, -40.5151], [148.1878, -40.5926], [148.1173, -40.5215], [148.2184, -40.5051], [148.2369, -40.5151]]], [[[158.8788, -54.7098], [158.8452, -54.7492], [158.897, -54.5061], [158.9589, -54.4724], [158.9456, -54.575], [158.8788, -54.7098]]]]}}, {"type": "Feature", "properties": {"name": "Cook Is.", "iso3": "COK", "label": [-159.7851, -21.2256]}, "geometry": {"type": "MultiPolygon", "coordinates": [[[[-159.7405, -21.2492], [-159.8396, -21.2381], [-159.832, -21.2005], [-159.7684, -21.1885], [-159.7369, -21.2406], [-159.7405, -21.2492]]]]}}, {"type": "Feature", "properties": {"name": "Fiji", "iso3": "FJI", "label": [177.9676, -17.8089]}, "geometry": {"type": "MultiPolygon", "coordinates": [[[[179.9992, -16.1686], [179.8482, -16.3017], [179.7481, -16.4463], [179.6191, -16.5277], [179.5642, -16.6369], [179.5682, -16.7475], [179.841, -16.5375], [179.9304, -16.5194], [179.89, -16.667], [179.9279, -16.7444], [179.7147, -16.7436], [179.4193, -16.8065], [179.346, -16.7697], [179.3233, -16.7181], [179.2023, -16.7127], [179.0555, -16.8136], [179.0068, -16.9002], [178.8837, -16.886], [178.8029, -16.9521], [178.7066, -16.9762], [178.6037, -16.8006], [178.4975, -16.7879], [178.5836, -16.6219], [178.6863, -16.6656], [178.8051, -16.6314], [178.8657, -16.54], [178.9605, -16.4828], [179.3592, -16.3799], [179.6353, -16.2232], [179.8481, -16.2143], [180.0, -16.1529], [179.9992, -16.1686]]], [[[178.2802, -17.372], [178.2802, -17.4162], [178.5916, -17.6515], [178.5749, -17.7493], [178.6677, -18.0809], [178.4611, -18.139], [178.3315, -18.1353], [178.1602, -18.2502], [177.9555, -18.2641], [177.4573, -18.1482], [177.3214, -18.0775], [177.2635, -17.9687], [177.264, -17.8635], [177.3602, -17.82], [177.4232, -17.7373], [177.4007, -17.6316], [177.5045, -17.5396], [177.618, -17.461], [177.818, -17.3885], [177.9402, -17.3951], [178.1876, -17.313], [178.2472, -17.3291], [178.2802, -17.372]]], [[[-179.9749, -16.9248], [-180.0, -16.963], [-180.0, -16.7855], [-179.861, -16.6883], [-179.8223, -16.7653], [-179.8678, -16.8503], [-179.9749, -16.9248]]], [[[180.0, -16.9631], [179.9259, -17.0003], [179.897, -16.9641], [180.0, -16.7857], [179.9992, -16.8588], [180.0, -16.9631]]], [[[178.4879, -18.9741], [178.4877, -19.0171], [178.359, -19.0456], [178.288, -19.0037], [178.1621, -19.1215], [178.0208, -19.1517], [177.9587, -19.1216], [178.052, -19.0602], [178.1041, -19.0662], [178.2084, -18.9696], [178.3343, -18.9345], [178.4203, -18.9508], [178.4879, -18.9741]]], [[[-178.9881, -17.9767], [-179.0392, -17.9884], [-179.079, -17.9441], [-179.0476, -17.9204], [-178.9991, -17.9474], [-178.9881, -17.9767]]], [[[-178.7619, -18.2339], [-178.7736, -18.2524], [-178.8479, -18.2021], [-178.7631, -18.1914], [-178.7619, -18.2339]]], [[[-178.2511, -17.9527], [-178.3068, -17.9633], [-178.3572, -17.9209], [-178.3254, -17.8758], [-178.2546, -17.93], [-178.2511, -17.9527]]], [[[-178.9565, -17.2729], [-178.9818, -17.307], [-179.0039, -17.2949], [-178.9715, -17.2127], [-179.0149, -17.1824], [-179.005, -17.1483], [-178.9211, -17.2084], [-178.9246, -17.2486], [-178.9565, -17.2729]]], [[[-178.5351, -19.166], [-178.5959, -19.1514], [-178.5893, -19.1188], [-178.5567, -19.113], [-178.5741, -19.1432], [-178.5406, -19.157], [-178.5351, -19.166]]], [[[-179.7999, -18.9403], [-179.7976, -18.9698], [-179.8302, -18.9556], [-179.865, -18.9987], [-179.8311, -18.9242], [-179.7999, -18.9403]]], [[[177.2342, -17.1471], [177.1828, -17.1639], [177.2102, -17.0843], [177.2874, -17.0486], [177.2758, -17.1049], [177.2342, -17.1471]]], [[[179.4224, -17.3668], [179.389, -17.3938], [179.3731, -17.2562], [179.4328, -17.2716], [179.4472, -17.3062], [179.4224, -17.3668]]], [[[179.3493, -18.1023], [179.2535, -18.0306], [179.3064, -17.944], [179.3624, -18.0652], [179.3493, -18.1023]]], [[[178.8275, -17.729], [178.7761, -17.7468], [178.7477, -17.6857], [178.7871, -17.6244], [178.8311, -17.6188], [178.8525, -17.6812], [178.8275, -17.729]]], [[[-179.9294, -16.5028], [-180.0, -16.54], [-180.0, -16.4889], [-179.9009, -16.4315], [-179.9273, -16.4791], [-179.9294, -16.5028]]], [[[-179.9562, -16.1492], [-180.0, -16.1683], [-179.9446, -16.1261], [-179.9562, -16.1492]]], [[[180, -16.54], [179.9872, -16.5412], [179.9847, -16.5222], [180, -16.4889], [180, -16.54]]], [[[177.1215, -12.5055], [177.0062, -12.4911], [177.127, -12.4929], [177.1215, -12.5055]]], [[[174.6297, -21.695], [174.5872, -21.6801], [174.6277, -21.676], [174.6297, -21.695]]], [[[-178.7116, -20.6678], [-178.7095, -20.6705], [-178.7149, -20.6703], [-178.7231, -20.6668], [-178.7291, -20.6602], [-178.7306, -20.6528], [-178.7275, -20.6452], [-178.7246, -20.6457], [-178.7192, -20.6523], [-178.7142, -20.6598], [-178.7116, -20.6678]]]]}}, {"type": "Feature", "properties": {"name": "Fr. Polynesia", "iso3": "PYF", "label": [-149.3873, -17.6878]}, "geometry": {"type": "MultiPolygon", "coordinates": [[[[-151.4666, -16.6575], [-151.5042, -16.647], [-151.5058, -16.574], [-151.4381, -16.6234], [-151.4666, -16.6575]]], [[[-149.8137, -17.545], [-149.8449, -17.5711], [-149.8866, -17.5528], [-149.9021, -17.4695], [-149.7824, -17.4878], [-149.8137, -17.545]]], [[[-151.4098, -16.8777], [-151.4855, -16.8637], [-151.4667, -16.7396], [-151.4112, -16.7744], [-151.3645, -16.8643], [-151.4098, -16.8777]]], [[[-149.3215, -17.69], [-149.1777, -17.7366], [-149.1509, -17.8121], [-149.1818, -17.8623], [-149.2905, -17.8225], [-149.3411, -17.7324], [-149.5789, -17.735], [-149.635, -17.5643], [-149.5081, -17.4964], [-149.3792, -17.5224], [-149.3301, -17.589], [-149.3215, -17.69]]], [[[-139.0243, -9.6952], [-138.8273, -9.7416], [-138.875, -9.7929], [-139.0737, -9.8457], [-139.1341, -9.8295], [-139.1665, -9.7702], [-139.0243, -9.6952]]], [[[-139.0597, -9.9313], [-139.134, -10.0096], [-139.1342, -9.9263], [-139.0832, -9.9154], [-139.0597, -9.9313]]], [[[-138.6511, -10.5153], [-138.6877, -10.5324], [-138.6904, -10.4256], [-138.6245, -10.463], [-138.6324, -10.4922], [-138.6511, -10.5153]]], [[[-140.0726, -8.9104], [-140.2174, -8.9297], [-140.2527, -8.848], [-140.24, -8.7976], [-140.0577, -8.8015], [-140.0461, -8.8736], [-140.0726, -8.9104]]], [[[-140.0756, -9.426], [-140.0974, -9.4441], [-140.1444, -9.3594], [-140.0709, -9.3281], [-140.0311, -9.3447], [-140.0756, -9.426]]], [[[-140.8094, -17.8566], [-140.8516, -17.8666], [-140.8036, -17.7517], [-140.6382, -17.678], [-140.7763, -17.7541], [-140.8292, -17.8492], [-140.8094, -17.8566]]], [[[-139.5562, -8.9402], [-139.621, -8.9479], [-139.6118, -8.8724], [-139.5346, -8.8754], [-139.5099, -8.9156], [-139.5562, -8.9402]]], [[[-140.6854, -18.3799], [-140.6719, -18.4161], [-140.7817, -18.3342], [-140.6854, -18.3799]]], [[[-140.8299, -18.1894], [-140.8227, -18.2169], [-140.9735, -18.0592], [-140.8933, -18.1205], [-140.8299, -18.1894]]], [[[-136.2939, -18.5443], [-136.3141, -18.5663], [-136.4785, -18.4708], [-136.3276, -18.5193], [-136.2939, -18.5443]]], [[[-136.9717, -18.342], [-137.0676, -18.2653], [-137.0296, -18.2729], [-136.9717, -18.342]]], [[[-138.5059, -20.8572], [-138.5349, -20.8759], [-138.5684, -20.7871], [-138.5464, -20.7712], [-138.5149, -20.8134], [-138.5059, -20.8572]]], [[[-142.5118, -16.0963], [-142.5296, -16.1071], [-142.4812, -16.0178], [-142.5118, -16.0963]]], [[[-143.4406, -16.6197], [-143.3862, -16.6688], [-143.5507, -16.6211], [-143.4647, -16.6136], [-143.4406, -16.6197]]], [[[-143.5711, -16.6348], [-143.7074, -16.5809], [-143.6148, -16.6181], [-143.5711, -16.6348]]], [[[-145.0514, -15.8561], [-145.0577, -15.9011], [-145.1607, -15.757], [-145.1335, -15.762], [-145.0514, -15.8561]]], [[[-145.4867, -16.3298], [-145.5027, -16.3458], [-145.6091, -16.1652], [-145.6138, -16.0792], [-145.517, -16.2778], [-145.4867, -16.3298]]]]}}, {"type": "Feature", "properties": {"name": "Guam", "iso3": "GUM", "label": [144.7732, 13.4295]}, "geometry": {"type": "MultiPolygon", "coordinates": [[[[144.7418, 13.2593], [144.6995, 13.2575], [144.65, 13.3135], [144.6493, 13.4287], [144.7903, 13.5269], [144.8367, 13.6224], [144.9097, 13.599], [144.9408, 13.5703], [144.7799, 13.4111], [144.7418, 13.2593]]]]}}, {"type": "Feature", "properties": {"name": "Kiribati", "iso3": "KIR", "label": [-157.3997, 1.8878]}, "geometry": {"type": "MultiPolygon", "coordinates": [[[[172.9696, 3.1292], [172.8871, 3.1013], [172.9622, 3.1429], [172.9696, 3.1292]]], [[[172.8442, 3.0512], [172.7703, 3.0125], [172.7505, 3.0331], [172.827, 3.0711], [172.8871, 3.074], [172.8803, 3.0535], [172.8442, 3.0512]]], [[[173.0188, 1.8457], [173.0236, 1.8226], [172.9348, 1.9437], [172.9815, 1.897], [173.0188, 1.8457]]], [[[173.0294, 1.7174], [172.9933, 1.7131], [173.0278, 1.7473], [173.0236, 1.8093], [173.0452, 1.7416], [173.0294, 1.7174]]], [[[173.0328, 1.0131], [173.0865, 0.9734], [172.9911, 0.8354], [172.9699, 0.8428], [173.065, 0.9627], [173.0037, 0.991], [173.0037, 1.0251], [173.0328, 1.0131]]], [[[174.5087, -0.8018], [174.4764, -0.829], [174.4527, -0.6471], [174.3811, -0.5918], [174.4748, -0.6422], [174.4954, -0.7257], [174.5087, -0.8018]]], [[[174.7732, -1.2119], [174.7789, -1.2634], [174.7168, -1.1337], [174.7666, -1.1871], [174.7732, -1.2119]]], [[[173.0384, 1.3421], [173.0113, 1.3384], [173.1719, 1.3751], [173.0617, 1.3463], [173.0384, 1.3421]]], [[[169.5511, -0.8737], [169.5256, -0.8526], [169.5553, -0.8565], [169.5511, -0.8737]]], [[[-172.2146, -4.5111], [-172.181, -4.5148], [-172.2152, -4.5244], [-172.1979, -4.4917], [-172.2147, -4.5026], [-172.2146, -4.5111]]], [[[-171.0852, -3.1354], [-171.0898, -3.1433], [-171.0967, -3.1369], [-171.0917, -3.1251], [-171.0877, -3.115], [-171.081, -3.1204], [-171.0852, -3.1354]]], [[[-171.2332, -4.4635], [-171.262, -4.4492], [-171.2319, -4.4537], [-171.2332, -4.4635]]], [[[-174.5129, -4.6751], [-174.501, -4.6947], [-174.5314, -4.6595], [-174.5129, -4.6751]]], [[[-154.9563, -4.088], [-155.015, -4.048], [-154.9512, -4.0311], [-154.95, -4.056], [-154.9563, -4.088]]], [[[-151.7826, -11.441], [-151.8067, -11.4513], [-151.8133, -11.3918], [-151.7911, -11.4144], [-151.7826, -11.441]]], [[[-155.8638, -5.6267], [-155.9286, -5.6076], [-155.8624, -5.6191], [-155.8638, -5.6267]]], [[[-157.3421, 1.8556], [-157.1758, 1.7398], [-157.2461, 1.7317], [-157.4201, 1.7875], [-157.579, 1.9021], [-157.5315, 1.9269], [-157.4358, 1.8473], [-157.3652, 1.9461], [-157.4922, 2.0293], [-157.3219, 1.9686], [-157.3421, 1.8556]]], [[[-159.3391, 3.9235], [-159.2593, 3.8392], [-159.2748, 3.7966], [-159.3587, 3.8153], [-159.3063, 3.8384], [-159.3542, 3.8805], [-159.3778, 3.8466], [-159.409, 3.8732], [-159.369, 3.917], [-159.3391, 3.9235]]], [[[-171.6976, -2.7664], [-171.6284, -2.8559], [-171.6961, -2.8257], [-171.6385, -2.8467], [-171.7189, -2.7614], [-171.6976, -2.7664]]]]}}, {"type": "Feature", "properties": {"name": "Marshall Is.", "iso3": "MHL", "label": [171.1982, 7.1083]}, "geometry": {"type": "MultiPolygon", "coordinates": [[[[169.6351, 5.8301], [169.5905, 5.8019], [169.6511, 5.9451], [169.7346, 6.0142], [169.6726, 5.9352], [169.6351, 5.8301]]], [[[168.8303, 7.309], [168.6751, 7.3219], [168.7555, 7.3225], [168.8303, 7.309]]], [[[171.5773, 7.0482], [171.6884, 7.0283], [171.7568, 6.9731], [171.5928, 7.0163], [171.5773, 7.0482]]], [[[171.102, 7.1382], [171.227, 7.087], [171.3938, 7.1109], [171.2023, 7.0735], [171.0955, 7.1093], [171.0357, 7.1561], [171.0504, 7.1718], [171.102, 7.1382]]], [[[166.8903, 11.1531], [166.8447, 11.1534], [166.8994, 11.165], [166.8903, 11.1531]]]]}}, {"type": "Feature", "properties": {"name": "Micronesia", "iso3": "FSM", "label": [158.238, 6.8753]}, "geometry": {"type": "MultiPolygon", "coordinates": [[[[162.9832, 5.3257], [162.9935, 5.2772], [162.9299, 5.3008], [162.9582, 5.335], [162.9832, 5.3257]]], [[[138.1427, 9.5007], [138.0671, 9.419], [138.1169, 9.5502], [138.1858, 9.5933], [138.2136, 9.5472], [138.1825, 9.5074], [138.1427, 9.5007]]], [[[151.6478, 7.3462], [151.5697, 7.3455], [151.6057, 7.3887], [151.6505, 7.3628], [151.6478, 7.3462]]], [[[151.8814, 7.432], [151.856, 7.4318], [151.8653, 7.4662], [151.9126, 7.4539], [151.8814, 7.432]]], [[[158.3148, 6.8137], [158.1834, 6.8013], [158.1348, 6.9448], [158.1861, 6.9777], [158.2946, 6.9511], [158.335, 6.8932], [158.3094, 6.8546], [158.3148, 6.8137]]]]}}, {"type": "Feature", "properties": {"name": "N. Mariana Is.", "iso3": "MNP", "label": [145.7528, 15.1747]}, "geometry": {"type": "MultiPolygon", "coordinates": [[[[145.7084, 18.7625], [145.6781, 18.7252], [145.6455, 18.8068], [145.7066, 18.7905], [145.7084, 18.7625]]], [[[145.7121, 16.3391], [145.6583, 16.3358], [145.6311, 16.378], [145.7195, 16.3598], [145.7121, 16.3391]]], [[[145.2648, 14.1581], [145.2153, 14.1113], [145.1521, 14.1636], [145.2654, 14.1802], [145.2648, 14.1581]]], [[[145.7775, 18.079], [145.7291, 18.0569], [145.8074, 18.1727], [145.8354, 18.1368], [145.7775, 18.079]]], [[[145.752, 15.1332], [145.7492, 15.1072], [145.6843, 15.1251], [145.7132, 15.2153], [145.8219, 15.2654], [145.7823, 15.1746], [145.752, 15.1332]]], [[[145.6623, 14.9705], [145.621, 14.9195], [145.5867, 15.0308], [145.6474, 15.0595], [145.6623, 14.9705]]]]}}, {"type": "Feature", "properties": {"name": "Nauru", "iso3": "NRU", "label": [166.9359, -0.5175]}, "geometry": {"type": "MultiPolygon", "coordinates": [[[[166.9584, -0.5166], [166.939, -0.5508], [166.907, -0.5237], [166.9557, -0.497], [166.9584, -0.5166]]]]}}, {"type": "Feature", "properties": {"name": "New Caledonia", "iso3": "NCL", "label": [165.4865, -21.3165]}, "geometry": {"type": "MultiPolygon", "coordinates": [[[[164.2023, -20.2461], [164.3151, -20.3089], [164.4359, -20.2822], [164.9757, -20.6811], [165.1918, -20.7688], [165.3806, -20.9358], [165.4472, -21.0806], [165.6628, -21.2672], [166.3033, -21.6372], [166.6896, -21.953], [166.9424, -22.0901], [167.0043, -22.2615], [166.9703, -22.3229], [166.7741, -22.3762], [166.5706, -22.2655], [166.468, -22.2561], [166.4164, -22.1962], [166.1767, -22.0892], [166.0961, -21.9566], [165.933, -21.908], [165.7438, -21.7773], [165.3286, -21.5801], [164.9274, -21.2898], [164.6557, -20.9921], [164.4547, -20.8291], [164.1697, -20.4802], [164.1581, -20.3479], [164.0373, -20.2336], [164.0597, -20.1415], [164.2023, -20.2461]]], [[[167.5444, -22.6232], [167.5127, -22.6611], [167.4221, -22.6186], [167.4435, -22.5414], [167.5295, -22.5792], [167.5444, -22.6232]]], [[[159.9518, -19.3117], [159.9364, -19.3331], [159.9282, -19.1743], [159.9599, -19.1146], [159.9751, -19.2383], [159.9518, -19.3117]]], [[[168.0109, -21.43], [168.1391, -21.4452], [168.1207, -21.6158], [167.9668, -21.6416], [167.8759, -21.5821], [167.8154, -21.3927], [167.9885, -21.3379], [167.9946, -21.4069], [168.0109, -21.43]]], [[[166.5468, -20.6987], [166.4936, -20.7086], [166.5578, -20.6171], [166.5825, -20.4134], [166.6708, -20.4502], [166.6179, -20.4775], [166.6226, -20.5963], [166.5889, -20.6619], [166.5468, -20.6987]]], [[[167.4009, -21.1606], [167.3462, -21.1687], [167.2732, -21.0968], [167.1339, -21.0606], [167.0727, -20.9973], [167.0327, -20.9226], [167.1117, -20.9041], [167.1895, -20.8035], [167.1364, -20.7661], [167.045, -20.7595], [167.0558, -20.7202], [167.204, -20.6735], [167.2689, -20.7006], [167.2979, -20.7325], [167.2935, -20.8915], [167.3608, -20.9421], [167.4303, -21.087], [167.4009, -21.1606]]]]}}, {"type": "Feature", "properties": {"name": "New Zealand", "iso3": "NZL", "label": [170.7785, -43.6513]}, "geometry": {"type": "MultiPolygon", "coordinates": [[[[173.1153, -41.2793], [173.2309, -41.2842], [173.7379, -40.989], [173.9472, -40.9241], [174.0024, -40.9178], [173.8898, -41.0072], [173.9151, -41.0701], [173.7979, -41.272], [173.8971, -41.2394], [173.9576, -41.0999], [174.024, -41.0723], [173.9994, -40.9933], [174.2118, -40.9854], [174.2238, -41.0244], [174.3025, -41.0195], [174.1995, -41.1602], [174.0386, -41.2419], [174.1381, -41.2482], [174.3701, -41.1037], [174.3676, -41.1884], [174.2371, -41.3122], [174.1021, -41.3659], [174.0693, -41.4295], [174.1611, -41.5618], [174.0837, -41.6708], [174.1699, -41.6572], [174.2831, -41.7406], [174.2154, -41.8502], [173.888, -42.1302], [173.8892, -42.2116], [173.8398, -42.2709], [173.5451, -42.518], [173.2212, -42.9766], [172.8889, -43.1242], [172.7186, -43.2588], [172.624, -43.2725], [172.7348, -43.3548], [172.6997, -43.3997], [172.5267, -43.4647], [172.6935, -43.4443], [172.7404, -43.4679], [172.807, -43.621], [173.0732, -43.6762], [173.1169, -43.7979], [173.0656, -43.8746], [172.9206, -43.8914], [172.8177, -43.8701], [172.7493, -43.8131], [172.5027, -43.8437], [172.476, -43.8334], [172.5838, -43.7735], [172.4804, -43.7267], [172.3956, -43.7778], [172.3504, -43.8594], [172.2966, -43.8679], [172.0355, -43.7018], [172.1798, -43.896], [171.659, -44.1172], [171.4426, -44.1358], [171.3646, -44.255], [171.2407, -44.2642], [171.313, -44.3019], [171.1463, -44.9123], [170.999, -44.9114], [171.1342, -44.9777], [171.1133, -45.0393], [170.9396, -45.2164], [170.8899, -45.3739], [170.7006, -45.6843], [170.7885, -45.7925], [170.7763, -45.8709], [170.4191, -45.941], [169.6866, -46.5517], [169.3423, -46.6205], [169.0986, -46.6307], [168.7668, -46.5663], [168.5723, -46.611], [168.3821, -46.6054], [168.3257, -46.5457], [168.3197, -46.4472], [168.1892, -46.3622], [167.842, -46.3662], [167.6822, -46.193], [167.5395, -46.1485], [167.3689, -46.2415], [167.1003, -46.2494], [166.7315, -46.1979], [166.7121, -46.1337], [166.9167, -45.9572], [166.7303, -46.0527], [166.6499, -46.0417], [166.727, -45.9633], [166.718, -45.8894], [166.6127, -45.9554], [166.4932, -45.9639], [166.4883, -45.8318], [166.9525, -45.7502], [167.0033, -45.7121], [166.81, -45.699], [166.7977, -45.6456], [166.8256, -45.6028], [166.9908, -45.5317], [166.734, -45.5436], [166.7783, -45.4097], [166.9199, -45.4079], [166.8692, -45.3112], [167.1557, -45.4109], [167.1178, -45.318], [167.2301, -45.2903], [167.0328, -45.2225], [167.0259, -45.1236], [167.1279, -45.0508], [167.1882, -45.0941], [167.2595, -45.0822], [167.1719, -44.9971], [167.4107, -44.8279], [167.4662, -44.9583], [167.485, -44.7714], [167.787, -44.595], [167.909, -44.6647], [167.8565, -44.5007], [168.4574, -44.0306], [168.651, -43.9722], [168.8064, -43.992], [169.0665, -43.8635], [169.1789, -43.9131], [169.1357, -43.8198], [169.1695, -43.7771], [169.5152, -43.6236], [169.8339, -43.537], [169.8351, -43.459], [169.908, -43.4466], [169.859, -43.426], [170.0176, -43.3494], [170.2402, -43.1639], [170.3, -43.1446], [170.3961, -43.1822], [170.3743, -43.1347], [170.3028, -43.1076], [170.4587, -43.0377], [170.6118, -43.0918], [170.5236, -43.009], [170.6654, -42.9612], [170.7353, -43.0298], [170.7416, -42.9273], [170.9699, -42.7184], [171.0114, -42.7637], [171.0117, -42.8851], [171.0476, -42.8019], [171.0277, -42.6961], [171.1896, -42.5005], [171.3134, -42.4602], [171.2522, -42.402], [171.4862, -41.7947], [171.5363, -41.7575], [171.7316, -41.7196], [171.948, -41.5387], [172.0934, -41.2016], [172.1395, -40.9473], [172.2728, -40.7587], [172.7111, -40.4967], [172.9437, -40.5187], [172.7326, -40.5438], [172.7044, -40.6678], [172.7668, -40.7734], [172.9887, -40.8482], [173.0423, -40.9536], [173.0687, -41.1858], [173.1153, -41.2793]]], [[[173.9146, -40.8637], [173.7809, -40.9218], [173.8124, -40.7937], [173.9645, -40.713], [173.958, -40.7868], [173.9146, -40.8637]]], [[[166.7463, -45.6559], [166.7292, -45.7297], [166.532, -45.6998], [166.5671, -45.6444], [166.6856, -45.615], [166.7314, -45.6387], [166.7463, -45.6559]]], [[[166.9795, -45.1797], [167.0227, -45.2998], [166.8927, -45.2405], [166.9627, -45.1804], [166.9795, -45.1797]]], [[[168.1449, -46.8622], [168.1453, -46.9021], [168.041, -46.8878], [168.0432, -46.9326], [168.156, -46.9883], [168.2414, -46.979], [168.2409, -47.07], [168.015, -47.1175], [167.9056, -47.1799], [167.785, -47.1761], [167.6764, -47.243], [167.522, -47.2587], [167.5388, -47.199], [167.629, -47.1423], [167.6541, -47.0442], [167.7409, -47.0136], [167.8008, -46.9065], [167.784, -46.6998], [167.9558, -46.6944], [168.1449, -46.8622]]], [[[175.5432, -36.2793], [175.5512, -36.3339], [175.4746, -36.3145], [175.3462, -36.2178], [175.3366, -36.1348], [175.4094, -36.0709], [175.5126, -36.177], [175.5432, -36.2793]]], [[[173.2694, -34.9348], [173.2846, -34.9806], [173.4479, -34.8443], [173.4387, -34.9285], [173.4727, -34.947], [173.6937, -35.0057], [173.7862, -35.0686], [173.8439, -35.0263], [174.104, -35.1429], [174.1432, -35.3], [174.2032, -35.3086], [174.3203, -35.2467], [174.5435, -35.582], [174.5086, -35.6674], [174.5807, -35.7855], [174.391, -35.7737], [174.3958, -35.7974], [174.8021, -36.3095], [174.7518, -36.4908], [174.8192, -36.6121], [174.7225, -36.8412], [174.8914, -36.9094], [174.9521, -36.8529], [175.2995, -36.9933], [175.3854, -37.2069], [175.5425, -37.2014], [175.5682, -37.1594], [175.4874, -36.6896], [175.3855, -36.5563], [175.3998, -36.5008], [175.4608, -36.4757], [175.6814, -36.747], [175.7722, -36.7352], [175.8762, -36.9577], [175.9901, -37.437], [176.1146, -37.5383], [176.129, -37.5867], [176.0533, -37.5617], [176.0379, -37.6007], [176.1084, -37.6451], [176.2917, -37.6801], [176.77, -37.8896], [177.274, -37.9935], [177.4533, -37.9574], [177.5583, -37.8975], [177.7273, -37.7056], [178.0092, -37.5549], [178.2722, -37.5669], [178.5362, -37.6921], [178.3939, -37.9603], [178.2677, -38.5512], [178.0849, -38.6939], [177.9762, -38.7223], [177.9104, -39.0218], [177.9656, -39.1425], [177.9088, -39.2396], [177.7861, -39.1109], [177.5229, -39.0738], [177.2966, -39.1158], [177.0768, -39.2218], [176.9541, -39.3676], [176.9393, -39.5553], [176.9666, -39.6052], [177.1099, -39.6731], [176.8422, -40.1578], [176.6888, -40.2935], [176.6115, -40.442], [176.3852, -40.6677], [175.9829, -41.2133], [175.3098, -41.6106], [175.2222, -41.5744], [175.1656, -41.4174], [175.0539, -41.3912], [174.8813, -41.424], [174.9002, -41.2427], [174.8656, -41.223], [174.8197, -41.2629], [174.8412, -41.2907], [174.757, -41.3253], [174.6695, -41.3263], [174.6354, -41.2895], [175.0168, -40.8477], [175.1625, -40.6216], [175.2541, -40.2894], [175.156, -40.1149], [175.0093, -39.9521], [174.8138, -39.8602], [174.5675, -39.813], [174.3521, -39.6434], [173.9344, -39.5091], [173.8121, -39.4258], [173.7637, -39.3188], [173.7816, -39.2112], [173.8443, -39.1394], [174.0714, -39.0312], [174.3984, -38.9626], [174.5974, -38.7851], [174.7153, -38.2256], [174.84, -38.0227], [174.8017, -37.8955], [174.928, -37.8045], [174.7292, -37.4487], [174.7677, -37.3391], [174.7074, -37.3253], [174.5858, -37.0978], [174.6097, -37.0699], [174.6597, -37.0888], [174.7343, -37.2152], [174.7464, -37.1501], [174.8036, -37.1101], [174.9289, -37.0848], [174.782, -36.9438], [174.6015, -36.9857], [174.4756, -36.9419], [174.3819, -36.726], [174.1889, -36.4923], [174.2457, -36.485], [174.4016, -36.602], [174.4543, -36.5107], [174.4469, -36.4509], [174.3541, -36.376], [174.3928, -36.24], [174.2679, -36.1631], [174.2537, -36.2491], [174.0364, -36.1225], [173.9145, -35.9087], [173.9173, -36.0182], [174.1664, -36.3276], [174.0975, -36.391], [174.0547, -36.3598], [173.9451, -36.1759], [173.4122, -35.5426], [173.6262, -35.3191], [173.4961, -35.3623], [173.3764, -35.5001], [173.314, -35.4434], [173.2745, -35.3396], [173.2281, -35.3312], [173.1167, -35.2053], [173.1888, -35.1237], [173.1906, -35.0162], [172.706, -34.4552], [173.0439, -34.4291], [172.9638, -34.5352], [173.2405, -34.899], [173.2694, -34.9348]]], [[[169.1782, -52.4973], [169.2335, -52.5482], [169.1275, -52.5703], [169.0218, -52.4954], [169.1286, -52.4852], [169.1782, -52.4973]]], [[[166.2211, -50.7615], [166.2429, -50.8457], [166.0732, -50.8227], [166.0133, -50.7779], [165.9714, -50.8195], [165.8892, -50.8077], [166.0738, -50.679], [166.1014, -50.539], [166.2251, -50.531], [166.2675, -50.5586], [166.2096, -50.612], [166.2008, -50.7509], [166.2211, -50.7615]]], [[[-176.1776, -43.7403], [-176.2749, -43.7648], [-176.3817, -43.8668], [-176.4074, -43.7609], [-176.4991, -43.7681], [-176.5166, -43.7848], [-176.4413, -43.8161], [-176.5001, -43.8602], [-176.4391, -43.9547], [-176.3854, -43.9515], [-176.3338, -44.0484], [-176.5715, -44.1149], [-176.6315, -44.0063], [-176.5238, -43.901], [-176.5551, -43.852], [-176.6346, -43.8202], [-176.8477, -43.8239], [-176.7611, -43.7579], [-176.6672, -43.7651], [-176.5661, -43.7176], [-176.1776, -43.7403]]], [[[-176.1765, -44.3217], [-176.2208, -44.3306], [-176.2293, -44.2367], [-176.1547, -44.2245], [-176.1226, -44.2685], [-176.1765, -44.3217]]], [[[-172.4792, -8.5808], [-172.497, -8.5465], [-172.4811, -8.5675], [-172.4792, -8.5808]]], [[[-171.1864, -9.3555], [-171.1886, -9.3583], [-171.193, -9.3524], [-171.2, -9.3447], [-171.2044, -9.3333], [-171.2017, -9.3326], [-171.1944, -9.3388], [-171.1893, -9.3466], [-171.1864, -9.3555]]]]}}, {"type": "Feature", "properties": {"name": "Niue", "iso3": "NIU", "label": [-169.8571, -19.043]}, "geometry": {"type": "MultiPolygon", "coordinates": [[[[-169.8034, -19.083], [-169.9038, -19.1379], [-169.9483, -19.0729], [-169.9087, -18.9902], [-169.8616, -18.9687], [-169.834, -18.966], [-169.7934, -19.0426], [-169.8034, -19.083]]]]}}, {"type": "Feature", "properties": {"name": "Norfolk Island", "iso3": "NFK", "label": [167.9433, -29.0568]}, "geometry": {"type": "MultiPolygon", "coordinates": [[[[167.9395, -29.0177], [167.9904, -29.0421], [167.9607, -29.0963], [167.9204, -29.0828], [167.9206, -29.014], [167.9395, -29.0177]]]]}}, {"type": "Feature", "properties": {"name": "Palau", "iso3": "PLW", "label": [134.5878, 7.5197]}, "geometry": {"type": "MultiPolygon", "coordinates": [[[[131.1724, 3.0262], [131.1367, 3.0395], [131.1863, 3.0421], [131.1724, 3.0262]]], [[[134.5954, 7.382], [134.5347, 7.3606], [134.5157, 7.5258], [134.6512, 7.7121], [134.6327, 7.5013], [134.5982, 7.4383], [134.5954, 7.382]]]]}}, {"type": "Feature", "properties": {"name": "Papua New Guinea", "iso3": "PNG", "label": [145.3465, -7.6223]}, "geometry": {"type": "MultiPolygon", "coordinates": [[[[152.9658, -4.7563], [152.8917, -4.8324], [152.7399, -4.6358], [152.6807, -4.4984], [152.6968, -4.282], [152.6682, -4.1318], [152.5984, -3.9948], [152.2794, -3.5824], [152.1922, -3.5059], [151.9729, -3.4534], [151.8798, -3.4001], [151.5785, -3.1535], [151.0668, -2.829], [150.9681, -2.7799], [150.8479, -2.7798], [150.7461, -2.7389], [150.8265, -2.7129], [150.8254, -2.5729], [151.1746, -2.7891], [151.2265, -2.8703], [151.4754, -2.9425], [151.8071, -3.1729], [152.0329, -3.2514], [152.1794, -3.4104], [153.0168, -4.1057], [153.1242, -4.2523], [153.1325, -4.3524], [153.0443, -4.4764], [153.0232, -4.6663], [152.9658, -4.7563]]], [[[151.9156, -4.2968], [151.9676, -4.317], [152.1172, -4.2122], [152.1973, -4.2852], [152.4057, -4.3407], [152.3636, -4.4908], [152.4, -4.7313], [152.3512, -4.8222], [152.2576, -4.9547], [152.0133, -5.0038], [151.9837, -5.0744], [151.9939, -5.149], [152.143, -5.357], [152.0771, -5.4583], [151.8654, -5.5648], [151.5151, -5.5523], [151.4225, -5.7474], [151.2293, -5.9199], [151.0432, -6.015], [150.809, -6.0714], [150.4735, -6.2634], [149.6525, -6.2904], [149.483, -6.1248], [149.3823, -6.0781], [149.099, -6.117], [148.7191, -5.8674], [148.4012, -5.765], [148.3372, -5.6694], [148.3447, -5.5449], [148.432, -5.4718], [148.5649, -5.5079], [148.9992, -5.4846], [149.3589, -5.584], [149.6317, -5.516], [149.8314, -5.5241], [149.9628, -5.4478], [150.0119, -5.1396], [150.0453, -5.0347], [150.09, -5.0118], [150.1703, -5.0706], [150.0815, -5.1864], [150.0725, -5.3096], [150.1062, -5.429], [150.1831, -5.5236], [150.2987, -5.5356], [150.4044, -5.4731], [150.5194, -5.4603], [150.6258, -5.5209], [150.7345, -5.5104], [150.9003, -5.4472], [150.9529, -5.4237], [151.1378, -5.1129], [151.3266, -4.9604], [151.5726, -4.9375], [151.6712, -4.8833], [151.6646, -4.637], [151.5442, -4.2992], [151.5931, -4.2008], [151.8193, -4.217], [151.8647, -4.2608], [151.9156, -4.2968]]], [[[140.9762, -9.1188], [140.9752, -6.9054], [140.8623, -6.74], [140.8746, -6.6115], [140.975, -6.3461], [140.9734, -2.6098], [141.1856, -2.6278], [142.2115, -3.0835], [142.9052, -3.3207], [143.509, -3.4312], [144.0664, -3.8052], [144.4777, -3.8253], [144.6267, -3.9931], [144.8435, -4.1015], [145.0878, -4.3491], [145.3346, -4.3853], [145.767, -4.823], [145.7929, -5.1779], [145.7452, -5.4024], [145.8528, -5.4713], [146.4034, -5.6166], [147.0343, -5.9192], [147.3767, -5.9508], [147.5667, -6.0569], [147.8021, -6.3152], [147.8545, -6.5512], [147.8455, -6.6624], [147.8104, -6.7036], [147.7096, -6.7236], [147.1191, -6.7217], [146.9536, -6.8341], [146.9607, -6.9288], [147.19, -7.3781], [147.7243, -7.8763], [148.1268, -8.1036], [148.2469, -8.5543], [148.4512, -8.6945], [148.5831, -9.0518], [148.6795, -9.092], [148.7918, -9.0895], [149.0975, -9.0169], [149.1983, -9.0312], [149.2477, -9.071], [149.2641, -9.1808], [149.203, -9.4068], [149.2632, -9.4979], [149.4758, -9.5883], [149.8656, -9.6301], [150.011, -9.6882], [149.9847, -9.737], [149.7612, -9.8059], [149.7631, -9.8687], [149.8744, -10.013], [150.3641, -10.1896], [150.5389, -10.2067], [150.667, -10.2571], [150.8495, -10.236], [150.6368, -10.338], [150.4461, -10.3073], [150.4103, -10.3393], [150.4889, -10.4258], [150.6472, -10.518], [150.4824, -10.6369], [150.3199, -10.6549], [150.0168, -10.5771], [149.948, -10.4826], [149.7541, -10.353], [148.9368, -10.2552], [148.6542, -10.1573], [148.4306, -10.1914], [148.2688, -10.1282], [148.1505, -10.1073], [148.0514, -10.1283], [147.7687, -10.0701], [147.5531, -9.9124], [147.4083, -9.6747], [147.0172, -9.3879], [146.9254, -9.2472], [146.9638, -9.0596], [146.8562, -9.0877], [146.6966, -9.0254], [146.6309, -8.9512], [146.4559, -8.6436], [146.0332, -8.0764], [145.7287, -7.9524], [145.4678, -7.9301], [145.2875, -7.8616], [144.9738, -7.8021], [144.8854, -7.7336], [144.8643, -7.6315], [144.7734, -7.6425], [144.5099, -7.5674], [144.4497, -7.5981], [144.4313, -7.6794], [144.3519, -7.667], [144.2254, -7.7649], [144.1429, -7.7572], [143.8982, -7.6738], [143.6549, -7.4604], [143.7421, -7.5498], [143.9423, -7.9442], [143.8406, -7.9419], [143.888, -8.0177], [143.8334, -8.0291], [143.5182, -8.0007], [143.6138, -8.2004], [143.0949, -8.3112], [142.9055, -8.3145], [142.7086, -8.2723], [142.5241, -8.3217], [142.4476, -8.3162], [142.3475, -8.1675], [142.2068, -8.1958], [142.3251, -8.1983], [142.391, -8.3127], [142.4748, -8.3694], [142.576, -8.3356], [142.7979, -8.345], [143.1118, -8.4745], [143.3772, -8.7622], [143.3662, -8.961], [142.6472, -9.3278], [142.2296, -9.1699], [141.6216, -9.2113], [141.4057, -9.1507], [141.1332, -9.2213], [140.9762, -9.1188]]], [[[148.0258, -5.8264], [147.9854, -5.834], [147.968, -5.7886], [147.8745, -5.7492], [147.7811, -5.6272], [147.7946, -5.4924], [147.8465, -5.4908], [148.0548, -5.6115], [148.0604, -5.7646], [148.0258, -5.8264]]], [[[146.0193, -4.7262], [145.9523, -4.7558], [145.904, -4.733], [145.9002, -4.6042], [145.9958, -4.5393], [146.0534, -4.6401], [146.0193, -4.7262]]], [[[152.6706, -3.1334], [152.6462, -3.2212], [152.5433, -3.0956], [152.6388, -3.0428], [152.6706, -3.1334]]], [[[152.0992, -2.9474], [152.0885, -2.9979], [152.0573, -2.9949], [151.9546, -2.8705], [151.9747, -2.8456], [152.0746, -2.9185], [152.0992, -2.9474]]], [[[149.7654, -1.553], [149.7632, -1.5892], [149.6711, -1.5763], [149.5459, -1.4717], [149.581, -1.3532], [149.7253, -1.4307], [149.7654, -1.553]]], [[[151.081, -10.0201], [151.1234, -10.0202], [151.2557, -9.9227], [151.2965, -9.9567], [151.2309, -10.1947], [150.9592, -10.0926], [150.9524, -9.9984], [150.8961, -9.9681], [150.7761, -9.7091], [151.0515, -9.939], [151.0441, -9.9831], [151.081, -10.0201]]], [[[150.3454, -9.4938], [150.3313, -9.5186], [150.2729, -9.5004], [150.1098, -9.3619], [150.135, -9.2596], [150.2083, -9.2063], [150.3201, -9.2642], [150.3682, -9.3965], [150.3454, -9.4938]]], [[[151.1068, -8.7335], [151.1241, -8.8049], [151.0462, -8.7283], [151.0828, -8.5687], [151.005, -8.5238], [151.0463, -8.4506], [151.1176, -8.4188], [151.1386, -8.5681], [151.1068, -8.7335]]], [[[154.2808, -11.3614], [154.266, -11.4159], [154.2296, -11.3975], [154.1212, -11.4257], [154.0641, -11.4193], [154.0234, -11.3479], [154.1177, -11.3655], [154.1018, -11.3114], [154.2379, -11.3389], [154.2808, -11.3614]]], [[[143.5868, -8.4817], [143.3669, -8.4169], [143.3219, -8.3676], [143.5814, -8.3909], [143.5926, -8.46], [143.5868, -8.4817]]], [[[147.1763, -5.4319], [147.1202, -5.4374], [147.029, -5.3424], [147.0147, -5.2574], [147.1311, -5.1908], [147.2063, -5.2516], [147.2219, -5.3815], [147.1763, -5.4319]]], [[[147.0676, -1.9602], [147.4006, -2.0251], [147.4244, -1.9945], [147.4381, -2.059], [147.3365, -2.066], [147.2063, -2.1819], [146.9264, -2.1891], [146.7479, -2.1488], [146.5465, -2.2086], [146.5324, -2.1262], [146.607, -2.1025], [146.5959, -2.0169], [146.6562, -1.974], [146.8571, -1.9485], [147.0676, -1.9602]]], [[[150.4366, -2.6618], [150.1657, -2.6603], [150.0435, -2.5125], [149.9616, -2.4738], [150.1025, -2.405], [150.2271, -2.3842], [150.4295, -2.4704], [150.4461, -2.6323], [150.4366, -2.6618]]], [[[150.5284, -9.3466], [150.669, -9.4285], [150.7887, -9.418], [150.8791, -9.5127], [150.894, -9.6675], [150.844, -9.7028], [150.8482, -9.6626], [150.81, -9.6548], [150.4362, -9.6246], [150.5085, -9.5361], [150.4347, -9.435], [150.4373, -9.36], [150.4989, -9.3456], [150.5284, -9.3466]]], [[[152.631, -8.9594], [152.8101, -8.9672], [152.8498, -9.0245], [152.9529, -9.0701], [152.9953, -9.1078], [152.9669, -9.209], [152.8675, -9.2243], [152.7201, -9.1665], [152.6381, -9.0584], [152.5151, -9.0099], [152.5771, -8.97], [152.631, -8.9594]]], [[[153.5361, -11.4762], [153.7032, -11.5285], [153.7599, -11.5863], [153.5537, -11.6306], [153.379, -11.5596], [153.357, -11.495], [153.2868, -11.517], [153.3224, -11.4715], [153.2345, -11.4203], [153.2036, -11.3241], [153.3067, -11.3563], [153.5361, -11.4762]]], [[[143.5903, -8.6334], [143.6082, -8.6771], [143.2538, -8.4896], [143.2068, -8.4234], [143.4434, -8.5189], [143.5903, -8.6334]]], [[[147.877, -2.2831], [147.8445, -2.3357], [147.7355, -2.3155], [147.7902, -2.3056], [147.8358, -2.2468], [147.877, -2.2831]]], [[[151.9572, -2.8302], [151.9334, -2.8304], [151.9464, -2.7086], [152.002, -2.7378], [152.0113, -2.8092], [151.9572, -2.8302]]], [[[150.8987, -10.5653], [150.8847, -10.6435], [150.7857, -10.6034], [150.7993, -10.5541], [150.8721, -10.5519], [150.8987, -10.5653]]], [[[153.6593, -4.0993], [153.6501, -4.123], [153.5915, -4.096], [153.663, -4.0412], [153.6593, -4.0993]]], [[[155.9576, -6.6868], [155.9149, -6.7967], [155.8919, -6.7615], [155.7193, -6.8628], [155.5209, -6.8303], [155.344, -6.7217], [155.2086, -6.5269], [155.2345, -6.4116], [155.2021, -6.3076], [155.0102, -6.2098], [154.7593, -5.9313], [154.709, -5.7471], [154.7293, -5.4444], [154.8705, -5.5214], [154.9971, -5.5399], [155.0938, -5.6202], [155.1979, -5.8283], [155.3726, -5.9744], [155.467, -6.1451], [155.7342, -6.2957], [155.8226, -6.3805], [155.9276, -6.565], [155.9576, -6.6868]]], [[[154.6473, -5.4327], [154.6273, -5.4406], [154.5839, -5.3145], [154.54, -5.1108], [154.6326, -5.0139], [154.682, -5.054], [154.7271, -5.2181], [154.6984, -5.3828], [154.6473, -5.4327]]]]}}, {"type": "Feature", "properties": {"name": "Pitcairn Is.", "iso3": "PCN", "label": [-128.3131, -24.3711]}, "geometry": {"type": "MultiPolygon", "coordinates": [[[[-128.2901, -24.3974], [-128.3207, -24.3997], [-128.3502, -24.3402], [-128.3036, -24.3336], [-128.2908, -24.3646], [-128.2901, -24.3974]]]]}}, {"type": "Feature", "properties": {"name": "Samoa", "iso3": "WSM", "label": [-172.4618, -13.6225]}, "geometry": {"type": "MultiPolygon", "coordinates": [[[[-172.3335, -13.4652], [-172.2215, -13.5596], [-172.1769, -13.6847], [-172.225, -13.8043], [-172.3309, -13.7747], [-172.5357, -13.7917], [-172.7785, -13.5168], [-172.6696, -13.5238], [-172.5109, -13.4828], [-172.3335, -13.4652]]], [[[-171.4541, -14.0465], [-171.7282, -14.0473], [-171.9119, -14.0017], [-172.0281, -13.9068], [-172.0459, -13.8571], [-171.8582, -13.8071], [-171.6039, -13.8792], [-171.5654, -13.9431], [-171.4614, -13.9776], [-171.4496, -14.0225], [-171.4541, -14.0465]]]]}}, {"type": "Feature", "properties": {"name": "Solomon Is.", "iso3": "SLB", "label": [160.1655, -9.6186]}, "geometry": {"type": "MultiPolygon", "coordinates": [[[[159.6877, -8.5079], [159.64, -8.5215], [159.5385, -8.4514], [159.5532, -8.3992], [159.5946, -8.3795], [159.6463, -8.4504], [159.6877, -8.5079]]], [[[166.9292, -11.6651], [166.806, -11.6773], [166.7475, -11.5908], [166.8555, -11.5788], [166.8751, -11.6297], [166.9292, -11.6651]]], [[[166.1332, -10.7578], [165.9682, -10.7795], [165.904, -10.8515], [165.8193, -10.844], [165.791, -10.7848], [165.7904, -10.7561], [165.8359, -10.7606], [165.9092, -10.6743], [166.0238, -10.6611], [166.1621, -10.6931], [166.1299, -10.7452], [166.1332, -10.7578]]], [[[160.5763, -11.7979], [160.5065, -11.8322], [160.4431, -11.8149], [160.2702, -11.664], [160.0035, -11.5796], [159.9863, -11.4947], [160.0, -11.472], [160.0773, -11.4929], [160.5371, -11.7588], [160.5763, -11.7979]]], [[[161.5479, -9.6257], [161.5538, -9.7697], [161.4779, -9.6911], [161.4425, -9.7189], [161.4098, -9.6816], [161.417, -9.5138], [161.3642, -9.3534], [161.4068, -9.3685], [161.5479, -9.6257]]], [[[159.1886, -9.1235], [159.0711, -9.1097], [159.0363, -9.075], [159.1298, -8.9931], [159.2284, -9.03], [159.234, -9.0938], [159.1886, -9.1235]]], [[[160.1682, -8.9955], [160.2535, -9.0073], [160.4075, -9.1403], [160.3715, -9.1813], [160.276, -9.1687], [160.2531, -9.1234], [160.1054, -9.0808], [160.0963, -9.034], [160.1682, -8.9955]]], [[[157.7635, -8.2422], [157.8984, -8.5063], [157.8854, -8.5691], [157.8337, -8.5727], [157.8193, -8.612], [157.7492, -8.5236], [157.5879, -8.4454], [157.558, -8.2699], [157.3514, -8.2753], [157.3024, -8.3333], [157.2324, -8.3148], [157.2176, -8.2628], [157.2285, -8.2116], [157.3216, -8.1612], [157.4334, -7.9847], [157.4906, -7.9657], [157.5988, -8.006], [157.6123, -8.1648], [157.6513, -8.2168], [157.7635, -8.2422]]], [[[158.2008, -8.822], [158.1554, -8.7859], [158.21, -8.6781], [158.2534, -8.7974], [158.2008, -8.822]]], [[[158.1079, -8.6842], [158.0095, -8.7631], [157.9376, -8.7364], [157.8793, -8.6687], [157.9093, -8.5656], [157.9984, -8.5082], [158.1322, -8.5566], [158.0684, -8.6066], [158.1035, -8.6465], [158.1079, -8.6842]]], [[[157.389, -8.7135], [157.3339, -8.7], [157.2123, -8.565], [157.2338, -8.5199], [157.3795, -8.4209], [157.4109, -8.4751], [157.3322, -8.6507], [157.389, -8.7135]]], [[[156.6879, -7.923], [156.6687, -7.9368], [156.611, -7.8659], [156.6117, -7.8058], [156.5109, -7.7078], [156.5024, -7.6402], [156.5609, -7.574], [156.7177, -7.6957], [156.8091, -7.7229], [156.708, -7.877], [156.6879, -7.923]]], [[[156.6039, -8.1716], [156.5917, -8.1963], [156.5396, -8.0729], [156.5703, -7.9588], [156.6124, -8.0962], [156.6039, -8.1716]]], [[[157.1719, -8.1081], [157.0412, -8.1175], [156.9583, -8.0144], [156.959, -7.938], [157.0241, -7.8679], [157.1027, -7.8555], [157.1861, -7.9412], [157.1915, -8.0818], [157.1719, -8.1081]]], [[[155.8398, -7.0972], [155.7394, -7.1211], [155.6775, -7.089], [155.739, -6.9729], [155.8646, -7.0433], [155.8398, -7.0972]]], [[[157.6454, -8.7589], [157.6432, -8.794], [157.5858, -8.7831], [157.4535, -8.706], [157.5793, -8.7037], [157.6232, -8.7346], [157.6454, -8.7589]]], [[[159.7504, -9.2727], [159.9706, -9.4333], [160.3546, -9.4216], [160.6255, -9.5889], [160.6818, -9.6916], [160.7943, -9.7674], [160.8189, -9.8628], [160.6492, -9.9286], [160.3211, -9.8213], [159.8537, -9.7915], [159.7555, -9.7261], [159.6219, -9.5321], [159.6074, -9.3538], [159.6863, -9.2687], [159.7504, -9.2727]]], [[[159.8791, -8.5343], [159.8809, -8.5574], [159.7465, -8.4738], [159.6445, -8.3717], [159.3541, -8.2604], [159.2917, -8.2034], [158.944, -8.0407], [158.597, -7.7591], [158.5654, -7.6514], [158.4574, -7.5447], [158.7344, -7.6043], [159.1094, -7.9035], [159.198, -7.9096], [159.4314, -8.029], [159.8431, -8.327], [159.7939, -8.4061], [159.8486, -8.4635], [159.8791, -8.5343]]], [[[157.4867, -7.3304], [157.5187, -7.3656], [157.4413, -7.4257], [157.3393, -7.3931], [157.3146, -7.3415], [157.1016, -7.3236], [156.9043, -7.1805], [156.6958, -6.9109], [156.4949, -6.7616], [156.4574, -6.7152], [156.4525, -6.6383], [156.4794, -6.6089], [156.6042, -6.641], [156.7654, -6.7641], [157.0303, -6.892], [157.1025, -6.9572], [157.1484, -7.1138], [157.1934, -7.1604], [157.3361, -7.2805], [157.4516, -7.3137], [157.4867, -7.3304]]], [[[160.7494, -8.314], [160.9977, -8.612], [160.9443, -8.799], [161.1587, -8.9618], [161.2088, -9.1326], [161.2566, -9.192], [161.2585, -9.3169], [161.368, -9.4903], [161.3674, -9.6112], [161.3219, -9.5896], [161.191, -9.3929], [161.0415, -9.308], [160.8734, -9.1568], [160.7721, -8.9639], [160.6626, -8.6206], [160.7141, -8.5393], [160.5904, -8.3728], [160.5963, -8.3282], [160.7021, -8.3165], [160.7494, -8.314]]], [[[161.7153, -10.3873], [161.8411, -10.4461], [161.9144, -10.4364], [162.0229, -10.4769], [162.1054, -10.4538], [162.2872, -10.71], [162.288, -10.7762], [162.3733, -10.8232], [162.1236, -10.8244], [161.7868, -10.7169], [161.5379, -10.5664], [161.487, -10.3614], [161.2939, -10.3265], [161.3048, -10.2044], [161.4757, -10.238], [161.6979, -10.3713], [161.7153, -10.3873]]]]}}, {"type": "Feature", "properties": {"name": "Tonga", "iso3": "TON", "label": [-175.2092, -21.1494]}, "geometry": {"type": "MultiPolygon", "coordinates": [[[[-175.1619, -21.1693], [-175.0782, -21.129], [-175.1566, -21.2637], [-175.3354, -21.1577], [-175.3624, -21.1068], [-175.3181, -21.0683], [-175.3004, -21.1134], [-175.158, -21.1465], [-175.1998, -21.1557], [-175.1619, -21.1693]]], [[[-173.9535, -18.6394], [-173.9913, -18.6986], [-174.0691, -18.6402], [-174.0024, -18.5707], [-173.924, -18.6085], [-173.9535, -18.6394]]], [[[-174.9131, -21.3005], [-174.9187, -21.4506], [-174.9729, -21.3498], [-174.9235, -21.3034], [-174.9131, -21.3005]]]]}}, {"type": "Feature", "properties": {"name": "Tuvalu", "iso3": "TUV", "label": [179.2052, -8.5058]}, "geometry": {"type": "MultiPolygon", "coordinates": [[[[179.2137, -8.5242], [179.1957, -8.5348], [179.203, -8.4663], [179.2166, -8.5148], [179.2137, -8.5242]]]]}}, {"type": "Feature", "properties": {"name": "Vanuatu", "iso3": "VUT", "label": [166.8743, -15.1497]}, "geometry": {"type": "MultiPolygon", "coordinates": [[[[166.7458, -14.8269], [166.8102, -15.1574], [166.9234, -15.1392], [166.9873, -14.94], [167.0756, -14.9356], [167.0686, -15.0718], [167.1316, -15.1354], [167.2008, -15.4431], [167.1996, -15.4857], [167.0939, -15.5809], [166.9366, -15.578], [166.8258, -15.6349], [166.7583, -15.6312], [166.759, -15.5668], [166.6311, -15.4061], [166.6479, -15.2115], [166.5272, -14.8501], [166.5674, -14.6418], [166.6078, -14.6365], [166.6626, -14.7351], [166.7458, -14.8269]]], [[[167.4125, -16.0959], [167.4837, -16.1176], [167.4987, -16.1662], [167.642, -16.2633], [167.6813, -16.2605], [167.776, -16.3405], [167.8366, -16.4497], [167.7598, -16.5164], [167.6114, -16.4986], [167.5264, -16.5743], [167.4493, -16.555], [167.3492, -16.1545], [167.3156, -16.1155], [167.2181, -16.1553], [167.1515, -16.0805], [167.1995, -15.8851], [167.2537, -15.8768], [167.3357, -15.9167], [167.4125, -16.0959]]], [[[168.4468, -16.7788], [168.4766, -16.7937], [168.4602, -16.8351], [168.3228, -16.7878], [168.1814, -16.804], [168.1243, -16.69], [168.1354, -16.6369], [168.1992, -16.5938], [168.366, -16.7588], [168.4468, -16.7788]]], [[[168.2967, -16.3365], [168.0217, -16.3156], [167.929, -16.2287], [168.0643, -16.1812], [168.1639, -16.0816], [168.2979, -16.2987], [168.2967, -16.3365]]], [[[168.4458, -17.5422], [168.5454, -17.6847], [168.585, -17.6959], [168.5246, -17.798], [168.2517, -17.7808], [168.3059, -17.7457], [168.2778, -17.7061], [168.1582, -17.7105], [168.2731, -17.5522], [168.341, -17.5521], [168.4458, -17.5422]]], [[[167.9113, -15.4359], [167.8442, -15.4818], [167.6742, -15.4516], [167.8263, -15.312], [168.0025, -15.2832], [167.9113, -15.4359]]], [[[168.2129, -15.9704], [168.1229, -15.6809], [168.16, -15.4618], [168.2678, -15.8923], [168.2563, -15.9552], [168.2129, -15.9704]]], [[[168.1892, -15.3287], [168.1719, -15.3906], [168.1305, -15.3189], [168.1149, -14.9886], [168.1364, -14.9864], [168.1869, -15.1969], [168.1892, -15.3287]]], [[[167.2189, -15.7241], [167.2008, -15.7501], [167.0947, -15.6853], [167.119, -15.6226], [167.2344, -15.645], [167.2189, -15.7241]]], [[[167.5849, -14.2609], [167.5433, -14.3116], [167.4303, -14.2949], [167.4035, -14.2815], [167.4107, -14.1975], [167.5064, -14.1422], [167.5989, -14.1838], [167.5849, -14.2609]]], [[[167.4889, -13.9072], [167.4511, -13.9094], [167.3918, -13.7884], [167.4811, -13.7095], [167.5535, -13.814], [167.5429, -13.8731], [167.4986, -13.8846], [167.4889, -13.9072]]], [[[169.8963, -20.1866], [169.8611, -20.2418], [169.7375, -20.2021], [169.7507, -20.1533], [169.8523, -20.1479], [169.8963, -20.1866]]], [[[169.4913, -19.5401], [169.4385, -19.6488], [169.3473, -19.6235], [169.2175, -19.4764], [169.2475, -19.3447], [169.3367, -19.3293], [169.36, -19.4578], [169.4913, -19.5401]]], [[[169.3344, -18.9402], [169.2883, -18.9886], [169.248, -18.9833], [168.9869, -18.8713], [169.0158, -18.6438], [169.1438, -18.6311], [169.178, -18.7251], [169.2558, -18.7634], [169.2012, -18.7957], [169.2962, -18.8668], [169.3344, -18.9402]]]]}}, {"type": "Feature", "properties": {"name": "Wallis and Futuna Is.", "iso3": "WLF", "label": [-178.1132, -14.2878]}, "geometry": {"type": "MultiPolygon", "coordinates": [[[[-176.1606, -13.3328], [-176.1954, -13.3017], [-176.1479, -13.2217], [-176.1281, -13.2682], [-176.1606, -13.3328]]], [[[-178.0467, -14.3184], [-178.1586, -14.3119], [-178.1944, -14.2555], [-178.1422, -14.2426], [-178.0437, -14.3032], [-178.0467, -14.3184]]]]}}]}