{"type": "FeatureCollection", "features": [{"type": "Feature", "properties": {"name": "Argentina", "iso3": "ARG", "label": [-65.3906, -36.2313]}, "geometry": {"type": "MultiPolygon", "coordinates": [[[[-57.6089, -30.1878], [-57.6509, -30.295], [-57.8312, -30.4952], [-57.8725, -30.591], [-57.8186, -30.712], [-57.8106, -30.8586], [-57.8983, -30.9752], [-57.8684, -31.1044], [-57.8934, -31.1953], [-58.0539, -31.4949], [-57.9889, -31.6206], [-58.0423, -31.7692], [-58.189, -31.9242], [-58.1648, -32.1849], [-58.1197, -32.2489], [-58.22, -32.564], [-58.171, -32.9593], [-58.2504, -33.0783], [-58.376, -33.0719], [-58.4245, -33.1115], [-58.5472, -33.6635], [-58.3925, -34.193], [-58.5255, -34.2962], [-58.4662, -34.4574], [-58.2833, -34.6835], [-57.7636, -34.8945], [-57.5479, -35.0189], [-57.3037, -35.1885], [-57.1707, -35.3625], [-57.1589, -35.506], [-57.3539, -35.7203], [-57.3755, -35.9003], [-57.265, -36.1441], [-57.0762, -36.2968], [-56.9372, -36.3525], [-56.7495, -36.3465], [-56.7174, -36.3891], [-56.6683, -36.7353], [-56.672, -36.8513], [-56.7271, -36.9577], [-57.0877, -37.4464], [-57.3958, -37.7446], [-57.5073, -37.9093], [-57.547, -38.0856], [-57.6456, -38.1696], [-58.1792, -38.4358], [-59.0072, -38.6733], [-59.8283, -38.8382], [-61.1122, -38.993], [-61.6025, -38.9988], [-61.8479, -38.9618], [-62.0669, -38.9191], [-62.1893, -38.8133], [-62.3348, -38.8001], [-62.3745, -38.8529], [-62.3036, -38.9881], [-62.3381, -39.1506], [-62.2951, -39.2433], [-62.2091, -39.2618], [-62.0537, -39.3738], [-62.1793, -39.3805], [-62.0768, -39.4615], [-62.1315, -39.8254], [-62.2869, -39.8953], [-62.4019, -40.1966], [-62.427, -40.356], [-62.3936, -40.4588], [-62.2463, -40.6746], [-62.3019, -40.8146], [-62.395, -40.8908], [-62.959, -41.1097], [-63.2128, -41.1524], [-63.6218, -41.1598], [-63.773, -41.15], [-64.3834, -40.9225], [-64.853, -40.8138], [-64.8044, -40.7565], [-64.8695, -40.7358], [-65.0694, -40.8053], [-65.1334, -40.8807], [-65.155, -41.1057], [-65.0183, -41.5669], [-65.007, -41.7451], [-65.0591, -41.9699], [-64.9864, -42.1021], [-64.6225, -42.261], [-64.5377, -42.2546], [-64.5117, -42.2702], [-64.5741, -42.356], [-64.571, -42.416], [-64.4204, -42.4338], [-64.1009, -42.3951], [-64.0622, -42.3534], [-64.0612, -42.2661], [-64.2529, -42.2508], [-64.2285, -42.2183], [-63.7956, -42.1139], [-63.6848, -42.1887], [-63.6299, -42.2827], [-63.5959, -42.4065], [-63.6173, -42.6958], [-63.6925, -42.8053], [-64.0348, -42.8813], [-64.1307, -42.8614], [-64.3243, -42.5723], [-64.4878, -42.5135], [-64.6505, -42.5314], [-64.812, -42.6332], [-64.9707, -42.6663], [-65.0269, -42.7589], [-64.6292, -42.909], [-64.3191, -42.9689], [-64.4322, -43.0592], [-64.8399, -43.1889], [-64.9855, -43.2936], [-65.2523, -43.5719], [-65.3047, -43.7875], [-65.2386, -44.0487], [-65.3084, -44.1582], [-65.2655, -44.2797], [-65.3613, -44.4773], [-65.6476, -44.6614], [-65.6983, -44.7962], [-65.5991, -44.8756], [-65.6388, -45.0078], [-66.1901, -44.9647], [-66.5851, -45.1829], [-66.9414, -45.2573], [-67.2576, -45.5772], [-67.5996, -46.0525], [-67.5861, -46.2695], [-67.5064, -46.4428], [-66.7769, -47.0059], [-66.6504, -47.0453], [-65.9985, -47.0938], [-65.8537, -47.1567], [-65.7381, -47.3449], [-65.7754, -47.5684], [-65.8863, -47.7016], [-66.0406, -47.7833], [-66.2252, -47.8268], [-66.1724, -47.8576], [-65.9342, -47.8268], [-65.8637, -47.8532], [-65.8101, -47.9411], [-65.9122, -47.9768], [-66.0172, -48.0843], [-66.3934, -48.3424], [-67.0331, -48.6277], [-67.4663, -48.9518], [-67.6849, -49.2467], [-67.662, -49.3422], [-67.7835, -49.8589], [-67.914, -49.9845], [-68.1457, -50.0914], [-68.2572, -50.1046], [-68.4879, -49.9779], [-68.6676, -49.7525], [-68.6385, -49.863], [-68.6616, -49.9357], [-68.9796, -50.003], [-68.5979, -50.0095], [-68.4219, -50.1579], [-68.9395, -50.3823], [-69.0902, -50.5831], [-69.155, -50.8645], [-69.3586, -51.0281], [-69.201, -50.9937], [-69.0657, -51.3035], [-69.0296, -51.4465], [-69.0583, -51.5472], [-69.4654, -51.5845], [-69.313, -51.6011], [-69.1801, -51.6623], [-69.0325, -51.6362], [-68.9653, -51.6771], [-68.3937, -52.307], [-68.4434, -52.3566], [-68.461, -52.2904], [-69.2062, -52.1361], [-69.4884, -52.1361], [-69.9603, -52.0082], [-71.9187, -51.9896], [-71.9711, -51.9642], [-71.9535, -51.8804], [-72.137, -51.744], [-72.269, -51.6911], [-72.4077, -51.5408], [-72.3032, -51.2989], [-72.3019, -51.2233], [-72.3768, -51.0954], [-72.3074, -51.0334], [-72.2763, -50.9103], [-72.3402, -50.6818], [-72.3926, -50.6343], [-72.5098, -50.6075], [-72.6204, -50.6477], [-72.8659, -50.6531], [-73.0824, -50.7604], [-73.1529, -50.7383], [-73.3117, -50.3619], [-73.3866, -50.2312], [-73.5013, -50.1253], [-73.5289, -49.9109], [-73.4704, -49.7945], [-73.5763, -49.5829], [-73.5542, -49.4639], [-73.4836, -49.3977], [-73.4616, -49.3139], [-73.1353, -49.3007], [-73.1489, -49.188], [-73.0336, -49.0144], [-72.7285, -48.8963], [-72.6144, -48.7929], [-72.5859, -48.6625], [-72.6084, -48.5193], [-72.4981, -48.4174], [-72.3547, -48.3658], [-72.293, -48.2291], [-72.3283, -48.1101], [-72.4079, -48.0159], [-72.5091, -47.9733], [-72.5179, -47.8764], [-72.3415, -47.5721], [-72.3459, -47.4927], [-72.1034, -47.3428], [-72.0417, -47.2414], [-71.905, -47.2017], [-71.963, -47.016], [-71.9402, -46.8312], [-71.7327, -46.7059], [-71.6997, -46.6514], [-71.7621, -46.3198], [-71.8757, -46.1605], [-71.6845, -46.0419], [-71.6315, -45.9537], [-71.7506, -45.8391], [-71.7462, -45.5789], [-71.6933, -45.5348], [-71.5081, -45.5127], [-71.4904, -45.4377], [-71.3493, -45.3319], [-71.3538, -45.2305], [-71.5963, -44.9792], [-72.0417, -44.9042], [-72.0637, -44.7719], [-71.957, -44.7915], [-71.4552, -44.7498], [-71.3582, -44.7852], [-71.2611, -44.7631], [-71.1597, -44.5603], [-71.1509, -44.494], [-71.2126, -44.4412], [-71.82, -44.3831], [-71.8124, -44.1061], [-71.6801, -43.9296], [-71.7947, -43.7532], [-71.7374, -43.7047], [-71.7506, -43.5901], [-71.905, -43.4401], [-71.905, -43.3476], [-71.7639, -43.2946], [-71.7506, -43.2373], [-71.7815, -43.1668], [-72.1024, -43.0656], [-72.1464, -42.99], [-72.1136, -42.7768], [-72.1437, -42.5771], [-72.0535, -42.4732], [-72.1246, -42.2983], [-72.1082, -42.2519], [-72.0261, -42.1479], [-71.8608, -42.1479], [-71.7609, -42.1015], [-71.75, -42.0468], [-71.9113, -41.6504], [-71.8711, -41.5605], [-71.873, -40.893], [-71.9414, -40.7892], [-71.9321, -40.6917], [-71.8046, -40.4392], [-71.709, -40.3817], [-71.6953, -40.3353], [-71.8006, -40.2443], [-71.8183, -40.1767], [-71.802, -40.1247], [-71.7044, -40.0949], [-71.6598, -40.0208], [-71.6379, -39.8868], [-71.7199, -39.6353], [-71.6543, -39.5942], [-71.5395, -39.6024], [-71.42, -39.2872], [-71.4016, -38.9351], [-71.0871, -38.7575], [-70.9516, -38.7385], [-70.8477, -38.5416], [-70.968, -38.4459], [-71.0282, -38.0412], [-71.1676, -37.7623], [-71.1867, -37.6311], [-71.1348, -37.4451], [-71.2004, -37.3003], [-71.1184, -37.1144], [-71.1922, -36.8437], [-71.0664, -36.644], [-71.0555, -36.5237], [-70.9051, -36.4199], [-70.7493, -36.3926], [-70.7219, -36.2832], [-70.5634, -36.1464], [-70.4567, -36.1327], [-70.4048, -36.0617], [-70.4157, -35.8785], [-70.3802, -35.7719], [-70.4157, -35.523], [-70.4704, -35.3262], [-70.5323, -35.3079], [-70.5552, -35.2469], [-70.3932, -35.1469], [-70.2899, -34.7328], [-70.0521, -34.3008], [-69.8524, -34.2243], [-69.8943, -33.7313], [-69.8826, -33.601], [-69.7978, -33.3986], [-69.8196, -33.2838], [-69.8962, -33.251], [-70.0198, -33.2715], [-70.0849, -33.2018], [-70.0931, -33.0268], [-70.022, -32.8846], [-70.1162, -32.8074], [-70.177, -32.6261], [-70.1696, -32.4717], [-70.2298, -32.4307], [-70.2578, -32.31], [-70.32, -32.2667], [-70.3446, -32.1765], [-70.3556, -32.0424], [-70.2909, -32.0311], [-70.2544, -31.9577], [-70.331, -31.8811], [-70.3938, -31.8838], [-70.4501, -31.8419], [-70.5852, -31.5694], [-70.5547, -31.3174], [-70.5196, -31.1484], [-70.4731, -31.1128], [-70.3884, -31.1211], [-70.3091, -31.0227], [-70.3481, -30.9023], [-70.1614, -30.4402], [-70.1696, -30.3855], [-70.1532, -30.3609], [-70.102, -30.3883], [-69.9563, -30.3582], [-69.8443, -30.175], [-69.8634, -30.1203], [-69.96, -30.0783], [-69.9276, -29.7691], [-70.0268, -29.324], [-69.9956, -29.25], [-69.8279, -29.1032], [-69.6569, -28.4136], [-69.4889, -28.2009], [-69.4369, -28.1927], [-69.1744, -27.9247], [-68.9994, -27.449], [-68.942, -27.4052], [-68.8463, -27.1537], [-68.7096, -27.1045], [-68.6522, -27.1483], [-68.5921, -27.14], [-68.5374, -27.0854], [-68.346, -27.0279], [-68.3187, -26.9732], [-68.3187, -26.8775], [-68.5916, -26.4704], [-68.5758, -26.352], [-68.4145, -26.1537], [-68.5921, -25.42], [-68.4963, -25.163], [-68.4307, -25.1493], [-68.3842, -25.0919], [-68.4663, -24.9252], [-68.562, -24.8377], [-68.562, -24.7474], [-68.5073, -24.6298], [-68.2503, -24.392], [-67.3562, -24.0338], [-67.0088, -23.0014], [-67.1949, -22.8217], [-67.0554, -22.6509], [-67.0335, -22.5522], [-66.8003, -22.4097], [-66.7117, -22.2163], [-66.3652, -22.1138], [-66.2202, -21.8025], [-66.0986, -21.8351], [-65.771, -22.0996], [-64.9926, -22.1097], [-64.6055, -22.2288], [-64.3253, -22.8276], [-64.2664, -22.6033], [-63.9761, -22.0726], [-63.9217, -22.0286], [-63.8187, -22.0055], [-63.7169, -22.0275], [-63.6753, -22.0043], [-62.8343, -21.9991], [-62.626, -22.2904], [-62.3725, -22.4392], [-62.2142, -22.6124], [-61.928, -23.0593], [-61.5055, -23.392], [-61.2084, -23.557], [-61.0847, -23.6564], [-61.0329, -23.7557], [-60.8398, -23.8581], [-60.5054, -23.9636], [-60.2622, -24.014], [-60.1103, -24.0092], [-59.8925, -24.0936], [-59.1873, -24.5623], [-58.724, -24.7866], [-58.5196, -24.8429], [-58.3654, -24.9593], [-58.1365, -24.9771], [-57.8217, -25.1364], [-57.5872, -25.4051], [-57.5717, -25.5342], [-57.7548, -25.6971], [-57.8906, -26.0065], [-58.1111, -26.1802], [-58.203, -26.3814], [-58.1913, -26.63], [-58.3347, -26.8249], [-58.3226, -26.8576], [-58.4363, -26.922], [-58.6186, -27.1321], [-58.6417, -27.1961], [-58.6048, -27.3144], [-58.1683, -27.2734], [-57.8122, -27.3166], [-57.3913, -27.4305], [-57.1118, -27.4701], [-56.974, -27.4357], [-56.7157, -27.4937], [-56.6034, -27.4679], [-56.5105, -27.4879], [-56.4372, -27.5538], [-56.3705, -27.5374], [-56.3105, -27.4388], [-56.1641, -27.3215], [-55.9515, -27.3257], [-55.79, -27.4164], [-55.7146, -27.4148], [-55.6329, -27.3571], [-55.5649, -27.15], [-55.4967, -27.1153], [-55.4267, -27.0093], [-55.1359, -26.9312], [-55.1296, -26.886], [-54.9622, -26.7594], [-54.9345, -26.7025], [-54.8255, -26.6522], [-54.6777, -26.3088], [-54.6159, -25.5761], [-54.5378, -25.5765], [-54.4439, -25.625], [-54.1546, -25.523], [-53.8912, -25.6688], [-53.8232, -25.9596], [-53.6713, -26.2251], [-53.6686, -26.2882], [-53.7109, -26.3519], [-53.7533, -26.7486], [-53.7173, -26.8828], [-53.8382, -27.1211], [-54.1138, -27.2747], [-54.1564, -27.2538], [-54.327, -27.4235], [-54.5549, -27.4541], [-54.6659, -27.5266], [-54.8291, -27.5506], [-54.9102, -27.7086], [-55.0399, -27.7678], [-55.1015, -27.8668], [-55.2437, -27.8988], [-55.4767, -28.0894], [-55.7255, -28.2041], [-55.746, -28.2555], [-55.6915, -28.3028], [-55.6873, -28.3816], [-55.8905, -28.37], [-55.9037, -28.4433], [-56.2255, -28.7372], [-56.3933, -28.9973], [-56.6358, -29.203], [-56.6715, -29.2873], [-56.9386, -29.5948], [-57.2247, -29.7821], [-57.4052, -30.0339], [-57.5639, -30.1399], [-57.6089, -30.1878]]], [[[-68.6532, -54.8536], [-68.6299, -52.6526], [-68.3388, -52.9001], [-68.2401, -53.0818], [-68.333, -53.0196], [-68.4312, -53.0553], [-68.5208, -53.1772], [-68.4885, -53.2609], [-68.3931, -53.2949], [-68.1611, -53.3064], [-68.0085, -53.5641], [-67.2942, -54.0498], [-66.2356, -54.5335], [-65.7471, -54.6534], [-65.3693, -54.6321], [-65.252, -54.6381], [-65.179, -54.6781], [-65.346, -54.8779], [-65.4711, -54.9146], [-65.9538, -54.9193], [-66.5111, -55.0321], [-67.1271, -54.9038], [-68.2201, -54.8176], [-68.6187, -54.8338], [-68.6532, -54.8536]]], [[[-64.5492, -54.7162], [-64.4388, -54.7394], [-63.8154, -54.7251], [-63.8326, -54.768], [-63.9712, -54.8106], [-64.3229, -54.7965], [-64.6374, -54.9025], [-64.7573, -54.8266], [-64.5813, -54.7527], [-64.5492, -54.7162]]], [[[-61.8758, -39.1719], [-61.866, -39.2349], [-61.918, -39.2274], [-62.0416, -39.1669], [-62.093, -39.0862], [-61.9071, -39.1356], [-61.8758, -39.1719]]]]}}, {"type": "Feature", "properties": {"name": "Bolivia", "iso3": "BOL", "label": [-65.1516, -16.5509]}, "geometry": {"type": "MultiPolygon", "coordinates": [[[[-69.5109, -17.5061], [-69.5219, -17.389], [-69.6457, -17.2485], [-69.6249, -17.2002], [-69.4383, -17.0884], [-69.1998, -16.7685], [-69.0207, -16.6422], [-69.0329, -16.476], [-68.8428, -16.3379], [-68.9135, -16.2619], [-69.1342, -16.222], [-69.2176, -16.1491], [-69.4209, -15.6406], [-69.3019, -15.3994], [-69.1725, -15.2366], [-69.3747, -14.963], [-69.3595, -14.7953], [-69.276, -14.7459], [-69.2349, -14.5971], [-69.0131, -14.3772], [-69.0045, -14.265], [-68.8709, -14.1697], [-68.9743, -13.976], [-69.0741, -13.6828], [-68.9834, -13.4964], [-68.9786, -12.8801], [-68.8677, -12.7552], [-68.7591, -12.6872], [-68.7629, -12.6077], [-68.6853, -12.502], [-69.5786, -10.9518], [-69.2285, -10.9557], [-68.8483, -11.0111], [-68.7275, -11.1225], [-68.6227, -11.1092], [-68.3111, -10.9752], [-68.0717, -10.7031], [-67.835, -10.6628], [-67.7218, -10.6831], [-67.5824, -10.506], [-67.4169, -10.3898], [-67.1115, -10.2689], [-66.73, -9.9755], [-66.5753, -9.8999], [-65.9247, -9.7854], [-65.7068, -9.7685], [-65.6371, -9.8091], [-65.5587, -9.7975], [-65.492, -9.7317], [-65.3961, -9.7124], [-65.3093, -9.8727], [-65.3246, -10.027], [-65.2986, -10.1468], [-65.3131, -10.253], [-65.4471, -10.5074], [-65.3238, -11.0248], [-65.3716, -11.1104], [-65.3899, -11.2463], [-65.3424, -11.315], [-65.322, -11.4392], [-65.1754, -11.6469], [-65.1857, -11.7495], [-65.0903, -11.7412], [-64.9925, -11.9752], [-64.8299, -12.0303], [-64.5134, -12.251], [-64.4205, -12.4397], [-63.9386, -12.5297], [-63.7881, -12.4694], [-63.6886, -12.478], [-63.3467, -12.6801], [-63.2498, -12.7079], [-63.1168, -12.6517], [-63.0675, -12.6691], [-63.0152, -12.8056], [-62.7655, -12.9973], [-62.6871, -12.9943], [-62.3528, -13.1324], [-62.118, -13.1598], [-62.0948, -13.242], [-61.7899, -13.5256], [-61.5116, -13.5412], [-61.077, -13.4897], [-60.5066, -13.7898], [-60.405, -14.0192], [-60.4747, -14.1848], [-60.2989, -14.6186], [-60.2733, -15.0888], [-60.5832, -15.0983], [-60.2423, -15.4796], [-60.1756, -16.2693], [-58.5379, -16.3282], [-58.3456, -16.2844], [-58.3504, -16.4908], [-58.4781, -16.7007], [-58.396, -17.2343], [-57.9909, -17.5129], [-57.8325, -17.5121], [-57.5865, -18.1223], [-57.4957, -18.2146], [-57.574, -18.2793], [-57.7831, -18.9143], [-57.7309, -18.9172], [-57.7168, -19.044], [-57.8004, -19.081], [-58.1315, -19.7445], [-57.8607, -19.9796], [-57.8876, -20.0204], [-58.0211, -20.0552], [-58.0938, -20.1511], [-58.1598, -20.1646], [-58.1399, -19.9988], [-58.1802, -19.8179], [-59.0905, -19.2862], [-60.0074, -19.2976], [-61.7568, -19.6453], [-61.9169, -20.0554], [-62.2763, -20.5625], [-62.2767, -21.066], [-62.651, -22.2337], [-62.7446, -22.1599], [-62.8434, -21.9973], [-63.6753, -22.0043], [-63.7169, -22.0275], [-63.8187, -22.0055], [-63.9217, -22.0286], [-63.9761, -22.0726], [-64.2664, -22.6033], [-64.3253, -22.8276], [-64.6055, -22.2288], [-64.9926, -22.1097], [-65.771, -22.0996], [-66.0986, -21.8351], [-66.2202, -21.8025], [-66.3652, -22.1138], [-66.7117, -22.2163], [-66.8003, -22.4097], [-67.0335, -22.5522], [-67.0554, -22.6509], [-67.1949, -22.8217], [-67.7073, -22.8892], [-67.7944, -22.8795], [-67.8794, -22.8229], [-67.8817, -22.4934], [-67.9504, -22.3337], [-67.9884, -22.0571], [-68.0768, -21.9828], [-68.1122, -21.753], [-68.1864, -21.6186], [-68.197, -21.3003], [-68.4355, -20.9482], [-68.5583, -20.902], [-68.5632, -20.7201], [-68.4843, -20.6284], [-68.7452, -20.4586], [-68.7605, -20.4162], [-68.6886, -20.3101], [-68.7558, -20.0908], [-68.6002, -20.0449], [-68.5607, -19.9671], [-68.5783, -19.8565], [-68.6983, -19.7211], [-68.4702, -19.41], [-68.858, -19.0934], [-68.9683, -18.968], [-69.0923, -18.2824], [-69.1455, -18.144], [-69.0939, -18.0505], [-69.3134, -17.9432], [-69.358, -17.7717], [-69.495, -17.6195], [-69.5109, -17.5061]]]]}}, {"type": "Feature", "properties": {"name": "Brazil", "iso3": "BRA", "label": [-56.3089, -10.3971]}, "geometry": {"type": "MultiPolygon", "coordinates": [[[[-66.876, 1.223], [-66.3471, 0.7672], [-66.0601, 0.7854], [-65.6814, 0.9834], [-65.566, 0.9261], [-65.523, 0.8434], [-65.5561, 0.688], [-65.4734, 0.6913], [-65.3608, 0.8687], [-65.1038, 1.1081], [-64.818, 1.2571], [-64.7315, 1.2533], [-64.486, 1.4528], [-64.3042, 1.4553], [-64.205, 1.5295], [-64.1148, 1.6193], [-64.0085, 1.9316], [-63.4325, 2.1556], [-63.3939, 2.2225], [-63.3893, 2.4119], [-63.9242, 2.4524], [-64.0466, 2.5024], [-64.009, 2.6719], [-64.0378, 2.8015], [-64.2188, 3.2047], [-64.2211, 3.5874], [-64.669, 4.0118], [-64.8179, 4.2323], [-64.7887, 4.276], [-64.7223, 4.2744], [-64.5764, 4.1399], [-64.1925, 4.1269], [-64.0215, 3.9291], [-63.6529, 3.9408], [-63.5268, 3.8937], [-63.3387, 3.9439], [-62.9687, 3.5939], [-62.857, 3.5935], [-62.7646, 3.6729], [-62.7121, 4.0179], [-62.6098, 4.0423], [-62.4106, 4.1567], [-62.1531, 4.0984], [-61.8209, 4.197], [-61.5542, 4.2878], [-61.4794, 4.4022], [-61.3675, 4.433], [-61.2801, 4.5169], [-61.1024, 4.5047], [-61.0028, 4.5353], [-60.9062, 4.6868], [-60.7417, 4.7741], [-60.6276, 4.8925], [-60.6045, 4.9946], [-60.635, 5.082], [-60.672, 5.1644], [-60.7421, 5.2021], [-60.6514, 5.2211], [-60.4595, 5.1881], [-60.3352, 5.1993], [-60.2416, 5.258], [-60.142, 5.2388], [-59.9907, 5.0829], [-60.0318, 4.7405], [-60.1486, 4.5333], [-59.8334, 4.4759], [-59.7033, 4.3811], [-59.7386, 4.2268], [-59.5511, 3.9335], [-59.679, 3.6998], [-59.8544, 3.5875], [-59.8312, 3.3492], [-59.9723, 2.9905], [-59.9943, 2.69], [-59.8896, 2.3629], [-59.7552, 2.2741], [-59.7562, 1.9006], [-59.6685, 1.8423], [-59.6666, 1.7463], [-59.5357, 1.7], [-59.2312, 1.376], [-58.9685, 1.3046], [-58.8625, 1.2036], [-58.7872, 1.2085], [-58.6846, 1.2811], [-58.5119, 1.2847], [-58.4869, 1.3478], [-58.5061, 1.4387], [-58.3958, 1.4817], [-58.3407, 1.5875], [-58.1422, 1.517], [-58.0347, 1.5203], [-57.9828, 1.6484], [-57.7957, 1.7], [-57.5944, 1.7041], [-57.3668, 1.9401], [-57.1189, 2.014], [-57.0101, 1.9212], [-56.8367, 1.8813], [-56.6165, 1.9227], [-56.5636, 1.9072], [-56.4828, 1.9421], [-56.0199, 1.8422], [-55.9633, 1.8571], [-55.9296, 1.8875], [-55.9153, 2.0396], [-56.0736, 2.2368], [-56.1377, 2.259], [-56.1294, 2.2995], [-56.0204, 2.3928], [-55.9935, 2.4975], [-55.9575, 2.5205], [-55.7306, 2.4062], [-55.3854, 2.4406], [-55.344, 2.4888], [-55.1877, 2.5475], [-55.0703, 2.5483], [-54.9787, 2.5977], [-54.8761, 2.4504], [-54.7222, 2.4417], [-54.6619, 2.3275], [-54.5505, 2.2931], [-54.4331, 2.2075], [-54.1301, 2.121], [-53.7678, 2.3548], [-53.7347, 2.3085], [-53.509, 2.2531], [-53.3344, 2.3397], [-53.2298, 2.2049], [-52.9648, 2.1835], [-52.6532, 2.4257], [-52.5595, 2.5731], [-52.5547, 2.6477], [-52.4184, 2.9039], [-52.3279, 3.1817], [-52.1626, 3.3647], [-51.9906, 3.702], [-51.8275, 3.8696], [-51.7671, 3.9927], [-51.6525, 4.0613], [-51.5471, 4.3109], [-51.4615, 4.3138], [-51.3271, 4.2248], [-51.2199, 4.0936], [-51.0763, 3.6717], [-51.0524, 3.2818], [-50.9941, 3.0775], [-50.6788, 2.2104], [-50.7144, 2.134], [-50.6087, 2.1041], [-50.5759, 1.9986], [-50.4589, 1.8296], [-50.1876, 1.786], [-49.9571, 1.6599], [-49.8816, 1.4199], [-49.8989, 1.163], [-50.2944, 0.8357], [-50.7551, 0.2226], [-50.8164, 0.1726], [-50.9671, 0.1303], [-51.102, -0.0312], [-51.2829, -0.0852], [-51.4042, -0.3927], [-51.7026, -0.7623], [-51.7206, -1.0185], [-51.9216, -1.1809], [-51.9345, -1.3203], [-51.9808, -1.368], [-52.0205, -1.399], [-52.2292, -1.3625], [-52.6642, -1.5518], [-52.3103, -1.5596], [-52.1967, -1.6401], [-51.9476, -1.5867], [-51.6463, -1.3943], [-51.2974, -1.2235], [-50.8949, -0.9376], [-50.8382, -1.0389], [-50.9179, -1.1152], [-50.8446, -1.2263], [-50.7861, -1.4899], [-50.679, -1.6438], [-50.69, -1.7617], [-50.4032, -2.0155], [-50.1166, -1.8575], [-49.9992, -1.8318], [-49.7195, -1.9264], [-49.3137, -1.7317], [-49.507, -2.2803], [-49.5534, -2.5199], [-49.6365, -2.6569], [-49.5239, -2.5969], [-49.4575, -2.5046], [-49.211, -1.9165], [-48.9913, -1.8298], [-48.71, -1.4877], [-48.6, -1.4888], [-48.4629, -1.614], [-48.4459, -1.5204], [-48.3498, -1.4821], [-48.4515, -1.4358], [-48.4681, -1.3938], [-48.4777, -1.3238], [-48.4086, -1.2292], [-48.4498, -1.1455], [-48.3065, -1.0398], [-48.3176, -0.9605], [-48.2018, -0.8279], [-48.1285, -0.7952], [-48.1151, -0.7375], [-48.0326, -0.7051], [-47.9609, -0.7696], [-47.8077, -0.6635], [-47.6871, -0.7248], [-47.5573, -0.6699], [-47.4187, -0.7659], [-47.4604, -0.681], [-47.4391, -0.6477], [-47.3981, -0.6267], [-47.2686, -0.6454], [-47.1269, -0.7454], [-46.9443, -0.7434], [-46.8937, -0.7799], [-46.8112, -0.7797], [-46.6172, -0.9706], [-46.4217, -1.0301], [-46.2191, -1.0312], [-46.215, -1.0998], [-46.0446, -1.103], [-45.9723, -1.1874], [-45.7788, -1.2508], [-45.6448, -1.3479], [-45.5569, -1.3307], [-45.4586, -1.3562], [-45.353, -1.5674], [-45.3291, -1.7173], [-45.2821, -1.6966], [-45.1821, -1.507], [-45.0764, -1.4664], [-44.7898, -1.7248], [-44.7211, -1.7335], [-44.7785, -1.7988], [-44.6513, -1.7458], [-44.5468, -1.9463], [-44.5378, -2.0527], [-44.6586, -2.2275], [-44.7563, -2.2655], [-44.6624, -2.3732], [-44.579, -2.2305], [-44.4354, -2.1681], [-44.3818, -2.3655], [-44.5201, -2.4055], [-44.5207, -2.4813], [-44.589, -2.5734], [-44.723, -3.2048], [-44.4375, -2.9444], [-44.3082, -2.5352], [-44.2286, -2.4713], [-44.1056, -2.4935], [-44.1126, -2.5985], [-44.2252, -2.755], [-44.1927, -2.8096], [-43.9329, -2.5835], [-43.8645, -2.5954], [-43.7286, -2.5182], [-43.4551, -2.5021], [-43.4346, -2.4137], [-43.3801, -2.3761], [-42.9367, -2.465], [-42.6759, -2.5896], [-42.5936, -2.661], [-42.2496, -2.792], [-41.9999, -2.8061], [-41.8762, -2.7466], [-41.7219, -2.8089], [-41.6401, -2.8786], [-41.4799, -2.9165], [-41.3182, -2.9362], [-41.1945, -2.8861], [-40.8756, -2.8696], [-40.4746, -2.7956], [-39.9647, -2.8615], [-39.0144, -3.3902], [-38.6862, -3.6537], [-38.4758, -3.7175], [-38.0488, -4.2164], [-37.7957, -4.4043], [-37.6263, -4.5921], [-37.3015, -4.7131], [-37.1747, -4.9124], [-36.9549, -4.9367], [-36.7474, -5.0507], [-36.5907, -5.0976], [-36.1618, -5.0938], [-35.9799, -5.0544], [-35.5494, -5.1294], [-35.3926, -5.2509], [-35.2354, -5.5667], [-35.0955, -6.1854], [-34.9882, -6.3937], [-34.9296, -6.7851], [-34.876, -7.0029], [-34.8339, -7.0244], [-34.8055, -7.2884], [-34.8786, -7.7475], [-34.8347, -7.9715], [-34.9667, -8.4076], [-35.1578, -8.9306], [-35.3409, -9.2307], [-35.5971, -9.5406], [-35.764, -9.7025], [-35.8301, -9.719], [-35.8908, -9.687], [-35.8478, -9.7725], [-35.8854, -9.8477], [-36.055, -10.0758], [-36.2235, -10.2251], [-36.3983, -10.4841], [-36.7683, -10.6717], [-36.9378, -10.8204], [-37.0934, -11.0548], [-37.1255, -11.085], [-37.1828, -11.0685], [-37.1812, -11.1875], [-37.356, -11.4039], [-37.3218, -11.2151], [-37.3592, -11.2525], [-37.4385, -11.3938], [-37.4118, -11.4973], [-37.4693, -11.6536], [-37.6887, -12.1], [-38.0192, -12.5913], [-38.2397, -12.8442], [-38.4018, -12.9662], [-38.4989, -12.9566], [-38.5249, -12.7623], [-38.691, -12.6239], [-38.7439, -12.7485], [-38.8518, -12.7901], [-38.7836, -12.8444], [-38.7637, -12.9072], [-38.8332, -13.0329], [-38.8353, -13.1472], [-39.0309, -13.3651], [-39.0894, -13.5882], [-39.0349, -13.5588], [-38.9886, -13.615], [-39.0411, -13.7581], [-39.0481, -14.0439], [-39.0085, -14.1012], [-38.9665, -14.0034], [-38.9423, -14.0307], [-39.0596, -14.6548], [-38.9962, -15.2538], [-38.8806, -15.8643], [-39.0632, -16.5044], [-39.2029, -17.1781], [-39.2152, -17.3158], [-39.154, -17.7039], [-39.2784, -17.8494], [-39.4868, -17.9901], [-39.6508, -18.2523], [-39.7398, -18.6398], [-39.6999, -19.2778], [-39.7833, -19.5718], [-39.8447, -19.6491], [-40.0014, -19.742], [-40.1417, -19.9683], [-40.2027, -20.2061], [-40.2989, -20.2927], [-40.3186, -20.4258], [-40.3959, -20.5694], [-40.5966, -20.7838], [-40.7893, -20.9061], [-40.8288, -21.0313], [-40.9545, -21.2379], [-41.0473, -21.5057], [-41.0003, -21.999], [-41.1225, -22.0844], [-41.7055, -22.3097], [-41.9804, -22.5807], [-41.9861, -22.7358], [-41.9409, -22.7883], [-42.0424, -22.9471], [-42.9583, -22.9671], [-43.0812, -22.9025], [-43.1007, -22.8501], [-43.0654, -22.7707], [-43.0863, -22.7233], [-43.1543, -22.7252], [-43.229, -22.7477], [-43.2419, -22.7951], [-43.1936, -22.9386], [-43.2242, -22.9912], [-43.8988, -23.1015], [-43.9738, -23.0573], [-43.676, -23.0095], [-43.7029, -22.9663], [-43.8662, -22.9105], [-44.0475, -22.9447], [-44.148, -23.011], [-44.3679, -23.005], [-44.6373, -23.0555], [-44.6812, -23.1069], [-44.6738, -23.2066], [-44.5697, -23.274], [-44.6672, -23.3352], [-44.9517, -23.3814], [-45.2154, -23.5756], [-45.3254, -23.5997], [-45.4233, -23.6854], [-45.4643, -23.8025], [-45.6646, -23.7648], [-45.9721, -23.7955], [-46.8673, -24.2363], [-47.1372, -24.4932], [-47.8766, -24.9975], [-47.9892, -25.0357], [-47.9083, -25.0682], [-47.9294, -25.1683], [-48.2027, -25.4165], [-48.2424, -25.4033], [-48.1859, -25.3099], [-48.4025, -25.2721], [-48.4585, -25.3107], [-48.4276, -25.4033], [-48.4761, -25.443], [-48.644, -25.4365], [-48.7317, -25.3687], [-48.6922, -25.4915], [-48.507, -25.5213], [-48.4299, -25.5502], [-48.4012, -25.5974], [-48.5452, -25.8159], [-48.6658, -25.8443], [-48.679, -25.8752], [-48.6128, -25.875], [-48.5763, -25.9354], [-48.6194, -26.1794], [-48.7483, -26.2687], [-48.6516, -26.4064], [-48.6777, -26.7029], [-48.5541, -27.196], [-48.5955, -27.2639], [-48.572, -27.3728], [-48.6426, -27.5579], [-48.6057, -27.8252], [-48.6208, -28.0756], [-48.6932, -28.3102], [-48.7973, -28.4427], [-48.7997, -28.5753], [-49.2713, -28.8712], [-49.4999, -29.0754], [-49.746, -29.3632], [-50.0333, -29.801], [-50.2995, -30.4258], [-50.62, -30.8977], [-50.9214, -31.2584], [-51.1518, -31.4804], [-51.7981, -31.9003], [-52.0392, -32.1148], [-52.0689, -32.0631], [-52.0432, -31.9775], [-52.0632, -31.8304], [-51.9951, -31.815], [-51.8932, -31.8678], [-51.8034, -31.7967], [-51.6807, -31.7746], [-51.4462, -31.5573], [-51.2722, -31.477], [-51.1743, -31.3397], [-51.1614, -31.1188], [-51.106, -31.0813], [-50.9801, -31.0942], [-50.9408, -30.9037], [-50.7702, -30.8134], [-50.6893, -30.7042], [-50.7163, -30.426], [-50.6851, -30.4135], [-50.6148, -30.4568], [-50.5819, -30.4389], [-50.5465, -30.3169], [-50.5635, -30.2536], [-50.6462, -30.2368], [-50.9319, -30.3743], [-51.025, -30.3687], [-51.0404, -30.2606], [-51.1793, -30.211], [-51.2499, -30.06], [-51.298, -30.0349], [-51.2818, -30.2441], [-51.1573, -30.3643], [-51.2466, -30.4676], [-51.2877, -30.5912], [-51.2831, -30.7516], [-51.3591, -30.6745], [-51.3765, -30.8469], [-51.4591, -30.9128], [-51.4853, -30.9775], [-51.4637, -31.0526], [-51.5063, -31.1045], [-51.9725, -31.3838], [-52.027, -31.599], [-52.1198, -31.6949], [-52.1936, -31.8855], [-52.1671, -32.0885], [-52.1274, -32.1678], [-52.3417, -32.4397], [-52.5085, -32.8753], [-52.6522, -33.1378], [-52.9209, -33.402], [-53.3706, -33.7422], [-53.5313, -33.6555], [-53.5313, -33.1709], [-53.4829, -33.0686], [-53.1256, -32.7367], [-53.2313, -32.6254], [-53.3627, -32.5812], [-53.6017, -32.403], [-53.7617, -32.0568], [-53.9206, -31.9523], [-54.2206, -31.8552], [-54.3699, -31.745], [-54.5876, -31.4852], [-54.896, -31.3912], [-55.036, -31.279], [-55.0912, -31.314], [-55.1735, -31.2796], [-55.2546, -31.2256], [-55.3661, -31.0462], [-55.603, -30.8508], [-55.8078, -31.0367], [-56.0047, -31.0792], [-55.999, -30.8372], [-56.0448, -30.7776], [-56.1762, -30.6284], [-56.8327, -30.1072], [-57.0327, -30.11], [-57.1205, -30.1444], [-57.2145, -30.2834], [-57.5523, -30.2612], [-57.6089, -30.1878], [-57.4052, -30.0339], [-57.2247, -29.7821], [-56.9386, -29.5948], [-56.6715, -29.2873], [-56.6358, -29.203], [-56.3933, -28.9973], [-56.2255, -28.7372], [-56.0342, -28.5809], [-55.9849, -28.4886], [-55.9037, -28.4433], [-55.8905, -28.37], [-55.6873, -28.3816], [-55.6915, -28.3028], [-55.746, -28.2555], [-55.7255, -28.2041], [-55.4767, -28.0894], [-55.3465, -27.956], [-55.2437, -27.8988], [-55.1015, -27.8668], [-55.0399, -27.7678], [-54.9102, -27.7086], [-54.8291, -27.5506], [-54.6659, -27.5266], [-54.5549, -27.4541], [-54.327, -27.4235], [-54.1564, -27.2538], [-54.1138, -27.2747], [-53.8382, -27.1211], [-53.7173, -26.8828], [-53.7533, -26.7486], [-53.6713, -26.2251], [-53.8232, -25.9596], [-53.8912, -25.6688], [-53.9548, -25.6477], [-54.0123, -25.5779], [-54.085, -25.5719], [-54.1546, -25.523], [-54.4439, -25.625], [-54.5378, -25.5765], [-54.6159, -25.5761], [-54.6105, -25.4327], [-54.4362, -25.1213], [-54.4541, -25.0652], [-54.281, -24.3061], [-54.3183, -24.1281], [-54.2418, -24.0473], [-54.4402, -23.9018], [-54.6255, -23.8125], [-54.9827, -23.9745], [-55.1943, -24.0175], [-55.3663, -23.991], [-55.4159, -23.9514], [-55.4589, -23.6867], [-55.5383, -23.581], [-55.5185, -23.4156], [-55.5614, -23.1543], [-55.6507, -22.8864], [-55.6177, -22.6715], [-55.7037, -22.5921], [-55.7466, -22.5127], [-55.7533, -22.4102], [-55.7996, -22.3539], [-55.8492, -22.3076], [-56.246, -22.2646], [-56.3519, -22.1786], [-56.3949, -22.0927], [-56.4478, -22.0762], [-56.5238, -22.1025], [-56.633, -22.2349], [-56.9373, -22.2713], [-57.2382, -22.1952], [-57.3309, -22.215], [-57.5689, -22.1819], [-57.7211, -22.0992], [-57.8798, -22.1356], [-57.9559, -22.1092], [-57.9857, -22.0464], [-57.9328, -21.9107], [-57.9493, -21.8512], [-57.9162, -21.6991], [-57.946, -21.494], [-57.8732, -21.3551], [-57.8931, -21.3022], [-57.827, -21.1336], [-57.8302, -20.9979], [-57.9005, -20.873], [-57.9151, -20.6903], [-57.9791, -20.6573], [-58.0022, -20.4654], [-58.1246, -20.2935], [-58.1598, -20.1646], [-58.0938, -20.1511], [-58.0211, -20.0552], [-57.8876, -20.0204], [-57.8607, -19.9796], [-58.1315, -19.7445], [-57.8004, -19.081], [-57.7168, -19.044], [-57.7309, -18.9172], [-57.7831, -18.9143], [-57.574, -18.2793], [-57.4957, -18.2146], [-57.5865, -18.1223], [-57.8325, -17.5121], [-57.9909, -17.5129], [-58.396, -17.2343], [-58.4781, -16.7007], [-58.3504, -16.4908], [-58.3456, -16.2844], [-58.5379, -16.3282], [-60.1756, -16.2693], [-60.2423, -15.4796], [-60.5832, -15.0983], [-60.2733, -15.0888], [-60.2989, -14.6186], [-60.4747, -14.1848], [-60.405, -14.0192], [-60.5066, -13.7898], [-61.077, -13.4897], [-61.5116, -13.5412], [-61.7899, -13.5256], [-62.0948, -13.242], [-62.118, -13.1598], [-62.3528, -13.1324], [-62.6871, -12.9943], [-62.7655, -12.9973], [-63.0152, -12.8056], [-63.0675, -12.6691], [-63.1168, -12.6517], [-63.2498, -12.7079], [-63.3467, -12.6801], [-63.6886, -12.478], [-63.7881, -12.4694], [-63.9386, -12.5297], [-64.4205, -12.4397], [-64.5134, -12.251], [-64.8299, -12.0303], [-64.9925, -11.9752], [-65.0903, -11.7412], [-65.1857, -11.7495], [-65.1754, -11.6469], [-65.322, -11.4392], [-65.3424, -11.315], [-65.3899, -11.2463], [-65.3716, -11.1104], [-65.3238, -11.0248], [-65.334, -10.8928], [-65.4471, -10.5074], [-65.3131, -10.253], [-65.2986, -10.1468], [-65.3246, -10.027], [-65.3093, -9.8727], [-65.3961, -9.7124], [-65.492, -9.7317], [-65.5587, -9.7975], [-65.6371, -9.8091], [-65.7068, -9.7685], [-65.9247, -9.7854], [-66.5753, -9.8999], [-66.73, -9.9755], [-67.1115, -10.2689], [-67.4169, -10.3898], [-67.5824, -10.506], [-67.7218, -10.6831], [-67.835, -10.6628], [-68.0717, -10.7031], [-68.3111, -10.9752], [-68.6227, -11.1092], [-68.7275, -11.1225], [-68.8483, -11.0111], [-69.2285, -10.9557], [-69.9604, -10.9299], [-70.2201, -11.0477], [-70.342, -11.0667], [-70.4509, -11.0248], [-70.5333, -10.9469], [-70.6423, -11.0103], [-70.6369, -9.8237], [-70.5672, -9.7046], [-70.5922, -9.5435], [-70.5411, -9.4375], [-70.6369, -9.4782], [-71.2379, -9.966], [-71.608, -10.0061], [-72.1816, -10.0037], [-72.1729, -9.844], [-72.26, -9.7743], [-72.3181, -9.5566], [-72.3791, -9.5102], [-72.8143, -9.4104], [-73.2094, -9.4114], [-72.9704, -9.1201], [-72.974, -8.9932], [-73.2031, -8.7193], [-73.3024, -8.654], [-73.3567, -8.567], [-73.3604, -8.4793], [-73.5491, -8.3458], [-73.6449, -8.0729], [-73.7756, -7.9364], [-73.7146, -7.829], [-73.7204, -7.7825], [-73.8221, -7.739], [-74.0021, -7.5561], [-73.9585, -7.5066], [-73.9643, -7.3789], [-73.7204, -7.3093], [-73.8046, -7.0799], [-73.7581, -6.9058], [-73.4999, -6.6795], [-73.3255, -6.5747], [-73.2403, -6.5641], [-73.1374, -6.4658], [-73.1354, -6.3443], [-73.2355, -6.0984], [-72.9799, -5.6349], [-72.8871, -5.1228], [-72.6987, -5.0672], [-72.3528, -4.786], [-71.8447, -4.5044], [-71.5213, -4.4697], [-70.9737, -4.3505], [-70.7995, -4.1733], [-70.4046, -4.1501], [-70.2392, -4.3012], [-70.1288, -4.2866], [-70.0533, -4.3331], [-69.972, -4.3012], [-69.4002, -1.1949], [-69.4491, -1.0916], [-69.4487, -0.9987], [-69.5436, -0.9172], [-69.6119, -0.7628], [-69.592, -0.6394], [-69.634, -0.5093], [-69.9228, -0.3175], [-70.0705, -0.1389], [-70.0539, 0.5786], [-69.8071, 0.6075], [-69.4721, 0.7299], [-69.283, 0.6272], [-69.1533, 0.6588], [-69.1768, 0.7128], [-69.1632, 0.8641], [-69.3118, 1.0505], [-69.8521, 1.0595], [-69.8486, 1.7087], [-69.5429, 1.7732], [-69.3197, 1.7212], [-68.1766, 1.7198], [-68.256, 1.8455], [-68.1938, 1.987], [-68.1303, 1.9558], [-68.0329, 1.788], [-67.9362, 1.7485], [-67.8151, 1.7901], [-67.5561, 2.073], [-67.4004, 2.1167], [-67.352, 2.0858], [-67.1192, 1.7036], [-67.0901, 1.6156], [-67.0937, 1.21], [-67.0652, 1.1784], [-66.876, 1.223]]], [[[-49.6287, -0.2292], [-49.4029, -0.2146], [-49.3143, -0.1679], [-49.117, -0.1636], [-48.5154, -0.2482], [-48.3927, -0.2974], [-48.3797, -0.3528], [-48.4975, -0.6649], [-48.5667, -0.6845], [-48.5397, -0.801], [-48.5709, -0.8929], [-48.7046, -1.1066], [-48.8397, -1.2266], [-48.8041, -1.327], [-48.9289, -1.4823], [-49.0869, -1.5051], [-49.1727, -1.4126], [-49.234, -1.5995], [-49.3448, -1.5952], [-49.5066, -1.5116], [-49.5257, -1.6305], [-49.5879, -1.7124], [-49.8051, -1.7902], [-50.0657, -1.7038], [-50.1093, -1.7479], [-50.3384, -1.756], [-50.4435, -1.8007], [-50.5076, -1.788], [-50.6021, -1.6978], [-50.7238, -1.3715], [-50.7598, -1.2402], [-50.7295, -1.1268], [-50.5959, -1.1475], [-50.577, -1.1031], [-50.5929, -1.0729], [-50.7096, -1.0777], [-50.7833, -1.0104], [-50.781, -0.6898], [-50.7199, -0.5834], [-50.6937, -0.3645], [-50.6455, -0.2729], [-50.4616, -0.1574], [-50.2482, -0.1164], [-49.6287, -0.2292]]], [[[-44.1293, -23.1419], [-44.098, -23.1693], [-44.3201, -23.2123], [-44.3602, -23.1721], [-44.2429, -23.0741], [-44.1916, -23.1133], [-44.1293, -23.1419]]], [[[-48.5844, -26.4016], [-48.6031, -26.4138], [-48.6658, -26.2896], [-48.5397, -26.1703], [-48.4976, -26.2188], [-48.5681, -26.3797], [-48.5844, -26.4016]]], [[[-45.2603, -23.8892], [-45.2609, -23.9413], [-45.3025, -23.9147], [-45.4128, -23.935], [-45.4514, -23.8956], [-45.3023, -23.7275], [-45.2491, -23.7826], [-45.2503, -23.853], [-45.2603, -23.8892]]], [[[-44.4993, -2.9396], [-44.5978, -3.0376], [-44.5691, -2.785], [-44.4814, -2.7176], [-44.4826, -2.8119], [-44.4993, -2.9396]]], [[[-38.7438, -13.0971], [-38.783, -13.1187], [-38.787, -13.0551], [-38.6849, -12.9749], [-38.6681, -12.8802], [-38.6146, -12.924], [-38.6012, -12.9926], [-38.7438, -13.0971]]], [[[-38.9036, -13.4734], [-38.9379, -13.5323], [-38.9776, -13.5235], [-39.0222, -13.4456], [-38.9801, -13.3984], [-38.9071, -13.4011], [-38.9036, -13.4734]]], [[[-44.8831, -1.3179], [-44.9679, -1.3908], [-45.0209, -1.3724], [-44.9787, -1.2673], [-44.8883, -1.2769], [-44.8831, -1.3179]]], [[[-49.7382, 0.2682], [-49.6973, 0.216], [-49.839, 0.0069], [-49.9171, -0.0232], [-50.0025, -0.0293], [-50.1131, 0.033], [-50.3395, 0.0434], [-50.3451, 0.1345], [-50.2727, 0.2317], [-50.128, 0.2265], [-49.879, 0.3045], [-49.7382, 0.2682]]], [[[-50.299, 1.9385], [-50.3988, 1.8929], [-50.4561, 1.9105], [-50.509, 2.0295], [-50.491, 2.1286], [-50.4188, 2.1615], [-50.342, 2.1417], [-50.2921, 1.9796], [-50.299, 1.9385]]], [[[-50.6529, -0.1316], [-50.9264, -0.3273], [-51.0381, -0.2259], [-50.9951, -0.1053], [-50.8422, -0.0502], [-50.667, -0.058], [-50.6506, -0.1059], [-50.6529, -0.1316]]], [[[-49.4439, -0.1124], [-49.7088, -0.1437], [-49.8301, -0.0939], [-49.7123, 0.0151], [-49.5035, 0.0837], [-49.4005, 0.0572], [-49.3809, -0.0555], [-49.4439, -0.1124]]], [[[-50.4261, 0.1393], [-50.4439, -0.0077], [-50.6239, 0.0544], [-50.6104, 0.2048], [-50.4516, 0.3269], [-50.4246, 0.5583], [-50.3728, 0.5909], [-50.351, 0.5817], [-50.3323, 0.259], [-50.4261, 0.1393]]], [[[-50.1529, 0.393], [-50.2613, 0.3592], [-50.2815, 0.3908], [-50.2512, 0.5854], [-50.0588, 0.638], [-50.04, 0.5228], [-50.1529, 0.393]]], [[[-51.8325, -1.4338], [-51.9384, -1.4526], [-51.8021, -1.2025], [-51.68, -1.0861], [-51.6783, -0.8551], [-51.546, -0.6496], [-51.4245, -0.5659], [-51.254, -0.5414], [-51.1607, -0.6667], [-51.2763, -1.0218], [-51.3101, -1.0238], [-51.4651, -1.2111], [-51.6377, -1.3419], [-51.8325, -1.4338]]], [[[-48.4859, -27.767], [-48.5546, -27.8122], [-48.5422, -27.5748], [-48.4149, -27.3996], [-48.3779, -27.4515], [-48.4968, -27.707], [-48.4859, -27.767]]]]}}, {"type": "Feature", "properties": {"name": "Chile", "iso3": "CHL", "label": [-71.9285, -40.6352]}, "geometry": {"type": "MultiPolygon", "coordinates": [[[[-109.28, -27.1404], [-109.4341, -27.1713], [-109.3905, -27.0684], [-109.2229, -27.1011], [-109.28, -27.1404]]], [[[-78.8042, -33.6465], [-78.9895, -33.6617], [-78.8774, -33.5752], [-78.7747, -33.6416], [-78.8042, -33.6465]]], [[[-70.4183, -18.3456], [-70.1838, -18.3252], [-69.9264, -18.2061], [-69.8026, -17.9902], [-69.8521, -17.7038], [-69.8061, -17.6649], [-69.6848, -17.6498], [-69.5109, -17.5061], [-69.495, -17.6195], [-69.358, -17.7717], [-69.3134, -17.9432], [-69.0939, -18.0505], [-69.1455, -18.144], [-68.9683, -18.968], [-68.4629, -19.4328], [-68.6983, -19.7211], [-68.5783, -19.8565], [-68.5607, -19.9671], [-68.6002, -20.0449], [-68.7558, -20.0908], [-68.6886, -20.3101], [-68.7605, -20.4162], [-68.7452, -20.4586], [-68.4843, -20.6284], [-68.5632, -20.7201], [-68.5583, -20.902], [-68.4355, -20.9482], [-68.197, -21.3003], [-68.1864, -21.6186], [-68.1122, -21.753], [-68.0768, -21.9828], [-67.9884, -22.0571], [-67.9504, -22.3337], [-67.8817, -22.4934], [-67.8794, -22.8229], [-67.7944, -22.8795], [-67.5799, -22.8917], [-67.1949, -22.8217], [-67.0088, -23.0014], [-67.3562, -24.0338], [-68.2503, -24.392], [-68.5073, -24.6298], [-68.562, -24.7474], [-68.562, -24.8377], [-68.4663, -24.9252], [-68.3842, -25.0919], [-68.4307, -25.1493], [-68.4963, -25.163], [-68.5921, -25.42], [-68.4145, -26.1537], [-68.5758, -26.352], [-68.5916, -26.4704], [-68.3187, -26.8775], [-68.3187, -26.9732], [-68.346, -27.0279], [-68.5374, -27.0854], [-68.5921, -27.14], [-68.6522, -27.1483], [-68.7096, -27.1045], [-68.8463, -27.1537], [-69.1744, -27.9247], [-69.4369, -28.1927], [-69.4889, -28.2009], [-69.6569, -28.4136], [-69.8279, -29.1032], [-69.9956, -29.25], [-70.0268, -29.324], [-69.9276, -29.7691], [-69.96, -30.0783], [-69.8634, -30.1203], [-69.8443, -30.175], [-69.9563, -30.3582], [-70.102, -30.3883], [-70.1532, -30.3609], [-70.3481, -30.9023], [-70.3091, -31.0227], [-70.3884, -31.1211], [-70.4731, -31.1128], [-70.5196, -31.1484], [-70.5852, -31.5694], [-70.4501, -31.8419], [-70.3938, -31.8838], [-70.331, -31.8811], [-70.2544, -31.9577], [-70.3638, -32.0835], [-70.32, -32.2667], [-70.2578, -32.31], [-70.2298, -32.4307], [-70.1696, -32.4717], [-70.177, -32.6261], [-70.1162, -32.8074], [-70.022, -32.8846], [-70.0931, -33.0268], [-70.0849, -33.2018], [-70.0198, -33.2715], [-69.8962, -33.251], [-69.8196, -33.2838], [-69.7978, -33.3986], [-69.8943, -33.7313], [-69.8524, -34.2243], [-70.0521, -34.3008], [-70.2899, -34.7328], [-70.3932, -35.1469], [-70.5552, -35.2469], [-70.5323, -35.3079], [-70.4704, -35.3262], [-70.4157, -35.523], [-70.3802, -35.7719], [-70.4157, -35.8785], [-70.4048, -36.0617], [-70.4567, -36.1327], [-70.5634, -36.1464], [-70.7219, -36.2832], [-70.7493, -36.3926], [-70.9051, -36.4199], [-71.0555, -36.5237], [-71.0664, -36.644], [-71.1922, -36.8437], [-71.1184, -37.1144], [-71.2004, -37.3003], [-71.1348, -37.4451], [-71.1867, -37.6311], [-71.1676, -37.7623], [-71.0282, -38.0412], [-70.968, -38.4459], [-70.8477, -38.5416], [-70.9516, -38.7385], [-71.0871, -38.7575], [-71.4016, -38.9351], [-71.42, -39.2872], [-71.5395, -39.6024], [-71.6543, -39.5942], [-71.7199, -39.6353], [-71.6379, -39.8868], [-71.6598, -40.0208], [-71.7044, -40.0949], [-71.802, -40.1247], [-71.8183, -40.1767], [-71.8006, -40.2443], [-71.6953, -40.3353], [-71.709, -40.3817], [-71.8046, -40.4392], [-71.9321, -40.6917], [-71.9414, -40.7892], [-71.873, -40.893], [-71.8711, -41.5605], [-71.9113, -41.6504], [-71.75, -42.0468], [-71.7609, -42.1015], [-71.8608, -42.1479], [-72.0261, -42.1479], [-72.1082, -42.2519], [-72.1246, -42.2983], [-72.0535, -42.4732], [-72.1437, -42.5771], [-72.1136, -42.7768], [-72.1464, -42.99], [-72.1024, -43.0656], [-71.7815, -43.1668], [-71.7506, -43.2373], [-71.7639, -43.2946], [-71.905, -43.3476], [-71.905, -43.4401], [-71.7506, -43.5901], [-71.7374, -43.7047], [-71.7947, -43.7532], [-71.6801, -43.9296], [-71.8124, -44.1061], [-71.82, -44.3831], [-71.2126, -44.4412], [-71.1509, -44.494], [-71.1597, -44.5603], [-71.2611, -44.7631], [-71.3582, -44.7852], [-71.4552, -44.7498], [-71.957, -44.7915], [-72.0637, -44.7719], [-72.0417, -44.9042], [-71.5963, -44.9792], [-71.3538, -45.2305], [-71.3493, -45.3319], [-71.4904, -45.4377], [-71.5081, -45.5127], [-71.6933, -45.5348], [-71.7462, -45.5789], [-71.7506, -45.8391], [-71.6315, -45.9537], [-71.6845, -46.0419], [-71.8757, -46.1605], [-71.7621, -46.3198], [-71.6997, -46.6514], [-71.7327, -46.7059], [-71.9402, -46.8312], [-71.963, -47.016], [-71.905, -47.2017], [-72.0417, -47.2414], [-72.1034, -47.3428], [-72.3459, -47.4927], [-72.3415, -47.5721], [-72.5179, -47.8764], [-72.5091, -47.9733], [-72.4079, -48.0159], [-72.3283, -48.1101], [-72.293, -48.2291], [-72.3547, -48.3658], [-72.4981, -48.4174], [-72.6084, -48.5193], [-72.6144, -48.7929], [-72.7285, -48.8963], [-73.0336, -49.0144], [-73.1489, -49.188], [-73.1353, -49.3007], [-73.4616, -49.3139], [-73.4836, -49.3977], [-73.5542, -49.4639], [-73.5763, -49.5829], [-73.4704, -49.7945], [-73.5289, -49.9109], [-73.5013, -50.1253], [-73.3117, -50.3619], [-73.1529, -50.7383], [-73.0824, -50.7604], [-72.8659, -50.6531], [-72.6204, -50.6477], [-72.5098, -50.6075], [-72.3926, -50.6343], [-72.3402, -50.6818], [-72.2763, -50.9103], [-72.3074, -51.0334], [-72.3768, -51.0954], [-72.3019, -51.2233], [-72.3032, -51.2989], [-72.4077, -51.5408], [-72.269, -51.6911], [-72.137, -51.744], [-71.9535, -51.8804], [-71.9711, -51.9642], [-71.9187, -51.9896], [-69.9603, -52.0082], [-69.4884, -52.1361], [-69.2062, -52.1361], [-68.461, -52.2904], [-68.4434, -52.3566], [-69.241, -52.2055], [-69.4469, -52.2694], [-69.6203, -52.4647], [-69.9072, -52.5136], [-70.391, -52.6608], [-70.5629, -52.6734], [-70.7951, -52.7687], [-70.8391, -52.8896], [-70.8212, -52.9631], [-70.9843, -53.3736], [-70.9478, -53.5704], [-70.9959, -53.7793], [-71.2978, -53.8834], [-71.6938, -53.8031], [-72.1744, -53.6323], [-72.3768, -53.4712], [-72.4129, -53.3502], [-72.3061, -53.2537], [-71.9417, -53.2341], [-71.8527, -53.2857], [-71.8282, -53.3983], [-71.8917, -53.5235], [-71.7915, -53.4846], [-71.7405, -53.2326], [-71.4003, -53.107], [-71.289, -53.0337], [-71.1633, -52.8881], [-71.1551, -52.8456], [-71.2271, -52.8106], [-71.3877, -52.7643], [-71.898, -53.0018], [-72.278, -53.1323], [-72.4926, -53.2906], [-72.5489, -53.4607], [-72.7268, -53.42], [-73.0527, -53.2435], [-72.9155, -53.122], [-72.8892, -52.8716], [-72.7277, -52.7623], [-72.676, -52.749], [-72.6266, -52.8176], [-72.4535, -52.8145], [-72.1176, -52.65], [-71.7971, -52.6828], [-71.5912, -52.6607], [-71.5113, -52.6054], [-71.8119, -52.537], [-72.2257, -52.521], [-72.3154, -52.5386], [-72.4377, -52.6258], [-72.5044, -52.5601], [-72.7121, -52.5355], [-72.7766, -52.5774], [-72.8019, -52.7124], [-72.9319, -52.7816], [-73.0203, -52.8918], [-73.023, -53.0221], [-73.1225, -53.0739], [-73.3382, -53.0547], [-73.5075, -52.9035], [-73.6452, -52.837], [-73.2408, -52.7071], [-73.0732, -52.5351], [-73.1239, -52.488], [-73.1838, -52.4879], [-73.1782, -52.5627], [-73.2441, -52.624], [-73.3821, -52.5951], [-73.5857, -52.6857], [-73.7108, -52.6615], [-73.9147, -52.6882], [-74.0145, -52.6394], [-74.0358, -52.5772], [-73.9999, -52.5126], [-74.0374, -52.4029], [-74.1508, -52.3825], [-74.2957, -52.1179], [-74.2649, -52.1049], [-73.8345, -52.234], [-73.7028, -52.1988], [-73.6843, -52.0777], [-73.5322, -52.1531], [-73.2604, -52.1578], [-72.9437, -52.0469], [-72.795, -51.9495], [-72.6955, -51.9852], [-72.6948, -52.0447], [-72.5708, -52.2001], [-72.5834, -52.2542], [-72.714, -52.3567], [-72.6771, -52.3847], [-72.6315, -52.3716], [-72.5233, -52.2555], [-72.5241, -52.1703], [-72.6248, -52.0069], [-72.6246, -51.9465], [-72.4941, -51.8476], [-72.4896, -51.7637], [-72.5425, -51.7062], [-72.7612, -51.5732], [-73.1268, -51.4399], [-73.1688, -51.4539], [-73.197, -51.478], [-73.1634, -51.4956], [-72.7894, -51.6143], [-72.6491, -51.695], [-72.5833, -51.7373], [-72.6, -51.7991], [-72.9284, -51.8599], [-73.3833, -52.07], [-73.5182, -52.041], [-73.6503, -51.8563], [-73.7526, -51.7955], [-73.8576, -51.7899], [-73.8944, -51.7578], [-73.9732, -51.7845], [-74.1967, -51.6806], [-74.0696, -51.5787], [-73.9298, -51.6179], [-73.8959, -51.3314], [-73.9395, -51.2663], [-74.1212, -51.1954], [-74.3323, -51.195], [-74.8147, -51.0629], [-75.0553, -50.7855], [-75.0947, -50.6812], [-74.6857, -50.662], [-74.6489, -50.6185], [-74.7759, -50.4699], [-74.6445, -50.3609], [-74.3656, -50.4879], [-74.1394, -50.8178], [-73.8065, -50.9384], [-73.8246, -50.8358], [-73.7406, -50.6967], [-73.6182, -50.6512], [-73.6933, -50.57], [-73.6544, -50.4927], [-73.7502, -50.5398], [-73.8915, -50.7827], [-73.978, -50.8271], [-74.1972, -50.6098], [-74.1856, -50.4854], [-73.9503, -50.5105], [-74.4251, -50.3502], [-74.6296, -50.194], [-74.3337, -49.9746], [-74.0194, -50.0228], [-73.9586, -49.9947], [-74.0112, -49.9285], [-74.0733, -49.9485], [-74.1713, -49.9073], [-74.3239, -49.7834], [-74.2908, -49.6041], [-74.102, -49.5554], [-73.8916, -49.6237], [-73.8364, -49.6094], [-73.8925, -49.5234], [-74.0944, -49.4297], [-74.0234, -49.2441], [-74.0154, -49.0909], [-73.935, -49.0209], [-74.0277, -49.0262], [-74.2213, -49.5006], [-74.3666, -49.4005], [-74.3821, -48.7937], [-74.341, -48.5957], [-74.1762, -48.4941], [-74.0569, -48.5036], [-74.0091, -48.475], [-74.1715, -48.4274], [-74.343, -48.4926], [-74.4744, -48.464], [-74.4994, -48.3623], [-74.5772, -48.2744], [-74.5847, -47.999], [-74.2504, -48.0449], [-73.8538, -48.0422], [-73.5282, -48.1982], [-73.3845, -48.1773], [-73.3911, -48.1459], [-73.501, -48.1066], [-73.6099, -47.9939], [-73.7159, -47.6555], [-73.8467, -47.867], [-73.9409, -47.9294], [-74.2271, -47.9689], [-74.3506, -47.9443], [-74.3762, -47.8297], [-74.6089, -47.758], [-74.6549, -47.7022], [-74.5338, -47.5677], [-74.243, -47.6793], [-74.1341, -47.5908], [-74.3237, -47.5314], [-74.4827, -47.4305], [-74.4033, -47.3275], [-74.1584, -47.1825], [-74.2081, -47.0831], [-74.1519, -46.9744], [-74.3136, -46.7882], [-74.4542, -46.7668], [-74.4844, -46.795], [-74.467, -46.8644], [-74.5123, -46.8852], [-74.6908, -46.864], [-75.006, -46.7411], [-75.0525, -46.628], [-74.9842, -46.5121], [-75.1458, -46.6001], [-75.5403, -46.6987], [-75.5651, -46.7287], [-75.446, -46.7508], [-75.3864, -46.8627], [-75.4304, -46.9346], [-75.4966, -46.9401], [-75.6353, -46.8628], [-75.7081, -46.775], [-75.7064, -46.7053], [-75.6568, -46.6104], [-74.9245, -46.1597], [-75.0745, -46.0045], [-75.0667, -45.8749], [-74.7631, -45.8236], [-74.4628, -45.8407], [-74.1579, -45.7672], [-74.0818, -45.6783], [-74.1227, -45.4962], [-74.0375, -45.4177], [-73.9572, -45.4044], [-73.825, -45.4469], [-73.9603, -45.8353], [-74.061, -45.9474], [-74.0199, -46.0559], [-74.0815, -46.1318], [-74.393, -46.2174], [-74.3725, -46.2463], [-74.0897, -46.2224], [-73.9676, -46.1541], [-73.8787, -45.8469], [-73.7353, -45.8117], [-73.6949, -45.8596], [-73.7082, -46.0703], [-73.8106, -46.3773], [-73.9486, -46.5331], [-73.9437, -46.5716], [-73.8454, -46.566], [-73.7703, -46.4998], [-73.6621, -46.2975], [-73.5918, -45.8991], [-73.5943, -45.7769], [-73.7566, -45.7028], [-73.7804, -45.6279], [-73.7308, -45.48], [-73.5499, -45.4838], [-73.2662, -45.3462], [-72.9338, -45.4523], [-72.9755, -45.3926], [-73.2264, -45.2552], [-73.445, -45.2382], [-73.4049, -45.1023], [-73.3625, -44.9782], [-73.0784, -44.9202], [-72.739, -44.7342], [-72.6801, -44.5939], [-72.6639, -44.4364], [-72.8275, -44.3954], [-73.2651, -44.1687], [-73.2245, -43.8979], [-73.0688, -43.862], [-72.9966, -43.6315], [-73.101, -43.4552], [-73.076, -43.3236], [-72.94, -43.2113], [-72.878, -43.0481], [-72.758, -43.0395], [-72.766, -42.9082], [-72.845, -42.808], [-72.848, -42.6691], [-72.7739, -42.5052], [-72.6318, -42.5097], [-72.7852, -42.3013], [-72.7732, -42.2577], [-72.6311, -42.1998], [-72.5484, -42.2558], [-72.4303, -42.4339], [-72.4124, -42.3882], [-72.4994, -41.9809], [-72.624, -42.0105], [-72.7382, -41.9946], [-72.8241, -41.9088], [-72.6599, -41.7425], [-72.486, -41.7221], [-72.3604, -41.6491], [-72.3183, -41.499], [-72.4277, -41.6459], [-72.5424, -41.6906], [-72.6698, -41.6594], [-72.8051, -41.5443], [-72.9528, -41.5147], [-73.2418, -41.7809], [-73.5213, -41.7971], [-73.624, -41.7736], [-73.7352, -41.7425], [-73.6239, -41.5813], [-73.8107, -41.5175], [-73.9659, -41.1183], [-73.9836, -40.9743], [-73.784, -40.4685], [-73.6694, -40.0823], [-73.671, -39.9632], [-73.4104, -39.7892], [-73.2499, -39.4224], [-73.2265, -39.2244], [-73.5202, -38.5094], [-73.5326, -38.3668], [-73.4648, -38.0403], [-73.6618, -37.6985], [-73.6646, -37.5904], [-73.6034, -37.4791], [-73.6624, -37.341], [-73.6017, -37.1885], [-73.3746, -37.2243], [-73.216, -37.1669], [-73.1181, -36.6884], [-73.0066, -36.6435], [-72.8746, -36.3904], [-72.7784, -35.9785], [-72.5874, -35.7597], [-72.6239, -35.5857], [-72.3867, -35.2404], [-72.2238, -35.0962], [-72.056, -34.6158], [-72.0028, -34.1653], [-71.831, -33.8195], [-71.6644, -33.6526], [-71.6363, -33.5192], [-71.6955, -33.429], [-71.743, -33.0951], [-71.592, -32.9695], [-71.4522, -32.6596], [-71.4213, -32.3868], [-71.513, -32.2079], [-71.5259, -31.8059], [-71.662, -31.1695], [-71.7089, -30.628], [-71.6695, -30.3304], [-71.4004, -30.143], [-71.3157, -29.6497], [-71.3267, -29.4432], [-71.3533, -29.3504], [-71.4858, -29.1982], [-71.5192, -28.9265], [-71.4936, -28.8553], [-71.3067, -28.6725], [-71.1864, -28.3778], [-71.0865, -27.8145], [-70.9258, -27.5887], [-70.8979, -27.1875], [-70.6466, -26.3294], [-70.6354, -25.9927], [-70.7137, -25.7842], [-70.633, -25.5456], [-70.4895, -25.3765], [-70.4522, -25.2519], [-70.5741, -24.6443], [-70.5074, -23.8857], [-70.3923, -23.5659], [-70.512, -23.4828], [-70.5881, -23.3684], [-70.5934, -23.2555], [-70.5632, -23.057], [-70.4497, -23.0342], [-70.3317, -22.8486], [-70.0875, -21.4931], [-70.0884, -21.2532], [-70.197, -20.7254], [-70.1481, -19.8051], [-70.2758, -19.2676], [-70.3616, -18.398], [-70.4183, -18.3456]]], [[[-68.6299, -52.6526], [-68.6532, -54.8536], [-69.0816, -54.9099], [-69.4863, -54.8589], [-69.7234, -54.7121], [-70.0305, -54.8155], [-70.1381, -54.8192], [-70.2817, -54.7518], [-70.4972, -54.8096], [-70.9247, -54.7144], [-71.2292, -54.6941], [-71.4409, -54.6196], [-71.8315, -54.6262], [-71.9016, -54.6016], [-71.9277, -54.5287], [-71.8001, -54.434], [-71.6063, -54.4972], [-71.3552, -54.3954], [-71.0799, -54.4442], [-70.9665, -54.4195], [-70.8982, -54.3379], [-70.7973, -54.3272], [-70.6988, -54.3488], [-70.7011, -54.4854], [-70.311, -54.5285], [-70.2977, -54.4855], [-70.54, -54.3034], [-70.7599, -54.2413], [-70.8631, -54.1104], [-70.8677, -53.8842], [-70.6445, -53.8229], [-70.6956, -53.7274], [-70.5313, -53.6273], [-70.3797, -53.9867], [-70.6298, -54.0056], [-70.5353, -54.1361], [-70.38, -54.1807], [-70.2461, -54.2774], [-70.2434, -54.3477], [-70.169, -54.3793], [-69.867, -54.3675], [-69.7418, -54.3059], [-69.4193, -54.4071], [-69.3251, -54.4882], [-69.3121, -54.5715], [-69.2532, -54.5574], [-69.0443, -54.4067], [-69.9881, -54.1091], [-70.1511, -53.8881], [-70.1488, -53.7611], [-70.0911, -53.7218], [-69.3899, -53.4994], [-69.356, -53.4163], [-69.3936, -53.3734], [-69.637, -53.3341], [-69.8741, -53.3505], [-70.0904, -53.4182], [-70.3293, -53.3776], [-70.4603, -53.2062], [-70.4434, -53.0855], [-70.3907, -53.0265], [-70.1965, -52.9902], [-70.1306, -52.9428], [-70.3801, -52.752], [-70.1896, -52.7236], [-69.9354, -52.8211], [-69.7636, -52.7313], [-69.4984, -52.4914], [-69.4141, -52.4862], [-69.167, -52.6676], [-69.0799, -52.6743], [-68.7898, -52.5768], [-68.6592, -52.6315], [-68.6299, -52.6526]]], [[[-67.0799, -55.1538], [-67.1726, -55.2426], [-67.3397, -55.2926], [-67.4947, -55.1774], [-67.7678, -55.2596], [-68.07, -55.2211], [-68.3014, -54.9807], [-68.1069, -54.9294], [-67.2453, -54.9776], [-67.0855, -55.1152], [-67.0799, -55.1538]]], [[[-73.7734, -43.3459], [-73.9187, -43.372], [-74.1144, -43.3579], [-74.3874, -43.2316], [-74.2095, -42.8787], [-74.1563, -42.5905], [-74.1988, -42.4813], [-74.1703, -42.2689], [-74.0723, -42.1059], [-74.0188, -41.8909], [-74.063, -41.8228], [-74.0367, -41.7955], [-73.731, -41.8772], [-73.5278, -41.8963], [-73.4229, -42.1929], [-73.4393, -42.2778], [-73.5328, -42.3145], [-73.4708, -42.4663], [-73.7893, -42.5857], [-73.5683, -42.7616], [-73.4363, -42.9365], [-73.5408, -43.0737], [-73.7497, -43.1591], [-73.7379, -43.2914], [-73.7734, -43.3459]]], [[[-74.4762, -49.1479], [-74.5221, -49.6229], [-74.4588, -49.6911], [-74.4961, -49.8595], [-74.5947, -50.0066], [-74.763, -50.0114], [-74.8804, -49.7259], [-74.8048, -49.516], [-74.7238, -49.4238], [-74.9601, -49.533], [-74.9935, -49.7518], [-75.066, -49.8523], [-75.3001, -49.8475], [-75.4512, -49.7699], [-75.5498, -49.7913], [-75.5701, -49.6971], [-75.5208, -49.6217], [-75.3371, -49.6282], [-75.3059, -49.494], [-75.4675, -49.3589], [-75.3267, -49.2687], [-75.2168, -49.2928], [-75.086, -49.2702], [-75.0937, -49.1854], [-75.2102, -49.148], [-75.1842, -49.0836], [-74.9492, -48.9602], [-74.9695, -48.7913], [-74.7935, -48.7051], [-74.5666, -48.7548], [-74.5307, -48.8126], [-74.4762, -49.1479]]], [[[-75.5103, -48.7635], [-75.6229, -48.7646], [-75.6509, -48.5863], [-75.5185, -48.3288], [-75.5607, -48.0709], [-75.3914, -48.0197], [-75.1555, -48.4252], [-75.1585, -48.6227], [-75.2251, -48.6714], [-75.434, -48.7212], [-75.5103, -48.7635]]], [[[-74.3857, -52.9224], [-74.066, -52.9653], [-73.654, -53.0698], [-73.4506, -53.1443], [-73.1352, -53.3539], [-73.5673, -53.3068], [-73.6171, -53.2297], [-73.8669, -53.0969], [-74.2702, -53.0815], [-74.5583, -52.9219], [-74.712, -52.7487], [-74.67, -52.7339], [-74.5715, -52.7713], [-74.4223, -52.8601], [-74.3857, -52.9224]]], [[[-74.5673, -48.592], [-74.5863, -48.6157], [-74.923, -48.6265], [-75.0128, -48.5357], [-75.0521, -48.3914], [-75.2129, -48.1417], [-75.2473, -48.0268], [-75.1983, -47.9746], [-74.9751, -47.9229], [-74.8957, -47.8394], [-74.8274, -47.8504], [-74.8462, -48.0208], [-74.7152, -48.1455], [-74.6024, -48.3703], [-74.6182, -48.4252], [-74.5673, -48.592]]], [[[-72.9232, -53.4816], [-72.8822, -53.5783], [-72.6855, -53.5579], [-72.4823, -53.5881], [-72.2054, -53.8074], [-72.3063, -53.8621], [-72.4085, -54.0038], [-72.5629, -54.0737], [-72.871, -54.1266], [-72.9586, -54.0659], [-72.7817, -53.9548], [-72.7638, -53.8648], [-72.9842, -53.8605], [-73.0395, -53.8328], [-73.0808, -53.998], [-73.2106, -53.9858], [-73.3047, -53.9439], [-73.3144, -53.7292], [-73.4709, -53.7361], [-73.6415, -53.5703], [-73.8455, -53.5458], [-73.6865, -53.4269], [-73.4471, -53.4101], [-73.3659, -53.4702], [-73.0994, -53.5119], [-73.0743, -53.3968], [-72.9473, -53.4425], [-72.9232, -53.4816]]], [[[-74.8229, -51.6302], [-74.7801, -51.8247], [-74.6475, -51.8662], [-74.5368, -51.9651], [-74.6945, -52.2792], [-74.8518, -52.2707], [-75.0171, -52.0379], [-75.1054, -51.7889], [-75.0081, -51.7237], [-74.9152, -51.7383], [-74.9097, -51.65], [-74.8229, -51.6302]]], [[[-69.703, -54.919], [-68.9008, -55.0178], [-68.6535, -54.9579], [-68.458, -54.9597], [-68.3998, -55.042], [-68.6133, -55.1556], [-68.3817, -55.1916], [-68.2827, -55.2552], [-68.3266, -55.3327], [-68.0899, -55.4783], [-68.0483, -55.6432], [-68.2296, -55.6016], [-68.338, -55.5053], [-68.5942, -55.45], [-68.867, -55.4502], [-68.9313, -55.3706], [-68.8901, -55.2412], [-69.0082, -55.2558], [-69.1926, -55.1719], [-69.2971, -55.1658], [-69.3592, -55.3007], [-69.1809, -55.4748], [-69.4118, -55.4442], [-69.6459, -55.3209], [-69.6574, -55.229], [-69.824, -55.2365], [-69.9798, -55.1475], [-69.8844, -54.882], [-69.703, -54.919]]], [[[-71.3905, -54.0328], [-71.1688, -54.1126], [-71.0219, -54.1118], [-71.0049, -54.2467], [-71.1175, -54.3663], [-71.4733, -54.2312], [-71.7612, -54.2298], [-71.8176, -54.2765], [-71.9485, -54.3009], [-71.9724, -54.2072], [-72.2104, -54.0478], [-72.146, -53.9389], [-71.9965, -53.8849], [-71.5542, -53.9561], [-71.3905, -54.0328]]], [[[-73.7354, -44.3945], [-73.7846, -44.4375], [-73.9833, -44.4948], [-74.0021, -44.5909], [-73.8774, -44.7288], [-73.7282, -45.1959], [-73.7521, -45.2668], [-73.8299, -45.2835], [-73.849, -45.3406], [-74.0163, -45.3449], [-74.0991, -45.3254], [-74.0893, -45.1957], [-74.1952, -45.1448], [-74.3499, -44.9108], [-74.6178, -44.6479], [-74.4805, -44.5846], [-74.5018, -44.4735], [-74.3012, -44.3957], [-74.2125, -44.427], [-74.0972, -44.3894], [-74.0828, -44.1864], [-73.9949, -44.1402], [-73.9002, -44.1349], [-73.8178, -44.235], [-73.7032, -44.2741], [-73.7037, -44.3254], [-73.7354, -44.3945]]], [[[-72.9861, -44.7801], [-73.2285, -44.86], [-73.35, -44.8332], [-73.3971, -44.7743], [-73.4451, -44.641], [-73.282, -44.4896], [-73.26, -44.3503], [-73.2077, -44.335], [-73.0284, -44.3841], [-72.7764, -44.5086], [-72.7641, -44.549], [-72.8972, -44.712], [-72.9861, -44.7801]]], [[[-75.0425, -44.8901], [-75.0987, -44.9018], [-75.1421, -44.8156], [-75.0795, -44.7951], [-75.0322, -44.8705], [-75.0425, -44.8901]]], [[[-75.302, -50.68], [-75.3305, -50.7724], [-75.4114, -50.7644], [-75.4774, -50.6542], [-75.4276, -50.4806], [-75.1153, -50.5104], [-75.2034, -50.5807], [-75.2923, -50.5969], [-75.302, -50.68]]], [[[-75.1067, -48.8365], [-75.1151, -48.916], [-75.3899, -49.1592], [-75.5061, -49.2307], [-75.6412, -49.1954], [-75.4876, -49.0824], [-75.5146, -49.0096], [-75.6378, -48.9426], [-75.6191, -48.8859], [-75.5353, -48.8382], [-75.1186, -48.7729], [-75.1067, -48.8365]]], [[[-75.1122, -47.8377], [-75.1858, -47.8507], [-75.261, -47.7639], [-75.0898, -47.6906], [-74.9265, -47.7231], [-74.916, -47.7566], [-75.0845, -47.8245], [-75.1122, -47.8377]]], [[[-74.6688, -43.6078], [-74.8104, -43.6254], [-74.842, -43.5703], [-74.745, -43.5359], [-74.6648, -43.5996], [-74.6688, -43.6078]]], [[[-73.6322, -44.8215], [-73.6946, -44.8312], [-73.8185, -44.6521], [-73.7795, -44.5592], [-73.6865, -44.5463], [-73.6166, -44.7529], [-73.6322, -44.8215]]], [[[-74.5586, -51.2771], [-74.5609, -51.3608], [-74.6204, -51.3957], [-74.7309, -51.3674], [-74.8533, -51.4342], [-75.0474, -51.3983], [-75.2891, -51.6254], [-75.3, -51.5564], [-75.1537, -51.2788], [-75.0403, -51.3182], [-74.7367, -51.2076], [-74.6116, -51.2071], [-74.5705, -51.2454], [-74.5586, -51.2771]]], [[[-75.0548, -50.2961], [-75.2504, -50.3763], [-75.3079, -50.3431], [-75.4491, -50.3434], [-75.3267, -50.0118], [-74.876, -50.11], [-74.8386, -50.1973], [-74.9634, -50.2373], [-75.0548, -50.2961]]], [[[-73.8106, -43.8272], [-73.7896, -43.8765], [-73.9042, -43.8754], [-73.9557, -43.922], [-74.143, -43.8722], [-74.1399, -43.821], [-73.8414, -43.789], [-73.8106, -43.8272]]], [[[-74.1422, -51.9311], [-74.3387, -51.8979], [-74.4236, -51.8451], [-74.4754, -51.7257], [-74.3621, -51.7507], [-74.1334, -51.8709], [-74.1189, -51.9111], [-74.1422, -51.9311]]], [[[-74.3129, -45.6915], [-74.4655, -45.7572], [-74.5616, -45.7225], [-74.6777, -45.7386], [-74.6898, -45.6626], [-74.4947, -45.4259], [-74.5023, -45.2852], [-74.4219, -45.2032], [-74.3105, -45.1727], [-74.3154, -45.4641], [-74.24, -45.5745], [-74.2439, -45.6536], [-74.3129, -45.6915]]], [[[-67.5752, -55.8896], [-67.8497, -55.8426], [-67.7621, -55.8161], [-67.5448, -55.826], [-67.5453, -55.8774], [-67.5752, -55.8896]]], [[[-66.4721, -55.2291], [-66.5517, -55.2729], [-66.6366, -55.2344], [-66.5416, -55.1694], [-66.4358, -55.1897], [-66.4721, -55.2291]]], [[[-70.9916, -54.868], [-70.9279, -54.943], [-70.8048, -54.9677], [-70.4175, -54.9089], [-70.2831, -55.0659], [-70.2979, -55.1138], [-70.4756, -55.1771], [-70.5435, -55.1613], [-70.5975, -55.082], [-70.711, -55.1069], [-70.9398, -55.0619], [-70.9907, -54.9904], [-71.2033, -54.893], [-71.2993, -54.8923], [-71.3886, -54.9343], [-71.4372, -54.8893], [-71.3743, -54.8346], [-71.0886, -54.8675], [-70.9916, -54.868]]], [[[-67.2889, -55.7769], [-67.56, -55.7248], [-67.3974, -55.5852], [-67.2673, -55.7628], [-67.2889, -55.7769]]]]}}, {"type": "Feature", "properties": {"name": "Colombia", "iso3": "COL", "label": [-72.6928, 3.4827]}, "geometry": {"type": "MultiPolygon", "coordinates": [[[[-71.3197, 11.8619], [-71.5361, 11.7741], [-71.9581, 11.6664], [-72.2485, 11.1964], [-72.4461, 11.1143], [-72.6901, 10.8358], [-72.8693, 10.4913], [-73.0065, 9.7892], [-73.3662, 9.1941], [-73.3367, 9.1679], [-73.1932, 9.1941], [-73.0584, 9.2596], [-73.0093, 9.2399], [-72.9602, 9.1352], [-72.7964, 9.109], [-72.6654, 8.6276], [-72.4166, 8.382], [-72.3903, 8.2871], [-72.3576, 8.0873], [-72.446, 7.9661], [-72.472, 7.5243], [-72.3946, 7.4151], [-72.2077, 7.3703], [-72.0843, 7.0969], [-72.0066, 7.0326], [-71.8927, 6.9903], [-71.6209, 7.0329], [-71.1286, 6.9867], [-71.0133, 6.9944], [-70.7372, 7.09], [-70.3875, 6.9726], [-70.1292, 6.9536], [-69.4271, 6.124], [-69.3571, 6.148], [-69.2682, 6.0997], [-69.0899, 6.1844], [-68.9372, 6.1982], [-68.7365, 6.1568], [-68.4718, 6.1565], [-67.9389, 6.2419], [-67.8592, 6.2899], [-67.5681, 6.2418], [-67.482, 6.1803], [-67.4394, 6.0255], [-67.4739, 5.93], [-67.5752, 5.8331], [-67.6313, 5.7094], [-67.6423, 5.5588], [-67.6946, 5.4475], [-67.7884, 5.3755], [-67.8249, 5.2705], [-67.8042, 5.1325], [-67.8553, 4.5069], [-67.8143, 4.4551], [-67.7832, 4.1982], [-67.6616, 3.8643], [-67.6025, 3.7688], [-67.4987, 3.6911], [-67.3111, 3.4159], [-67.3536, 3.3227], [-67.8348, 2.8928], [-67.8591, 2.7936], [-67.7665, 2.8333], [-67.6187, 2.7936], [-67.568, 2.6899], [-67.2108, 2.3901], [-67.2152, 2.2755], [-67.1138, 2.0506], [-67.1314, 1.9999], [-66.8845, 1.3583], [-66.876, 1.223], [-67.0823, 1.1854], [-67.0901, 1.6156], [-67.1192, 1.7036], [-67.352, 2.0858], [-67.4004, 2.1167], [-67.5561, 2.073], [-67.8151, 1.7901], [-67.9362, 1.7485], [-68.0329, 1.788], [-68.1303, 1.9558], [-68.1938, 1.987], [-68.256, 1.8455], [-68.1766, 1.7198], [-69.3197, 1.7212], [-69.5429, 1.7732], [-69.8486, 1.7087], [-69.8521, 1.0595], [-69.3118, 1.0505], [-69.1632, 0.8641], [-69.1768, 0.7128], [-69.1533, 0.6588], [-69.283, 0.6272], [-69.4721, 0.7299], [-69.8071, 0.6075], [-70.0539, 0.5786], [-70.0705, -0.1389], [-69.9228, -0.3175], [-69.634, -0.5093], [-69.592, -0.6394], [-69.6119, -0.7628], [-69.5436, -0.9172], [-69.4487, -0.9987], [-69.4491, -1.0916], [-69.4002, -1.1949], [-69.9659, -4.2359], [-70.1675, -4.0502], [-70.2403, -3.8827], [-70.3395, -3.8144], [-70.5297, -3.8664], [-70.7351, -3.7815], [-70.074, -2.7502], [-70.0647, -2.7017], [-70.0958, -2.6582], [-70.648, -2.4058], [-70.7054, -2.342], [-70.9686, -2.2068], [-71.1134, -2.2454], [-71.1964, -2.3131], [-71.397, -2.3341], [-71.5595, -2.2242], [-71.7525, -2.1527], [-71.9843, -2.3266], [-72.0538, -2.3246], [-72.2185, -2.4005], [-72.3956, -2.4289], [-72.6253, -2.3517], [-72.8112, -2.4055], [-72.9411, -2.394], [-72.9896, -2.3397], [-73.1545, -2.2782], [-73.1727, -2.2084], [-73.1265, -2.0811], [-73.197, -1.8303], [-73.224, -1.7877], [-73.3495, -1.7839], [-73.4963, -1.6931], [-73.5252, -1.6389], [-73.4943, -1.5366], [-73.5214, -1.4497], [-73.6643, -1.2488], [-73.8632, -1.1967], [-74.0544, -1.0286], [-74.2464, -0.9706], [-74.3344, -0.8509], [-74.4179, -0.5807], [-74.6164, -0.37], [-74.7554, -0.2986], [-74.8018, -0.2001], [-74.9453, -0.1882], [-75.1384, -0.0505], [-75.2246, -0.0417], [-75.2845, -0.1065], [-75.464, -0.0384], [-75.6173, 0.0629], [-75.7767, 0.0893], [-75.8798, 0.151], [-76.0679, 0.3456], [-76.2706, 0.4394], [-76.311, 0.4485], [-76.3882, 0.405], [-76.4273, 0.2612], [-76.4946, 0.2354], [-76.729, 0.2721], [-76.7677, 0.2417], [-76.8293, 0.2478], [-77.1141, 0.3551], [-77.3963, 0.3939], [-77.4677, 0.6365], [-77.6486, 0.7236], [-77.7029, 0.8378], [-77.8295, 0.8254], [-78.3121, 1.0461], [-78.5115, 1.1988], [-78.6816, 1.2834], [-78.8597, 1.4554], [-78.8885, 1.5241], [-79.0254, 1.6237], [-78.9577, 1.7522], [-78.793, 1.8487], [-78.5769, 1.7738], [-78.5504, 1.9236], [-78.6286, 2.0562], [-78.5917, 2.3566], [-78.5347, 2.4237], [-78.4169, 2.4835], [-78.3429, 2.4605], [-78.2961, 2.5105], [-78.12, 2.4882], [-78.0666, 2.5091], [-77.9323, 2.6292], [-77.8745, 2.7259], [-77.8136, 2.7164], [-77.67, 2.8789], [-77.6937, 3.0399], [-77.5591, 3.076], [-77.4171, 3.3418], [-77.3565, 3.3486], [-77.3244, 3.4748], [-77.0768, 3.9133], [-77.1666, 3.8623], [-77.2635, 3.8932], [-77.2484, 4.041], [-77.278, 4.0585], [-77.3582, 3.9447], [-77.4273, 4.0604], [-77.4087, 4.2478], [-77.5207, 4.2128], [-77.5155, 4.2563], [-77.3535, 4.3983], [-77.2863, 4.7217], [-77.3395, 4.8385], [-77.3733, 5.324], [-77.4018, 5.4162], [-77.5344, 5.5371], [-77.3246, 5.6756], [-77.2493, 5.7802], [-77.3447, 5.9954], [-77.4694, 6.1768], [-77.473, 6.2856], [-77.3982, 6.275], [-77.3688, 6.5756], [-77.4389, 6.6903], [-77.526, 6.6931], [-77.8037, 7.1373], [-77.9012, 7.2293], [-77.8283, 7.4428], [-77.7647, 7.4837], [-77.7439, 7.537], [-77.7619, 7.6988], [-77.7063, 7.6912], [-77.5866, 7.5431], [-77.5383, 7.5663], [-77.3508, 7.7059], [-77.3456, 7.8365], [-77.196, 7.9725], [-77.4073, 8.4272], [-77.4785, 8.4984], [-77.3931, 8.6447], [-77.3441, 8.6367], [-77.2616, 8.4937], [-77.1301, 8.4006], [-76.9358, 8.1468], [-76.8519, 8.0905], [-76.9122, 8.0334], [-76.9247, 7.9732], [-76.8966, 7.9395], [-76.7866, 7.9316], [-76.7423, 8.0021], [-76.7721, 8.3105], [-76.8186, 8.4647], [-76.9205, 8.5737], [-76.888, 8.6199], [-76.6894, 8.6947], [-76.2769, 8.9891], [-76.1355, 9.2656], [-76.0272, 9.3658], [-75.905, 9.4309], [-75.7556, 9.4156], [-75.6394, 9.4504], [-75.6036, 9.5385], [-75.68, 9.7298], [-75.5927, 9.9927], [-75.5959, 10.1258], [-75.5386, 10.2052], [-75.5584, 10.2364], [-75.7083, 10.1434], [-75.5537, 10.3277], [-75.446, 10.6109], [-74.8446, 11.1097], [-74.4542, 10.9891], [-74.3302, 10.9967], [-74.4923, 10.9345], [-74.5163, 10.8625], [-74.4603, 10.7871], [-74.4009, 10.7652], [-74.3502, 10.8137], [-74.2191, 11.1053], [-74.2002, 11.2657], [-74.1429, 11.3209], [-74.0591, 11.3406], [-73.6769, 11.2715], [-73.3134, 11.2958], [-72.7218, 11.7122], [-72.275, 11.8893], [-72.1652, 12.0602], [-72.1357, 12.1886], [-72.0551, 12.2384], [-71.9701, 12.2383], [-71.9191, 12.3091], [-71.7146, 12.42], [-71.494, 12.4323], [-71.2621, 12.3353], [-71.155, 12.1642], [-71.1373, 12.0463], [-71.2842, 11.9183], [-71.3197, 11.8619]]], [[[-78.1137, 2.5417], [-78.1408, 2.5197], [-78.2101, 2.6092], [-78.1784, 2.6463], [-78.1191, 2.6036], [-78.1137, 2.5417]]]]}}, {"type": "Feature", "properties": {"name": "Ecuador", "iso3": "ECU", "label": [-78.5786, -2.0163]}, "geometry": {"type": "MultiPolygon", "coordinates": [[[[-75.2845, -0.1065], [-75.3405, -0.1422], [-75.476, -0.1571], [-75.6263, -0.1229], [-75.632, -0.1576], [-75.4911, -0.2483], [-75.4247, -0.4089], [-75.2632, -0.5554], [-75.2594, -0.5901], [-75.2836, -0.7071], [-75.2496, -0.9519], [-75.3482, -0.9668], [-75.4081, -0.9243], [-75.5706, -1.5312], [-76.0898, -2.1331], [-76.6791, -2.5626], [-77.8606, -2.9816], [-78.1833, -3.3502], [-78.1585, -3.4651], [-78.2263, -3.4892], [-78.2842, -3.399], [-78.3454, -3.3974], [-78.4198, -3.7769], [-78.5504, -3.9869], [-78.6794, -4.3259], [-78.6529, -4.4582], [-78.686, -4.5624], [-78.9076, -4.7145], [-78.9192, -4.8584], [-78.9754, -4.8732], [-79.0333, -4.9691], [-79.0763, -4.9906], [-79.331, -4.9278], [-79.5019, -4.6706], [-79.5162, -4.5392], [-79.6385, -4.4549], [-79.7973, -4.4764], [-80.1396, -4.2961], [-80.1975, -4.311], [-80.2934, -4.4168], [-80.3835, -4.4637], [-80.4786, -4.4301], [-80.4885, -4.3937], [-80.3529, -4.2085], [-80.4538, -4.2052], [-80.4885, -4.1655], [-80.51, -4.0695], [-80.4901, -4.0101], [-80.4372, -3.9786], [-80.3033, -4.0051], [-80.1792, -3.8777], [-80.2289, -3.7389], [-80.2206, -3.6132], [-80.2735, -3.4246], [-80.3247, -3.3879], [-80.1599, -3.3243], [-79.9633, -3.1577], [-79.7299, -2.5791], [-79.7455, -2.4847], [-79.8224, -2.3565], [-79.8421, -2.0674], [-79.8934, -2.1457], [-79.8803, -2.4236], [-79.9256, -2.5485], [-79.989, -2.5787], [-80.0302, -2.5567], [-80.0066, -2.3538], [-80.2847, -2.7067], [-80.4501, -2.626], [-80.6849, -2.3969], [-80.8391, -2.349], [-80.9322, -2.2691], [-80.9628, -2.1893], [-80.7704, -2.0767], [-80.7606, -1.9346], [-80.7631, -1.8229], [-80.835, -1.6324], [-80.8014, -1.3834], [-80.9024, -1.0789], [-80.8414, -0.9747], [-80.5539, -0.8479], [-80.4555, -0.5854], [-80.2824, -0.6205], [-80.3848, -0.584], [-80.4823, -0.3683], [-80.3213, -0.1658], [-80.1334, -0.0061], [-80.0461, 0.1554], [-80.025, 0.4102], [-80.0883, 0.7848], [-80.0359, 0.8346], [-79.9035, 0.8602], [-79.7412, 0.9798], [-79.6132, 0.9711], [-79.4654, 1.0601], [-78.8997, 1.2063], [-78.8271, 1.2959], [-78.8597, 1.4554], [-78.6816, 1.2834], [-78.1807, 0.9686], [-77.8295, 0.8254], [-77.7029, 0.8378], [-77.6486, 0.7236], [-77.4677, 0.6365], [-77.3963, 0.3939], [-77.1141, 0.3551], [-76.8293, 0.2478], [-76.7677, 0.2417], [-76.729, 0.2721], [-76.4946, 0.2354], [-76.4273, 0.2612], [-76.4134, 0.3789], [-76.311, 0.4485], [-76.0679, 0.3456], [-75.8798, 0.151], [-75.7767, 0.0893], [-75.6173, 0.0629], [-75.464, -0.0384], [-75.2845, -0.1065]]], [[[-80.1316, -2.9731], [-80.1507, -3.0117], [-80.2729, -2.9959], [-80.2237, -2.7531], [-80.0808, -2.6688], [-79.9973, -2.6738], [-79.909, -2.7256], [-80.0132, -2.8195], [-80.0934, -2.8459], [-80.1316, -2.9731]]], [[[-78.9092, 1.2528], [-78.9656, 1.2454], [-78.9917, 1.2932], [-78.8998, 1.3598], [-78.9092, 1.2528]]], [[[-90.3349, -0.7716], [-90.3871, -0.7733], [-90.5421, -0.6765], [-90.5317, -0.5814], [-90.4697, -0.5174], [-90.2694, -0.4847], [-90.1853, -0.5448], [-90.1927, -0.6588], [-90.2611, -0.742], [-90.3154, -0.7572], [-90.3349, -0.7716]]], [[[-89.4189, -0.911], [-89.5366, -0.9523], [-89.6086, -0.8886], [-89.4231, -0.7223], [-89.2878, -0.6898], [-89.2594, -0.7284], [-89.3584, -0.8261], [-89.4189, -0.911]]], [[[-91.426, -0.4608], [-91.5264, -0.4782], [-91.6107, -0.4439], [-91.6466, -0.3908], [-91.6467, -0.2845], [-91.4602, -0.2557], [-91.3994, -0.3225], [-91.4, -0.4209], [-91.426, -0.4608]]], [[[-90.4239, -1.3399], [-90.5195, -1.2991], [-90.4772, -1.221], [-90.3791, -1.2923], [-90.4239, -1.3399]]], [[[-91.2722, 0.0251], [-91.2101, -0.0393], [-91.1762, -0.223], [-90.9755, -0.4169], [-90.9589, -0.5953], [-90.7997, -0.7521], [-90.9055, -0.9405], [-91.1311, -1.0196], [-91.419, -0.9967], [-91.4835, -0.9246], [-91.4954, -0.8609], [-91.3341, -0.7063], [-91.1447, -0.6229], [-91.1209, -0.5591], [-91.197, -0.497], [-91.2495, -0.3736], [-91.3692, -0.2872], [-91.4289, -0.0234], [-91.4687, -0.0103], [-91.55, -0.0467], [-91.5968, 0.0021], [-91.491, 0.1052], [-91.3614, 0.1258], [-91.3058, 0.0914], [-91.2722, 0.0251]]], [[[-90.5739, -0.334], [-90.6205, -0.3643], [-90.809, -0.3294], [-90.8678, -0.2714], [-90.7804, -0.1604], [-90.6675, -0.1898], [-90.5533, -0.2784], [-90.5739, -0.334]]]]}}, {"type": "Feature", "properties": {"name": "Falkland Is.", "iso3": "FLK", "label": [-58.6589, -51.69]}, "geometry": {"type": "MultiPolygon", "coordinates": [[[[-58.8502, -51.2699], [-58.6975, -51.3285], [-58.4258, -51.3242], [-58.3787, -51.373], [-58.4067, -51.4184], [-58.5192, -51.4239], [-58.5089, -51.4836], [-58.2716, -51.5747], [-58.2345, -51.5786], [-58.2893, -51.4575], [-58.2592, -51.4171], [-57.9765, -51.3844], [-57.8085, -51.518], [-57.9154, -51.5338], [-57.9604, -51.5832], [-57.7918, -51.6361], [-57.8382, -51.7092], [-58.1509, -51.7654], [-58.336, -51.8638], [-58.6835, -51.9362], [-58.6528, -52.0992], [-59.1959, -52.0177], [-59.068, -52.173], [-59.1628, -52.2018], [-59.3415, -52.196], [-59.3957, -52.308], [-59.6487, -52.1344], [-59.6492, -52.0772], [-59.5367, -51.9706], [-59.5708, -51.9254], [-59.2618, -51.7373], [-59.0595, -51.6854], [-59.0966, -51.4914], [-58.8867, -51.3579], [-58.9175, -51.2721], [-58.8502, -51.2699]]], [[[-60.2862, -51.4619], [-60.1416, -51.481], [-59.9171, -51.3881], [-59.7884, -51.446], [-59.7113, -51.4393], [-59.4651, -51.4105], [-59.3876, -51.36], [-59.2681, -51.4275], [-59.9214, -51.9695], [-60.2463, -51.9864], [-60.3535, -52.1399], [-60.5084, -52.1947], [-60.6864, -52.1884], [-60.9614, -52.0573], [-60.7625, -51.9465], [-60.5911, -51.9516], [-60.2385, -51.772], [-60.2765, -51.7166], [-60.5001, -51.7565], [-60.5825, -51.7127], [-60.2452, -51.6389], [-60.5058, -51.4854], [-60.5685, -51.3578], [-60.4455, -51.3994], [-60.2862, -51.4619]]], [[[-61.0187, -51.7857], [-60.876, -51.7942], [-60.9476, -51.9463], [-61.032, -51.9425], [-61.145, -51.8395], [-61.0517, -51.814], [-61.0187, -51.7857]]], [[[-58.4388, -52.011], [-58.4327, -52.099], [-58.5414, -52.0284], [-58.4605, -52.0016], [-58.4388, -52.011]]], [[[-60.1117, -51.3959], [-60.2488, -51.396], [-60.2753, -51.2806], [-60.1714, -51.2734], [-60.0698, -51.3079], [-60.0765, -51.3426], [-60.1117, -51.3959]]], [[[-59.6827, -52.2316], [-59.7645, -52.2422], [-59.7933, -52.1342], [-59.681, -52.1801], [-59.6827, -52.2316]]]]}}, {"type": "Feature", "properties": {"name": "Guyana", "iso3": "GUY", "label": [-58.817, 4.3743]}, "geometry": {"type": "MultiPolygon", "coordinates": [[[[-60.7421, 5.2021], [-61.3908, 5.9388], [-61.1287, 6.2143], [-61.151, 6.4465], [-61.2036, 6.5884], [-61.1456, 6.6945], [-60.938, 6.7328], [-60.8733, 6.7869], [-60.7179, 6.7683], [-60.395, 6.9454], [-60.3521, 7.0029], [-60.3221, 7.092], [-60.3451, 7.15], [-60.5832, 7.1562], [-60.6333, 7.2111], [-60.6065, 7.3209], [-60.7187, 7.5359], [-60.6101, 7.6483], [-60.5136, 7.8132], [-60.3806, 7.8276], [-60.1782, 7.994], [-60.0324, 8.0536], [-59.9648, 8.1916], [-59.8491, 8.2487], [-59.8316, 8.306], [-60.0175, 8.5493], [-59.8365, 8.3738], [-59.7567, 8.3395], [-59.7393, 8.38], [-59.6661, 8.3626], [-59.2002, 8.0746], [-58.8116, 7.7356], [-58.5111, 7.398], [-58.4773, 7.3258], [-58.4806, 7.0381], [-58.5829, 6.8437], [-58.6135, 6.5025], [-58.6729, 6.3908], [-58.594, 6.4515], [-58.5695, 6.6272], [-58.415, 6.8512], [-58.2984, 6.8793], [-57.9826, 6.7859], [-57.6076, 6.4504], [-57.5401, 6.3315], [-57.3437, 6.2721], [-57.2275, 6.1784], [-57.1902, 6.0973], [-57.1672, 5.885], [-57.1948, 5.5484], [-57.3186, 5.3354], [-57.2796, 5.2468], [-57.2185, 5.2315], [-57.2098, 5.1954], [-57.3096, 5.1059], [-57.331, 5.0202], [-57.7111, 4.9911], [-57.8811, 4.8806], [-57.917, 4.8204], [-57.846, 4.6682], [-57.9498, 4.35], [-58.0545, 4.1719], [-58.0543, 4.1017], [-58.0322, 4.002], [-57.9077, 3.8567], [-57.8327, 3.676], [-57.6495, 3.5174], [-57.6467, 3.3945], [-57.5496, 3.3528], [-57.3037, 3.3771], [-57.1974, 2.8533], [-57.1051, 2.7683], [-56.9315, 2.3954], [-56.7043, 2.0365], [-56.5627, 2.0051], [-56.4828, 1.9421], [-56.5636, 1.9072], [-56.6165, 1.9227], [-56.8367, 1.8813], [-57.0101, 1.9212], [-57.1189, 2.014], [-57.3175, 1.9635], [-57.4127, 1.9089], [-57.5458, 1.7261], [-57.9828, 1.6484], [-58.0347, 1.5203], [-58.1422, 1.517], [-58.3407, 1.5875], [-58.3958, 1.4817], [-58.5061, 1.4387], [-58.4869, 1.3478], [-58.5119, 1.2847], [-58.6846, 1.2811], [-58.8218, 1.2012], [-58.8625, 1.2036], [-58.9685, 1.3046], [-59.2312, 1.376], [-59.5357, 1.7], [-59.6666, 1.7463], [-59.6685, 1.8423], [-59.7562, 1.9006], [-59.7552, 2.2741], [-59.8896, 2.3629], [-59.9943, 2.69], [-59.9723, 2.9905], [-59.8312, 3.3492], [-59.8544, 3.5875], [-59.679, 3.6998], [-59.5511, 3.9335], [-59.7386, 4.2268], [-59.7033, 4.3811], [-59.8334, 4.4759], [-60.1486, 4.5333], [-60.0318, 4.7405], [-59.9907, 5.0829], [-60.0781, 5.144], [-60.142, 5.2388], [-60.2416, 5.258], [-60.3352, 5.1993], [-60.4595, 5.1881], [-60.6514, 5.2211], [-60.7421, 5.2021]]]]}}, {"type": "Feature", "properties": {"name": "Paraguay", "iso3": "PRY", "label": [-57.5829, -23.7378]}, "geometry": {"type": "MultiPolygon", "coordinates": [[[[-58.1598, -20.1646], [-58.1246, -20.2935], [-58.0022, -20.4654], [-57.9791, -20.6573], [-57.9151, -20.6903], [-57.9005, -20.873], [-57.8302, -20.9979], [-57.827, -21.1336], [-57.8931, -21.3022], [-57.8732, -21.3551], [-57.946, -21.494], [-57.9162, -21.6991], [-57.9328, -21.9107], [-57.9857, -22.0464], [-57.9559, -22.1092], [-57.8203, -22.1423], [-57.7211, -22.0992], [-57.5689, -22.1819], [-57.3309, -22.215], [-57.2382, -22.1952], [-56.9373, -22.2713], [-56.633, -22.2349], [-56.5238, -22.1025], [-56.4478, -22.0762], [-56.3949, -22.0927], [-56.3519, -22.1786], [-56.246, -22.2646], [-55.8492, -22.3076], [-55.7533, -22.4102], [-55.7037, -22.5921], [-55.6177, -22.6715], [-55.6507, -22.8864], [-55.5185, -23.4156], [-55.5383, -23.581], [-55.4589, -23.6867], [-55.4159, -23.9514], [-55.3663, -23.991], [-55.1943, -24.0175], [-54.9827, -23.9745], [-54.6255, -23.8125], [-54.4402, -23.9018], [-54.2418, -24.0473], [-54.3183, -24.1281], [-54.281, -24.3061], [-54.4541, -25.0652], [-54.4362, -25.1213], [-54.6105, -25.4327], [-54.6319, -26.0058], [-54.6777, -26.3088], [-54.7551, -26.5329], [-54.8255, -26.6522], [-54.9345, -26.7025], [-54.9622, -26.7594], [-55.1296, -26.886], [-55.1359, -26.9312], [-55.4267, -27.0093], [-55.4967, -27.1153], [-55.5649, -27.15], [-55.6329, -27.3571], [-55.7146, -27.4148], [-55.79, -27.4164], [-55.9515, -27.3257], [-56.1641, -27.3215], [-56.3105, -27.4388], [-56.3705, -27.5374], [-56.4372, -27.5538], [-56.5105, -27.4879], [-56.6034, -27.4679], [-56.7157, -27.4937], [-56.974, -27.4357], [-57.1118, -27.4701], [-57.3913, -27.4305], [-57.8122, -27.3166], [-58.1683, -27.2734], [-58.6048, -27.3144], [-58.6417, -27.1961], [-58.6186, -27.1321], [-58.5477, -27.084], [-58.4363, -26.922], [-58.3226, -26.8576], [-58.3347, -26.8249], [-58.1913, -26.63], [-58.203, -26.3814], [-58.1111, -26.1802], [-57.8906, -26.0065], [-57.7548, -25.6971], [-57.5717, -25.5342], [-57.5872, -25.4051], [-57.6439, -25.3284], [-57.8217, -25.1364], [-57.9598, -25.0492], [-58.1365, -24.9771], [-58.3654, -24.9593], [-58.5196, -24.8429], [-58.724, -24.7866], [-59.1873, -24.5623], [-59.8925, -24.0936], [-60.1103, -24.0092], [-60.2622, -24.014], [-60.5054, -23.9636], [-60.8398, -23.8581], [-61.0329, -23.7557], [-61.0847, -23.6564], [-61.2084, -23.557], [-61.404, -23.4575], [-61.7985, -23.182], [-62.0666, -22.8694], [-62.2142, -22.6124], [-62.3725, -22.4392], [-62.626, -22.2904], [-62.651, -22.2337], [-62.2767, -21.066], [-62.2763, -20.5625], [-61.9169, -20.0554], [-61.7568, -19.6453], [-60.0074, -19.2976], [-59.0905, -19.2862], [-58.1802, -19.8179], [-58.1399, -19.9988], [-58.1598, -20.1646]]]]}}, {"type": "Feature", "properties": {"name": "Peru", "iso3": "PER", "label": [-73.9754, -7.4457]}, "geometry": {"type": "MultiPolygon", "coordinates": [[[[-69.9659, -4.2359], [-69.972, -4.3012], [-70.0533, -4.3331], [-70.1288, -4.2866], [-70.2392, -4.3012], [-70.4046, -4.1501], [-70.7995, -4.1733], [-70.9737, -4.3505], [-71.5213, -4.4697], [-71.8447, -4.5044], [-72.3528, -4.786], [-72.6987, -5.0672], [-72.8871, -5.1228], [-72.9799, -5.6349], [-73.2355, -6.0984], [-73.1354, -6.3443], [-73.1374, -6.4658], [-73.2403, -6.5641], [-73.3255, -6.5747], [-73.4999, -6.6795], [-73.7581, -6.9058], [-73.8046, -7.0799], [-73.7204, -7.3093], [-73.9643, -7.3789], [-73.9585, -7.5066], [-74.0021, -7.5561], [-73.8221, -7.739], [-73.7204, -7.7825], [-73.7146, -7.829], [-73.7756, -7.9364], [-73.6449, -8.0729], [-73.5491, -8.3458], [-73.3604, -8.4793], [-73.3567, -8.567], [-73.3024, -8.654], [-73.2031, -8.7193], [-72.974, -8.9932], [-72.9704, -9.1201], [-73.2094, -9.4114], [-72.8143, -9.4104], [-72.3791, -9.5102], [-72.3181, -9.5566], [-72.26, -9.7743], [-72.1729, -9.844], [-72.1816, -10.0037], [-71.608, -10.0061], [-71.2379, -9.966], [-70.6369, -9.4782], [-70.5411, -9.4375], [-70.5922, -9.5435], [-70.5672, -9.7046], [-70.6369, -9.8237], [-70.6423, -11.0103], [-70.5333, -10.9469], [-70.3923, -11.0586], [-70.2904, -11.0643], [-69.9604, -10.9299], [-69.5786, -10.9518], [-68.6853, -12.502], [-68.7629, -12.6077], [-68.7591, -12.6872], [-68.8677, -12.7552], [-68.9786, -12.8801], [-68.9834, -13.4964], [-69.0741, -13.6828], [-68.9743, -13.976], [-68.8709, -14.1697], [-69.0045, -14.265], [-69.0131, -14.3772], [-69.2349, -14.5971], [-69.276, -14.7459], [-69.3595, -14.7953], [-69.3747, -14.963], [-69.1725, -15.2366], [-69.3019, -15.3994], [-69.4209, -15.6406], [-69.2176, -16.1491], [-69.1342, -16.222], [-68.9135, -16.2619], [-68.8428, -16.3379], [-69.0329, -16.476], [-69.0207, -16.6422], [-69.1998, -16.7685], [-69.4383, -17.0884], [-69.6249, -17.2002], [-69.6457, -17.2485], [-69.5219, -17.389], [-69.5109, -17.5061], [-69.6848, -17.6498], [-69.8061, -17.6649], [-69.8521, -17.7038], [-69.8026, -17.9902], [-69.9264, -18.2061], [-70.1838, -18.3252], [-70.4183, -18.3456], [-70.9417, -17.932], [-71.337, -17.6825], [-71.3994, -17.422], [-71.5322, -17.2943], [-71.7745, -17.1988], [-72.1113, -17.0025], [-72.4677, -16.7081], [-72.7939, -16.6146], [-73.4, -16.3043], [-73.7277, -16.2017], [-74.1471, -15.9125], [-74.3729, -15.834], [-74.5549, -15.699], [-75.1042, -15.4119], [-75.5336, -14.8992], [-75.9339, -14.6336], [-76.1751, -14.2267], [-76.289, -14.1331], [-76.297, -13.9484], [-76.3765, -13.8631], [-76.2592, -13.8028], [-76.1839, -13.5152], [-76.2236, -13.3712], [-76.5021, -12.9844], [-76.5552, -12.8234], [-76.758, -12.5271], [-76.8321, -12.3487], [-76.9941, -12.2192], [-77.0627, -12.1068], [-77.1527, -12.0604], [-77.2203, -11.6634], [-77.3099, -11.5324], [-77.6332, -11.2878], [-77.6643, -11.0221], [-77.7361, -10.8367], [-78.1856, -10.0891], [-78.4457, -9.3706], [-78.6646, -8.9711], [-78.7546, -8.7404], [-78.7623, -8.617], [-78.9254, -8.4046], [-79.0123, -8.2102], [-79.3772, -7.8355], [-79.5889, -7.4189], [-79.6177, -7.2956], [-79.995, -6.7689], [-80.1103, -6.6496], [-80.8116, -6.2822], [-81.142, -6.0567], [-81.1805, -5.9424], [-81.1643, -5.8753], [-81.0918, -5.8124], [-80.9917, -5.8609], [-80.9307, -5.8408], [-80.8827, -5.759], [-80.8819, -5.6351], [-80.9431, -5.4754], [-81.1677, -5.1671], [-81.1085, -5.0278], [-81.3366, -4.6695], [-81.2832, -4.3223], [-81.232, -4.2343], [-80.8919, -3.8816], [-80.7986, -3.7311], [-80.3247, -3.3879], [-80.2735, -3.4246], [-80.2206, -3.6132], [-80.2289, -3.7389], [-80.1792, -3.8777], [-80.3033, -4.0051], [-80.4372, -3.9786], [-80.4901, -4.0101], [-80.51, -4.0695], [-80.4885, -4.1655], [-80.4538, -4.2052], [-80.3529, -4.2085], [-80.4885, -4.3937], [-80.4786, -4.4301], [-80.3835, -4.4637], [-80.2934, -4.4168], [-80.1975, -4.311], [-80.1396, -4.2961], [-79.7973, -4.4764], [-79.6385, -4.4549], [-79.5162, -4.5392], [-79.5019, -4.6706], [-79.331, -4.9278], [-79.0763, -4.9906], [-79.0333, -4.9691], [-78.9754, -4.8732], [-78.9192, -4.8584], [-78.9076, -4.7145], [-78.686, -4.5624], [-78.6529, -4.4582], [-78.6794, -4.3259], [-78.5504, -3.9869], [-78.4198, -3.7769], [-78.3454, -3.3974], [-78.2842, -3.399], [-78.2263, -3.4892], [-78.1585, -3.4651], [-78.1833, -3.3502], [-77.8606, -2.9816], [-76.6791, -2.5626], [-76.0898, -2.1331], [-75.5706, -1.5312], [-75.4081, -0.9243], [-75.3482, -0.9668], [-75.2496, -0.9519], [-75.2836, -0.7071], [-75.2594, -0.5901], [-75.2632, -0.5554], [-75.4247, -0.4089], [-75.4911, -0.2483], [-75.632, -0.1576], [-75.6263, -0.1229], [-75.476, -0.1571], [-75.3405, -0.1422], [-75.2246, -0.0417], [-75.1384, -0.0505], [-74.9453, -0.1882], [-74.8018, -0.2001], [-74.7554, -0.2986], [-74.6164, -0.37], [-74.4179, -0.5807], [-74.3344, -0.8509], [-74.2464, -0.9706], [-74.0544, -1.0286], [-73.8632, -1.1967], [-73.6643, -1.2488], [-73.5214, -1.4497], [-73.4943, -1.5366], [-73.5252, -1.6389], [-73.4963, -1.6931], [-73.3495, -1.7839], [-73.224, -1.7877], [-73.197, -1.8303], [-73.1265, -2.0811], [-73.1727, -2.2084], [-73.1545, -2.2782], [-72.9896, -2.3397], [-72.9411, -2.394], [-72.8112, -2.4055], [-72.6253, -2.3517], [-72.3956, -2.4289], [-72.2185, -2.4005], [-72.0538, -2.3246], [-71.9843, -2.3266], [-71.7525, -2.1527], [-71.5595, -2.2242], [-71.397, -2.3341], [-71.1964, -2.3131], [-71.1134, -2.2454], [-70.9686, -2.2068], [-70.7054, -2.342], [-70.648, -2.4058], [-70.0958, -2.6582], [-70.0647, -2.7017], [-70.074, -2.7502], [-70.7351, -3.7815], [-70.5297, -3.8664], [-70.3395, -3.8144], [-70.2403, -3.8827], [-70.1675, -4.0502], [-70.0172, -4.162], [-69.9659, -4.2359]]]]}}, {"type": "Feature", "properties": {"name": "Suriname", "iso3": "SUR", "label": [-56.0712, 3.7254]}, "geometry": {"type": "MultiPolygon", "coordinates": [[[[-54.156, 5.359], [-54.3316, 5.1874], [-54.4522, 5.0135], [-54.4797, 4.8365], [-54.4261, 4.583], [-54.4496, 4.485], [-54.3984, 4.2025], [-54.3421, 4.14], [-54.3507, 4.0541], [-53.9905, 3.5896], [-54.0096, 3.4485], [-54.2031, 3.1382], [-54.1707, 2.9936], [-54.1955, 2.8179], [-54.402, 2.4615], [-54.4855, 2.4161], [-54.5359, 2.3433], [-54.6619, 2.3275], [-54.7222, 2.4417], [-54.8761, 2.4504], [-54.9787, 2.5977], [-55.0703, 2.5483], [-55.1877, 2.5475], [-55.344, 2.4888], [-55.3854, 2.4406], [-55.7306, 2.4062], [-55.9575, 2.5205], [-55.9935, 2.4975], [-56.0204, 2.3928], [-56.1294, 2.2995], [-56.1377, 2.259], [-56.0736, 2.2368], [-55.9153, 2.0396], [-55.9296, 1.8875], [-55.9633, 1.8571], [-56.0199, 1.8422], [-56.4528, 1.9323], [-56.5627, 2.0051], [-56.7043, 2.0365], [-56.9315, 2.3954], [-57.1051, 2.7683], [-57.1974, 2.8533], [-57.3037, 3.3771], [-57.5496, 3.3528], [-57.6467, 3.3945], [-57.6495, 3.5174], [-57.8327, 3.676], [-57.9077, 3.8567], [-58.0322, 4.002], [-58.0545, 4.1719], [-57.9498, 4.35], [-57.846, 4.6682], [-57.917, 4.8204], [-57.8811, 4.8806], [-57.7111, 4.9911], [-57.4122, 5.0046], [-57.3058, 5.0496], [-57.3096, 5.1059], [-57.2073, 5.2142], [-57.2796, 5.2468], [-57.3186, 5.3354], [-57.2479, 5.4853], [-57.1948, 5.5484], [-57.1821, 5.5289], [-57.0566, 5.9387], [-56.9698, 5.9929], [-56.2356, 5.8854], [-55.9396, 5.7955], [-55.8976, 5.6993], [-55.9099, 5.8926], [-55.8282, 5.9617], [-55.6483, 5.9859], [-55.3793, 5.9526], [-55.1483, 5.9935], [-54.8337, 5.9883], [-54.3562, 5.9099], [-54.0542, 5.8079], [-54.0459, 5.6089], [-54.0805, 5.5022], [-54.156, 5.359]]]]}}, {"type": "Feature", "properties": {"name": "Uruguay", "iso3": "URY", "label": [-56.0184, -32.2973]}, "geometry": {"type": "MultiPolygon", "coordinates": [[[[-53.3706, -33.7422], [-53.4725, -33.8493], [-53.5345, -34.0175], [-53.7429, -34.2495], [-53.7853, -34.3804], [-54.0103, -34.517], [-54.1686, -34.6707], [-54.2721, -34.6669], [-54.3653, -34.7327], [-54.9023, -34.9328], [-55.2379, -34.8958], [-55.3706, -34.8076], [-55.6731, -34.7757], [-56.1179, -34.9079], [-56.25, -34.9013], [-56.3878, -34.861], [-56.4631, -34.7754], [-56.8552, -34.6767], [-57.1707, -34.4523], [-57.8291, -34.4773], [-57.8732, -34.4477], [-57.9612, -34.3069], [-58.4002, -33.9124], [-58.4381, -33.7191], [-58.3635, -33.1823], [-58.2216, -33.1291], [-58.1536, -33.0646], [-58.0823, -32.8937], [-58.2012, -32.4717], [-58.1197, -32.2489], [-58.1648, -32.1849], [-58.189, -31.9242], [-58.0423, -31.7692], [-57.9889, -31.6206], [-58.0539, -31.4949], [-57.8934, -31.1953], [-57.8684, -31.1044], [-57.8983, -30.9752], [-57.8106, -30.8586], [-57.8186, -30.712], [-57.8725, -30.591], [-57.8312, -30.4952], [-57.6509, -30.295], [-57.6089, -30.1878], [-57.5523, -30.2612], [-57.2145, -30.2834], [-57.1205, -30.1444], [-57.0327, -30.11], [-56.8327, -30.1072], [-56.1762, -30.6284], [-56.0448, -30.7776], [-55.999, -30.8372], [-56.0047, -31.0792], [-55.8078, -31.0367], [-55.603, -30.8508], [-55.3661, -31.0462], [-55.2546, -31.2256], [-55.1735, -31.2796], [-55.0912, -31.314], [-55.036, -31.279], [-54.896, -31.3912], [-54.5876, -31.4852], [-54.3699, -31.745], [-54.2206, -31.8552], [-53.9206, -31.9523], [-53.7617, -32.0568], [-53.6017, -32.403], [-53.3627, -32.5812], [-53.2313, -32.6254], [-53.1256, -32.7367], [-53.4829, -33.0686], [-53.5313, -33.1709], [-53.5313, -33.6555], [-53.3976, -33.7373], [-53.3706, -33.7422]]]]}}, {"type": "Feature", "properties": {"name": "Venezuela", "iso3": "VEN", "label": [-66.0906, 7.1293]}, "geometry": {"type": "MultiPolygon", "coordinates": [[[[-60.8212, 9.1384], [-60.9414, 9.1056], [-60.9073, 9.1787], [-60.7816, 9.2184], [-60.7358, 9.2033], [-60.7904, 9.1772], [-60.8212, 9.1384]]], [[[-63.8494, 11.131], [-63.8173, 11.0003], [-63.9176, 10.8875], [-64.0547, 10.8843], [-64.1609, 10.9588], [-64.2189, 10.9416], [-64.4023, 10.9816], [-64.3486, 11.0519], [-64.2137, 11.0861], [-64.1128, 11.0057], [-64.0283, 11.0019], [-64.0073, 11.0685], [-63.8931, 11.1672], [-63.8494, 11.131]]], [[[-65.2125, 10.9064], [-65.2664, 10.884], [-65.4146, 10.9379], [-65.3832, 10.9738], [-65.3023, 10.9738], [-65.2266, 10.9302], [-65.2125, 10.9064]]], [[[-60.9979, 8.8673], [-61.06, 8.847], [-61.0692, 8.9473], [-60.9158, 9.0703], [-60.8492, 8.9957], [-60.9164, 8.8993], [-60.9979, 8.8673]]], [[[-60.0175, 8.5493], [-59.8316, 8.306], [-59.8491, 8.2487], [-59.9648, 8.1916], [-60.0324, 8.0536], [-60.1782, 7.994], [-60.3806, 7.8276], [-60.5136, 7.8132], [-60.6101, 7.6483], [-60.7187, 7.5359], [-60.6065, 7.3209], [-60.6333, 7.2111], [-60.5832, 7.1562], [-60.3451, 7.15], [-60.3221, 7.092], [-60.3521, 7.0029], [-60.395, 6.9454], [-60.7179, 6.7683], [-60.8733, 6.7869], [-60.938, 6.7328], [-61.1456, 6.6945], [-61.2036, 6.5884], [-61.151, 6.4465], [-61.1287, 6.2143], [-61.3908, 5.9388], [-60.7421, 5.2021], [-60.672, 5.1644], [-60.6045, 4.9946], [-60.6276, 4.8925], [-60.7417, 4.7741], [-60.9062, 4.6868], [-61.0028, 4.5353], [-61.1024, 4.5047], [-61.2801, 4.5169], [-61.3675, 4.433], [-61.4794, 4.4022], [-61.5542, 4.2878], [-62.1531, 4.0984], [-62.4106, 4.1567], [-62.6098, 4.0423], [-62.7121, 4.0179], [-62.7646, 3.6729], [-62.857, 3.5935], [-62.9687, 3.5939], [-63.3387, 3.9439], [-63.5268, 3.8937], [-63.6529, 3.9408], [-64.0215, 3.9291], [-64.1925, 4.1269], [-64.5764, 4.1399], [-64.7223, 4.2744], [-64.7887, 4.276], [-64.8179, 4.2323], [-64.669, 4.0118], [-64.2211, 3.5874], [-64.2188, 3.2047], [-64.0378, 2.8015], [-64.009, 2.6719], [-64.0466, 2.5024], [-63.9242, 2.4524], [-63.3893, 2.4119], [-63.3939, 2.2225], [-63.4639, 2.136], [-63.5703, 2.1205], [-63.8445, 1.9767], [-64.0085, 1.9316], [-64.1148, 1.6193], [-64.205, 1.5295], [-64.3042, 1.4553], [-64.486, 1.4528], [-64.7315, 1.2533], [-64.818, 1.2571], [-65.0266, 1.1584], [-65.3608, 0.8687], [-65.4734, 0.6913], [-65.5561, 0.688], [-65.523, 0.8434], [-65.566, 0.9261], [-65.6447, 0.9704], [-65.7181, 0.978], [-65.8113, 0.9373], [-66.0601, 0.7854], [-66.3017, 0.752], [-66.4292, 0.8217], [-66.876, 1.223], [-66.8845, 1.3583], [-66.9881, 1.6802], [-67.2152, 2.2755], [-67.2108, 2.3901], [-67.568, 2.6899], [-67.6187, 2.7936], [-67.7665, 2.8333], [-67.8591, 2.7936], [-67.8348, 2.8928], [-67.3536, 3.3227], [-67.3111, 3.4159], [-67.4987, 3.6911], [-67.6025, 3.7688], [-67.6616, 3.8643], [-67.7832, 4.1982], [-67.8143, 4.4551], [-67.8553, 4.5069], [-67.8042, 5.1325], [-67.8249, 5.2705], [-67.7884, 5.3755], [-67.6946, 5.4475], [-67.6423, 5.5588], [-67.6313, 5.7094], [-67.5752, 5.8331], [-67.4739, 5.93], [-67.4394, 6.0255], [-67.482, 6.1803], [-67.5681, 6.2418], [-67.8592, 6.2899], [-67.9389, 6.2419], [-68.4718, 6.1565], [-68.7365, 6.1568], [-68.9372, 6.1982], [-69.0899, 6.1844], [-69.2682, 6.0997], [-69.3571, 6.148], [-69.4271, 6.124], [-70.1292, 6.9536], [-70.3875, 6.9726], [-70.7372, 7.09], [-71.0133, 6.9944], [-71.1286, 6.9867], [-71.6209, 7.0329], [-71.8927, 6.9903], [-72.0066, 7.0326], [-72.0843, 7.0969], [-72.2077, 7.3703], [-72.3946, 7.4151], [-72.472, 7.5243], [-72.446, 7.9661], [-72.3576, 8.0873], [-72.3903, 8.2871], [-72.4166, 8.382], [-72.6654, 8.6276], [-72.7964, 9.109], [-72.9602, 9.1352], [-73.0093, 9.2399], [-73.0584, 9.2596], [-73.1932, 9.1941], [-73.3367, 9.1679], [-73.3662, 9.1941], [-73.0065, 9.7892], [-72.8693, 10.4913], [-72.6901, 10.8358], [-72.4461, 11.1143], [-72.2485, 11.1964], [-71.9581, 11.6664], [-71.5361, 11.7741], [-71.3197, 11.8619], [-71.4884, 11.7188], [-71.8687, 11.6273], [-71.9569, 11.5699], [-71.947, 11.4145], [-71.8351, 11.1903], [-71.6416, 11.0135], [-71.7309, 10.9947], [-71.6904, 10.8355], [-71.5984, 10.7262], [-71.5943, 10.6574], [-71.6648, 10.4437], [-71.9557, 10.1081], [-72.1128, 9.8156], [-71.9933, 9.6415], [-71.9763, 9.5532], [-71.7607, 9.3357], [-71.7813, 9.25], [-71.6867, 9.0725], [-71.5366, 9.0483], [-71.2414, 9.1604], [-71.0858, 9.3482], [-71.0527, 9.7058], [-71.0817, 9.8332], [-71.2622, 10.1436], [-71.3866, 10.2638], [-71.4942, 10.5332], [-71.5446, 10.7787], [-71.4611, 10.8356], [-71.4695, 10.9642], [-71.2644, 10.9995], [-70.8205, 11.2084], [-70.5456, 11.2614], [-70.2325, 11.373], [-70.0971, 11.5198], [-70.0485, 11.5303], [-69.8854, 11.4443], [-69.8048, 11.4742], [-69.7729, 11.5413], [-69.8173, 11.6721], [-70.1926, 11.6246], [-70.2865, 11.886], [-70.2028, 12.0984], [-70.004, 12.1779], [-69.8601, 12.0542], [-69.7624, 11.676], [-69.6316, 11.4799], [-69.2326, 11.5185], [-68.828, 11.4317], [-68.3986, 11.161], [-68.2721, 10.88], [-68.3247, 10.8087], [-68.2963, 10.6894], [-68.2341, 10.5691], [-68.1399, 10.4927], [-67.8716, 10.4721], [-66.9891, 10.6106], [-66.2472, 10.6322], [-66.1059, 10.5746], [-66.0905, 10.4729], [-65.8518, 10.2578], [-65.6559, 10.2285], [-65.1291, 10.0701], [-64.8505, 10.0981], [-64.1883, 10.4578], [-63.8337, 10.4485], [-63.7319, 10.5034], [-63.8627, 10.5582], [-64.1579, 10.5792], [-64.2475, 10.5426], [-64.2982, 10.6352], [-63.8734, 10.6638], [-63.4968, 10.6433], [-63.1899, 10.7092], [-62.9467, 10.7071], [-62.7023, 10.7498], [-62.2423, 10.6996], [-61.8795, 10.741], [-61.9214, 10.6814], [-62.2329, 10.634], [-62.38, 10.5469], [-62.6936, 10.563], [-62.9136, 10.5315], [-62.843, 10.5072], [-62.843, 10.4179], [-62.7812, 10.3992], [-62.6858, 10.2898], [-62.6616, 10.1986], [-62.7406, 10.0562], [-62.6512, 10.0707], [-62.6005, 10.1169], [-62.6005, 10.2173], [-62.5503, 10.2004], [-62.3204, 9.7831], [-62.2807, 9.793], [-62.2211, 9.8826], [-62.1534, 9.8218], [-62.1553, 9.9792], [-62.0771, 9.975], [-61.9086, 9.8699], [-61.7359, 9.6312], [-61.7659, 9.8138], [-61.6254, 9.8165], [-61.5889, 9.8945], [-61.3094, 9.6331], [-61.0134, 9.5564], [-60.7925, 9.3607], [-60.841, 9.2637], [-60.971, 9.2152], [-61.0231, 9.1546], [-61.1224, 8.8434], [-61.2473, 8.6003], [-61.6187, 8.5975], [-61.304, 8.4104], [-61.1938, 8.4876], [-61.036, 8.4931], [-60.801, 8.5921], [-60.4815, 8.5473], [-60.3402, 8.6288], [-60.1675, 8.617], [-60.0175, 8.5493]]]]}}]}